<?xml version="1.0" encoding="UTF-8" standalone="no" ?><gpx xmlns="http://www.topografix.com/GPX/1/1" xmlns:gpxx="http://www.garmin.com/xmlschemas/GpxExtensions/v3" xmlns:wptx1="http://www.garmin.com/xmlschemas/WaypointExtension/v1" xmlns:gpxtpx="http://www.garmin.com/xmlschemas/TrackPointExtension/v1" creator="eTrex 10" version="1.1" xmlns:xsi="http://www.w3.org/2001/XMLSchema-instance" xsi:schemaLocation="http://www.topografix.com/GPX/1/1 http://www.topografix.com/GPX/1/1/gpx.xsd http://www.garmin.com/xmlschemas/GpxExtensions/v3 http://www8.garmin.com/xmlschemas/GpxExtensionsv3.xsd http://www.garmin.com/xmlschemas/WaypointExtension/v1 http://www8.garmin.com/xmlschemas/WaypointExtensionv1.xsd http://www.garmin.com/xmlschemas/TrackPointExtension/v1 http://www.garmin.com/xmlschemas/TrackPointExtensionv1.xsd"><metadata><link href="http://www.garmin.com"><text>Garmin International</text></link><time>2022-09-12T04:17:51Z</time></metadata><wpt lat="33.987762" lon="71.431971"><ele>421.012238</ele><time>2022-09-12T04:17:51Z</time><name>001</name><sym>Flag, Blue</sym></wpt><wpt lat="33.988039" lon="71.432098"><ele>405.711090</ele><time>2022-09-12T04:23:56Z</time><name>002</name><sym>Flag, Blue</sym></wpt><wpt lat="33.988525" lon="71.432480"><ele>400.720398</ele><time>2022-09-12T04:42:37Z</time><name>003</name><sym>Flag, Blue</sym></wpt><wpt lat="33.988578" lon="71.432700"><ele>398.730133</ele><time>2022-09-12T04:43:36Z</time><name>004</name><sym>Flag, Blue</sym></wpt><wpt lat="33.988554" lon="71.433151"><ele>399.907928</ele><time>2022-09-12T04:44:12Z</time><name>005</name><sym>Flag, Blue</sym></wpt><wpt lat="33.989004" lon="71.433195"><ele>398.975159</ele><time>2022-09-12T04:52:04Z</time><name>006</name><sym>Flag, Blue</sym></wpt><wpt lat="33.989599" lon="71.433259"><ele>398.734528</ele><time>2022-09-12T04:53:00Z</time><name>007</name><sym>Flag, Blue</sym></wpt><wpt lat="33.990076" lon="71.433315"><ele>397.840851</ele><time>2022-09-12T04:53:40Z</time><name>008</name><sym>Flag, Blue</sym></wpt><wpt lat="33.990491" lon="71.433354"><ele>401.508575</ele><time>2022-09-12T04:54:19Z</time><name>009</name><sym>Flag, Blue</sym></wpt><wpt lat="33.991262" lon="71.433252"><ele>402.367218</ele><time>2022-09-12T04:55:32Z</time><name>010</name><sym>Flag, Blue</sym></wpt><wpt lat="33.992646" lon="71.433206"><ele>400.190918</ele><time>2022-09-12T04:56:57Z</time><name>011</name><sym>Flag, Blue</sym></wpt><wpt lat="33.992944" lon="71.433145"><ele>399.668701</ele><time>2022-09-12T05:02:04Z</time><name>012</name><sym>Flag, Blue</sym></wpt><wpt lat="33.993202" lon="71.433126"><ele>406.340607</ele><time>2022-09-12T05:03:54Z</time><name>013</name><sym>Flag, Blue</sym></wpt><wpt lat="33.993651" lon="71.433188"><ele>405.532715</ele><time>2022-09-12T05:04:31Z</time><name>014</name><sym>Flag, Blue</sym></wpt><wpt lat="33.994032" lon="71.433225"><ele>405.397003</ele><time>2022-09-12T05:04:47Z</time><name>015</name><sym>Flag, Blue</sym></wpt><wpt lat="33.994466" lon="71.433268"><ele>405.262238</ele><time>2022-09-12T05:04:59Z</time><name>016</name><sym>Flag, Blue</sym></wpt><wpt lat="33.994510" lon="71.433271"><ele>404.457794</ele><time>2022-09-12T05:05:01Z</time><name>017</name><sym>Flag, Blue</sym></wpt><wpt lat="33.994858" lon="71.433311"><ele>403.988892</ele><time>2022-09-12T05:05:13Z</time><name>018</name><sym>Flag, Blue</sym></wpt><wpt lat="33.994892" lon="71.433313"><ele>403.466644</ele><time>2022-09-12T05:05:14Z</time><name>019</name><sym>Flag, Blue</sym></wpt><wpt lat="33.995203" lon="71.433337"><ele>402.609650</ele><time>2022-09-12T05:05:26Z</time><name>020</name><sym>Flag, Blue</sym></wpt><wpt lat="33.995627" lon="71.433374"><ele>402.095367</ele><time>2022-09-12T05:05:52Z</time><name>021</name><sym>Flag, Blue</sym></wpt><wpt lat="33.996443" lon="71.433479"><ele>397.222046</ele><time>2022-09-12T05:12:25Z</time><name>022</name><sym>Flag, Blue</sym></wpt><wpt lat="33.996545" lon="71.433956"><ele>398.328796</ele><time>2022-09-12T05:13:06Z</time><name>023</name><sym>Flag, Blue</sym></wpt><wpt lat="33.996782" lon="71.434401"><ele>396.093933</ele><time>2022-09-12T05:15:11Z</time><name>024</name><sym>Flag, Blue</sym></wpt><wpt lat="33.996895" lon="71.435013"><ele>395.365387</ele><time>2022-09-12T05:15:28Z</time><name>025</name><sym>Flag, Blue</sym></wpt><wpt lat="33.996893" lon="71.435017"><ele>395.401703</ele><time>2022-09-12T05:15:29Z</time><name>026</name><sym>Flag, Blue</sym></wpt><wpt lat="33.997189" lon="71.435085"><ele>398.322113</ele><time>2022-09-12T05:16:35Z</time><name>027</name><sym>Flag, Blue</sym></wpt><wpt lat="33.997060" lon="71.435595"><ele>397.465790</ele><time>2022-09-12T05:18:21Z</time><name>028</name><sym>Flag, Blue</sym></wpt><wpt lat="33.997040" lon="71.435967"><ele>396.763428</ele><time>2022-09-12T05:18:29Z</time><name>029</name><sym>Flag, Blue</sym></wpt><wpt lat="33.997022" lon="71.436155"><ele>396.233887</ele><time>2022-09-12T05:18:36Z</time><name>030</name><sym>Flag, Blue</sym></wpt><wpt lat="33.996985" lon="71.436715"><ele>395.190002</ele><time>2022-09-12T05:19:17Z</time><name>031</name><sym>Flag, Blue</sym></wpt><wpt lat="33.996940" lon="71.437587"><ele>394.061584</ele><time>2022-09-12T05:19:31Z</time><name>032</name><sym>Flag, Blue</sym></wpt><wpt lat="33.996936" lon="71.437663"><ele>393.944275</ele><time>2022-09-12T05:19:32Z</time><name>033</name><sym>Flag, Blue</sym></wpt><wpt lat="33.996891" lon="71.438446"><ele>393.273682</ele><time>2022-09-12T05:19:49Z</time><name>034</name><sym>Flag, Blue</sym></wpt><wpt lat="33.996886" lon="71.439316"><ele>393.294159</ele><time>2022-09-12T05:20:38Z</time><name>035</name><sym>Flag, Blue</sym></wpt><wpt lat="33.996889" lon="71.439317"><ele>393.106262</ele><time>2022-09-12T05:20:42Z</time><name>036</name><sym>Flag, Blue</sym></wpt><wpt lat="33.996891" lon="71.439316"><ele>393.035461</ele><time>2022-09-12T05:20:45Z</time><name>037</name><sym>Flag, Blue</sym></wpt></gpx>