<?xml version="1.0" encoding="UTF-8" standalone="no" ?><gpx xmlns="http://www.topografix.com/GPX/1/1" xmlns:gpxx="http://www.garmin.com/xmlschemas/GpxExtensions/v3" xmlns:wptx1="http://www.garmin.com/xmlschemas/WaypointExtension/v1" xmlns:gpxtpx="http://www.garmin.com/xmlschemas/TrackPointExtension/v1" creator="eTrex 10" version="1.1" xmlns:xsi="http://www.w3.org/2001/XMLSchema-instance" xsi:schemaLocation="http://www.topografix.com/GPX/1/1 http://www.topografix.com/GPX/1/1/gpx.xsd http://www.garmin.com/xmlschemas/GpxExtensions/v3 http://www8.garmin.com/xmlschemas/GpxExtensionsv3.xsd http://www.garmin.com/xmlschemas/WaypointExtension/v1 http://www8.garmin.com/xmlschemas/WaypointExtensionv1.xsd http://www.garmin.com/xmlschemas/TrackPointExtension/v1 http://www.garmin.com/xmlschemas/TrackPointExtensionv1.xsd"><metadata><link href="http://www.garmin.com"><text>Garmin International</text></link><time>2022-09-14T08:27:20Z</time></metadata><wpt lat="33.969640" lon="71.473401"><ele>393.322266</ele><time>2022-09-14T08:27:19Z</time><name>038</name><sym>Flag, Blue</sym></wpt><wpt lat="33.969601" lon="71.473373"><ele>394.941711</ele><time>2022-09-14T08:28:55Z</time><name>039</name><sym>Flag, Blue</sym></wpt><wpt lat="33.969704" lon="71.473616"><ele>392.004517</ele><time>2022-09-14T08:29:34Z</time><name>040</name><sym>Flag, Blue</sym></wpt><wpt lat="33.969565" lon="71.473921"><ele>394.549866</ele><time>2022-09-14T08:30:57Z</time><name>041</name><sym>Flag, Blue</sym></wpt><wpt lat="33.969480" lon="71.473069"><ele>395.748932</ele><time>2022-09-14T08:33:20Z</time><name>042</name><sym>Flag, Blue</sym></wpt><wpt lat="33.969457" lon="71.472457"><ele>397.107605</ele><time>2022-09-14T08:34:59Z</time><name>043</name><sym>Flag, Blue</sym></wpt><wpt lat="33.969400" lon="71.472121"><ele>390.815918</ele><time>2022-09-14T08:36:20Z</time><name>044</name><sym>Flag, Blue</sym></wpt><wpt lat="33.969400" lon="71.472099"><ele>391.800964</ele><time>2022-09-14T08:36:30Z</time><name>045</name><sym>Flag, Blue</sym></wpt><wpt lat="33.969403" lon="71.472084"><ele>392.888672</ele><time>2022-09-14T08:37:23Z</time><name>046</name><sym>Flag, Blue</sym></wpt><wpt lat="33.969399" lon="71.471838"><ele>392.470947</ele><time>2022-09-14T08:37:59Z</time><name>047</name><sym>Flag, Blue</sym></wpt><wpt lat="33.969138" lon="71.471316"><ele>395.666718</ele><time>2022-09-14T08:39:15Z</time><name>048</name><sym>Flag, Blue</sym></wpt><wpt lat="33.968847" lon="71.470866"><ele>392.167511</ele><time>2022-09-14T08:40:28Z</time><name>049</name><sym>Flag, Blue</sym></wpt><wpt lat="33.968618" lon="71.470505"><ele>396.214630</ele><time>2022-09-14T08:40:59Z</time><name>050</name><sym>Flag, Blue</sym></wpt><wpt lat="33.968592" lon="71.470236"><ele>398.317993</ele><time>2022-09-14T08:45:23Z</time><name>051</name><sym>Flag, Blue</sym></wpt><wpt lat="33.968320" lon="71.469914"><ele>403.903107</ele><time>2022-09-14T08:46:14Z</time><name>052</name><sym>Flag, Blue</sym></wpt><wpt lat="33.966671" lon="71.466740"><ele>403.103851</ele><time>2022-09-14T08:56:06Z</time><name>053</name><sym>Flag, Blue</sym></wpt><wpt lat="33.968843" lon="71.464807"><ele>397.285828</ele><time>2022-09-14T09:05:45Z</time><name>054</name><sym>Flag, Blue</sym></wpt><wpt lat="33.968872" lon="71.465269"><ele>397.635162</ele><time>2022-09-14T09:06:34Z</time><name>055</name><sym>Flag, Blue</sym></wpt><wpt lat="33.968867" lon="71.465342"><ele>401.536743</ele><time>2022-09-14T09:06:52Z</time><name>056</name><sym>Flag, Blue</sym></wpt><wpt lat="33.968845" lon="71.465369"><ele>401.246399</ele><time>2022-09-14T09:06:53Z</time><name>057</name><sym>Flag, Blue</sym></wpt><wpt lat="33.968836" lon="71.465381"><ele>399.488251</ele><time>2022-09-14T09:08:38Z</time><name>058</name><sym>Flag, Blue</sym></wpt><wpt lat="33.969186" lon="71.465295"><ele>402.428436</ele><time>2022-09-14T09:10:06Z</time><name>059</name><sym>Flag, Blue</sym></wpt><wpt lat="33.969364" lon="71.465214"><ele>400.063202</ele><time>2022-09-14T09:10:46Z</time><name>060</name><sym>Flag, Blue</sym></wpt><wpt lat="33.969430" lon="71.465647"><ele>395.147980</ele><time>2022-09-14T09:13:16Z</time><name>061</name><sym>Flag, Blue</sym></wpt><wpt lat="33.969708" lon="71.465642"><ele>401.065857</ele><time>2022-09-14T09:14:16Z</time><name>062</name><sym>Flag, Blue</sym></wpt><wpt lat="33.969765" lon="71.465481"><ele>398.119568</ele><time>2022-09-14T09:16:34Z</time><name>063</name><sym>Flag, Blue</sym></wpt><wpt lat="33.969877" lon="71.465463"><ele>393.696716</ele><time>2022-09-14T09:17:00Z</time><name>064</name><sym>Flag, Blue</sym></wpt><wpt lat="33.970196" lon="71.465342"><ele>389.324097</ele><time>2022-09-14T09:17:32Z</time><name>065</name><sym>Flag, Blue</sym></wpt><wpt lat="33.970414" lon="71.465307"><ele>398.289246</ele><time>2022-09-14T09:18:44Z</time><name>066</name><sym>Flag, Blue</sym></wpt><wpt lat="33.970586" lon="71.465189"><ele>397.887115</ele><time>2022-09-14T09:19:07Z</time><name>067</name><sym>Flag, Blue</sym></wpt><wpt lat="33.969260" lon="71.464940"><ele>403.281403</ele><time>2022-09-14T09:24:58Z</time><name>068</name><sym>Flag, Blue</sym></wpt><wpt lat="33.969456" lon="71.464825"><ele>402.087341</ele><time>2022-09-14T09:25:24Z</time><name>069</name><sym>Flag, Blue</sym></wpt><wpt lat="33.969364" lon="71.464474"><ele>401.996155</ele><time>2022-09-14T09:26:44Z</time><name>070</name><sym>Flag, Blue</sym></wpt><wpt lat="33.969903" lon="71.464789"><ele>410.055817</ele><time>2022-09-14T09:27:51Z</time><name>071</name><sym>Flag, Blue</sym></wpt><wpt lat="33.970305" lon="71.464630"><ele>405.865936</ele><time>2022-09-14T09:28:30Z</time><name>072</name><sym>Flag, Blue</sym></wpt><wpt lat="33.970634" lon="71.464547"><ele>398.366150</ele><time>2022-09-14T09:29:08Z</time><name>073</name><sym>Flag, Blue</sym></wpt></gpx>