<?xml version="1.0" encoding="UTF-8" standalone="no" ?><gpx xmlns="http://www.topografix.com/GPX/1/1" xmlns:gpxx="http://www.garmin.com/xmlschemas/GpxExtensions/v3" xmlns:wptx1="http://www.garmin.com/xmlschemas/WaypointExtension/v1" xmlns:gpxtpx="http://www.garmin.com/xmlschemas/TrackPointExtension/v1" creator="GPSMAP 78s" version="1.1" xmlns:xsi="http://www.w3.org/2001/XMLSchema-instance" xsi:schemaLocation="http://www.topografix.com/GPX/1/1 http://www.topografix.com/GPX/1/1/gpx.xsd http://www.garmin.com/xmlschemas/GpxExtensions/v3 http://www8.garmin.com/xmlschemas/GpxExtensionsv3.xsd http://www.garmin.com/xmlschemas/WaypointExtension/v1 http://www8.garmin.com/xmlschemas/WaypointExtensionv1.xsd http://www.garmin.com/xmlschemas/TrackPointExtension/v1 http://www.garmin.com/xmlschemas/TrackPointExtensionv1.xsd"><metadata><link href="http://www.garmin.com"><text>Garmin International</text></link><time>2020-09-24T05:00:33Z</time></metadata><wpt lat="33.974800" lon="71.503022"><ele>376.797516</ele><time>2020-09-24T05:00:33Z</time><name>192</name><sym>Flag, Blue</sym></wpt><wpt lat="33.974082" lon="71.504052"><ele>372.083252</ele><time>2020-09-24T05:02:54Z</time><name>193</name><sym>Flag, Blue</sym></wpt><wpt lat="33.973562" lon="71.504831"><ele>374.496857</ele><time>2020-09-24T05:05:57Z</time><name>194</name><sym>Flag, Blue</sym></wpt><wpt lat="33.973573" lon="71.504844"><ele>374.499084</ele><time>2020-09-24T05:06:00Z</time><name>195</name><sym>Flag, Blue</sym></wpt><wpt lat="33.973567" lon="71.504821"><ele>374.499573</ele><time>2020-09-24T05:06:04Z</time><name>196</name><sym>Flag, Blue</sym></wpt><wpt lat="33.973421" lon="71.504977"><ele>374.432770</ele><time>2020-09-24T05:06:38Z</time><name>197</name><sym>Flag, Blue</sym></wpt><wpt lat="33.973185" lon="71.505375"><ele>374.361450</ele><time>2020-09-24T05:11:05Z</time><name>198</name><sym>Flag, Blue</sym></wpt><wpt lat="33.973374" lon="71.505610"><ele>374.103455</ele><time>2020-09-24T05:11:41Z</time><name>199</name><sym>Flag, Blue</sym></wpt><wpt lat="33.973676" lon="71.505821"><ele>373.815491</ele><time>2020-09-24T05:12:25Z</time><name>200</name><sym>Flag, Blue</sym></wpt><wpt lat="33.973685" lon="71.505821"><ele>373.824432</ele><time>2020-09-24T05:12:28Z</time><name>201</name><sym>Flag, Blue</sym></wpt><wpt lat="33.973698" lon="71.505809"><ele>373.836395</ele><time>2020-09-24T05:12:32Z</time><name>202</name><sym>Flag, Blue</sym></wpt><wpt lat="33.972757" lon="71.506066"><ele>374.944580</ele><time>2020-09-24T05:18:12Z</time><name>203</name><sym>Flag, Blue</sym></wpt><wpt lat="33.972669" lon="71.505974"><ele>375.283539</ele><time>2020-09-24T05:18:28Z</time><name>204</name><sym>Flag, Blue</sym></wpt><wpt lat="33.972667" lon="71.505977"><ele>375.275818</ele><time>2020-09-24T05:18:32Z</time><name>205</name><sym>Flag, Blue</sym></wpt><wpt lat="33.972687" lon="71.505980"><ele>375.267517</ele><time>2020-09-24T05:18:37Z</time><name>206</name><sym>Flag, Blue</sym></wpt><wpt lat="33.972734" lon="71.506119"><ele>374.505859</ele><time>2020-09-24T05:20:25Z</time><name>207</name><sym>Flag, Blue</sym></wpt><wpt lat="33.972399" lon="71.506582"><ele>376.525574</ele><time>2020-09-24T05:22:49Z</time><name>208</name><sym>Flag, Blue</sym></wpt><wpt lat="33.972720" lon="71.506836"><ele>375.754791</ele><time>2020-09-24T05:28:44Z</time><name>209</name><sym>Flag, Blue</sym></wpt><wpt lat="33.972713" lon="71.506839"><ele>375.763855</ele><time>2020-09-24T05:28:48Z</time><name>210</name><sym>Flag, Blue</sym></wpt><wpt lat="33.972720" lon="71.506831"><ele>375.774017</ele><time>2020-09-24T05:28:51Z</time><name>211</name><sym>Flag, Blue</sym></wpt><wpt lat="33.972050" lon="71.507165"><ele>377.404358</ele><time>2020-09-24T05:30:42Z</time><name>212</name><sym>Flag, Blue</sym></wpt><wpt lat="33.971530" lon="71.507874"><ele>378.542419</ele><time>2020-09-24T05:31:58Z</time><name>213</name><sym>Flag, Blue</sym></wpt><wpt lat="33.971208" lon="71.508332"><ele>378.461945</ele><time>2020-09-24T05:33:10Z</time><name>214</name><sym>Flag, Blue</sym></wpt><wpt lat="33.971184" lon="71.508321"><ele>378.448700</ele><time>2020-09-24T05:33:15Z</time><name>215</name><sym>Flag, Blue</sym></wpt><wpt lat="33.971210" lon="71.508338"><ele>378.440094</ele><time>2020-09-24T05:33:19Z</time><name>216</name><sym>Flag, Blue</sym></wpt><wpt lat="33.970704" lon="71.509037"><ele>379.752075</ele><time>2020-09-24T05:37:49Z</time><name>217</name><sym>Flag, Blue</sym></wpt><wpt lat="33.970619" lon="71.509373"><ele>380.573181</ele><time>2020-09-24T05:39:08Z</time><name>218</name><sym>Flag, Blue</sym></wpt><wpt lat="33.970638" lon="71.509366"><ele>380.553802</ele><time>2020-09-24T05:39:12Z</time><name>219</name><sym>Flag, Blue</sym></wpt><wpt lat="33.970622" lon="71.509391"><ele>380.545654</ele><time>2020-09-24T05:39:16Z</time><name>220</name><sym>Flag, Blue</sym></wpt><wpt lat="33.970168" lon="71.509881"><ele>380.303223</ele><time>2020-09-24T05:42:06Z</time><name>221</name><sym>Flag, Blue</sym></wpt><wpt lat="33.970813" lon="71.508185"><ele>375.673981</ele><time>2020-09-24T05:51:25Z</time><name>222</name><sym>Flag, Blue</sym></wpt><wpt lat="33.970556" lon="71.507977"><ele>376.097504</ele><time>2020-09-24T05:51:57Z</time><name>223</name><sym>Flag, Blue</sym></wpt><wpt lat="33.970539" lon="71.507977"><ele>376.095795</ele><time>2020-09-24T05:52:00Z</time><name>224</name><sym>Flag, Blue</sym></wpt><wpt lat="33.970538" lon="71.507981"><ele>376.094788</ele><time>2020-09-24T05:52:03Z</time><name>225</name><sym>Flag, Blue</sym></wpt><wpt lat="33.970445" lon="71.507764"><ele>376.823639</ele><time>2020-09-24T05:57:59Z</time><name>226</name><sym>Flag, Blue</sym></wpt><wpt lat="33.970084" lon="71.507423"><ele>379.086639</ele><time>2020-09-24T05:58:51Z</time><name>227</name><sym>Flag, Blue</sym></wpt><wpt lat="33.969785" lon="71.506933"><ele>378.490631</ele><time>2020-09-24T05:59:31Z</time><name>228</name><sym>Flag, Blue</sym></wpt><wpt lat="33.969786" lon="71.506935"><ele>378.486603</ele><time>2020-09-24T05:59:35Z</time><name>229</name><sym>Flag, Blue</sym></wpt><wpt lat="33.969802" lon="71.506943"><ele>378.481049</ele><time>2020-09-24T05:59:38Z</time><name>230</name><sym>Flag, Blue</sym></wpt><wpt lat="33.969626" lon="71.506567"><ele>378.890778</ele><time>2020-09-24T06:01:48Z</time><name>231</name><sym>Flag, Blue</sym></wpt><wpt lat="33.969361" lon="71.506499"><ele>379.283417</ele><time>2020-09-24T06:02:07Z</time><name>232</name><sym>Flag, Blue</sym></wpt><wpt lat="33.969176" lon="71.506419"><ele>379.328369</ele><time>2020-09-24T06:02:29Z</time><name>233</name><sym>Flag, Blue</sym></wpt><wpt lat="33.969176" lon="71.506399"><ele>379.350677</ele><time>2020-09-24T06:02:33Z</time><name>234</name><sym>Flag, Blue</sym></wpt><wpt lat="33.969168" lon="71.506408"><ele>379.277832</ele><time>2020-09-24T06:02:41Z</time><name>235</name><sym>Flag, Blue</sym></wpt><wpt lat="33.968807" lon="71.506216"><ele>379.926453</ele><time>2020-09-24T06:08:42Z</time><name>236</name><sym>Flag, Blue</sym></wpt><wpt lat="33.968121" lon="71.506106"><ele>381.508453</ele><time>2020-09-24T06:09:23Z</time><name>237</name><sym>Flag, Blue</sym></wpt><wpt lat="33.968114" lon="71.506117"><ele>381.512817</ele><time>2020-09-24T06:09:26Z</time><name>238</name><sym>Flag, Blue</sym></wpt><wpt lat="33.968119" lon="71.506121"><ele>381.512604</ele><time>2020-09-24T06:09:28Z</time><name>239</name><sym>Flag, Blue</sym></wpt><wpt lat="33.983006" lon="71.500072"><ele>370.975769</ele><time>2020-09-24T06:24:19Z</time><name>240</name><sym>Flag, Blue</sym></wpt><wpt lat="33.982693" lon="71.500196"><ele>373.971191</ele><time>2020-09-24T06:34:28Z</time><name>241</name><sym>Flag, Blue</sym></wpt><wpt lat="33.982175" lon="71.500508"><ele>374.653168</ele><time>2020-09-24T06:37:44Z</time><name>242</name><sym>Flag, Blue</sym></wpt><wpt lat="33.982171" lon="71.500530"><ele>372.997437</ele><time>2020-09-24T06:37:57Z</time><name>243</name><sym>Flag, Blue</sym></wpt><wpt lat="33.982183" lon="71.500527"><ele>372.992310</ele><time>2020-09-24T06:38:00Z</time><name>244</name><sym>Flag, Blue</sym></wpt><wpt lat="33.981918" lon="71.500341"><ele>374.127502</ele><time>2020-09-24T06:43:01Z</time><name>245</name><sym>Flag, Blue</sym></wpt><wpt lat="33.981911" lon="71.500343"><ele>374.125854</ele><time>2020-09-24T06:43:05Z</time><name>246</name><sym>Flag, Blue</sym></wpt><wpt lat="33.981918" lon="71.500345"><ele>374.119751</ele><time>2020-09-24T06:43:07Z</time><name>247</name><sym>Flag, Blue</sym></wpt><wpt lat="33.981868" lon="71.500699"><ele>372.984436</ele><time>2020-09-24T06:44:29Z</time><name>248</name><sym>Flag, Blue</sym></wpt><wpt lat="33.981546" lon="71.500843"><ele>374.371613</ele><time>2020-09-24T06:48:58Z</time><name>249</name><sym>Flag, Blue</sym></wpt><wpt lat="33.981545" lon="71.500852"><ele>374.358765</ele><time>2020-09-24T06:49:02Z</time><name>250</name><sym>Flag, Blue</sym></wpt><wpt lat="33.981564" lon="71.500838"><ele>374.356903</ele><time>2020-09-24T06:49:06Z</time><name>251</name><sym>Flag, Blue</sym></wpt><wpt lat="33.981175" lon="71.501093"><ele>374.243622</ele><time>2020-09-24T06:49:33Z</time><name>252</name><sym>Flag, Blue</sym></wpt><wpt lat="33.981181" lon="71.500765"><ele>374.203979</ele><time>2020-09-24T06:50:49Z</time><name>253</name><sym>Flag, Blue</sym></wpt><wpt lat="33.981188" lon="71.500772"><ele>374.204102</ele><time>2020-09-24T06:50:53Z</time><name>254</name><sym>Flag, Blue</sym></wpt><wpt lat="33.981183" lon="71.500785"><ele>374.200165</ele><time>2020-09-24T06:50:56Z</time><name>255</name><sym>Flag, Blue</sym></wpt><wpt lat="33.980797" lon="71.501376"><ele>374.230804</ele><time>2020-09-24T06:55:28Z</time><name>256</name><sym>Flag, Blue</sym></wpt><wpt lat="33.981161" lon="71.501767"><ele>376.203094</ele><time>2020-09-24T06:57:05Z</time><name>257</name><sym>Flag, Blue</sym></wpt><wpt lat="33.981261" lon="71.502002"><ele>374.958160</ele><time>2020-09-24T06:57:27Z</time><name>258</name><sym>Flag, Blue</sym></wpt><wpt lat="33.981263" lon="71.502325"><ele>376.039551</ele><time>2020-09-24T06:58:03Z</time><name>259</name><sym>Flag, Blue</sym></wpt><wpt lat="33.981260" lon="71.502330"><ele>376.014496</ele><time>2020-09-24T06:58:11Z</time><name>260</name><sym>Flag, Blue</sym></wpt><wpt lat="33.981262" lon="71.502335"><ele>376.004456</ele><time>2020-09-24T06:58:14Z</time><name>261</name><sym>Flag, Blue</sym></wpt><wpt lat="33.981537" lon="71.502290"><ele>376.014496</ele><time>2020-09-24T07:00:55Z</time><name>262</name><sym>Flag, Blue</sym></wpt><wpt lat="33.981752" lon="71.502243"><ele>374.385437</ele><time>2020-09-24T07:01:12Z</time><name>263</name><sym>Flag, Blue</sym></wpt><wpt lat="33.981986" lon="71.502280"><ele>374.337952</ele><time>2020-09-24T07:01:35Z</time><name>264</name><sym>Flag, Blue</sym></wpt><wpt lat="33.981999" lon="71.502274"><ele>374.320770</ele><time>2020-09-24T07:01:38Z</time><name>265</name><sym>Flag, Blue</sym></wpt><wpt lat="33.982011" lon="71.502266"><ele>374.312866</ele><time>2020-09-24T07:01:41Z</time><name>266</name><sym>Flag, Blue</sym></wpt><wpt lat="33.982206" lon="71.502258"><ele>373.195740</ele><time>2020-09-24T07:02:12Z</time><name>267</name><sym>Flag, Blue</sym></wpt><wpt lat="33.982510" lon="71.502200"><ele>373.915863</ele><time>2020-09-24T07:02:42Z</time><name>268</name><sym>Flag, Blue</sym></wpt><wpt lat="33.982472" lon="71.502491"><ele>373.455048</ele><time>2020-09-24T07:03:11Z</time><name>269</name><sym>Flag, Blue</sym></wpt><wpt lat="33.982470" lon="71.502482"><ele>373.451538</ele><time>2020-09-24T07:03:14Z</time><name>270</name><sym>Flag, Blue</sym></wpt><wpt lat="33.982483" lon="71.502482"><ele>373.442291</ele><time>2020-09-24T07:03:17Z</time><name>271</name><sym>Flag, Blue</sym></wpt></gpx>