<?xml version="1.0" encoding="UTF-8" standalone="no" ?><gpx xmlns="http://www.topografix.com/GPX/1/1" xmlns:gpxx="http://www.garmin.com/xmlschemas/GpxExtensions/v3" xmlns:wptx1="http://www.garmin.com/xmlschemas/WaypointExtension/v1" xmlns:gpxtpx="http://www.garmin.com/xmlschemas/TrackPointExtension/v1" creator="GPSMAP 78s" version="1.1" xmlns:xsi="http://www.w3.org/2001/XMLSchema-instance" xsi:schemaLocation="http://www.topografix.com/GPX/1/1 http://www.topografix.com/GPX/1/1/gpx.xsd http://www.garmin.com/xmlschemas/GpxExtensions/v3 http://www8.garmin.com/xmlschemas/GpxExtensionsv3.xsd http://www.garmin.com/xmlschemas/WaypointExtension/v1 http://www8.garmin.com/xmlschemas/WaypointExtensionv1.xsd http://www.garmin.com/xmlschemas/TrackPointExtension/v1 http://www.garmin.com/xmlschemas/TrackPointExtensionv1.xsd"><metadata><link href="http://www.garmin.com"><text>Garmin International</text></link><time>2020-09-15T06:00:09Z</time></metadata><wpt lat="33.991220" lon="71.473840"><ele>363.865448</ele><time>2020-09-15T06:00:09Z</time><name>001</name><sym>Flag, Blue</sym></wpt><wpt lat="33.991155" lon="71.473976"><ele>363.632538</ele><time>2020-09-15T06:03:16Z</time><name>002</name><sym>Flag, Blue</sym></wpt><wpt lat="33.991351" lon="71.474009"><ele>369.192810</ele><time>2020-09-15T06:04:25Z</time><name>003</name><sym>Flag, Blue</sym></wpt><wpt lat="33.991729" lon="71.473949"><ele>363.404358</ele><time>2020-09-15T06:05:34Z</time><name>004</name><sym>Flag, Blue</sym></wpt><wpt lat="33.992156" lon="71.473954"><ele>365.011414</ele><time>2020-09-15T06:07:09Z</time><name>005</name><sym>Flag, Blue</sym></wpt><wpt lat="33.992629" lon="71.473902"><ele>366.966125</ele><time>2020-09-15T06:13:28Z</time><name>006</name><sym>Flag, Blue</sym></wpt><wpt lat="33.993089" lon="71.473883"><ele>368.010895</ele><time>2020-09-15T06:16:17Z</time><name>007</name><sym>Flag, Blue</sym></wpt><wpt lat="33.993331" lon="71.473999"><ele>370.448273</ele><time>2020-09-15T06:18:12Z</time><name>008</name><sym>Flag, Blue</sym></wpt><wpt lat="33.993374" lon="71.474484"><ele>370.139771</ele><time>2020-09-15T06:20:01Z</time><name>009</name><sym>Flag, Blue</sym></wpt><wpt lat="33.993374" lon="71.474992"><ele>371.019501</ele><time>2020-09-15T06:20:17Z</time><name>010</name><sym>Flag, Blue</sym></wpt><wpt lat="33.993404" lon="71.475537"><ele>370.691467</ele><time>2020-09-15T06:20:35Z</time><name>011</name><sym>Flag, Blue</sym></wpt><wpt lat="33.993398" lon="71.476107"><ele>370.862274</ele><time>2020-09-15T06:20:53Z</time><name>012</name><sym>Flag, Blue</sym></wpt><wpt lat="33.993431" lon="71.476632"><ele>369.363861</ele><time>2020-09-15T06:21:12Z</time><name>013</name><sym>Flag, Blue</sym></wpt><wpt lat="33.993439" lon="71.477235"><ele>366.862061</ele><time>2020-09-15T06:21:39Z</time><name>014</name><sym>Flag, Blue</sym></wpt><wpt lat="33.993451" lon="71.477846"><ele>369.414307</ele><time>2020-09-15T06:23:47Z</time><name>015</name><sym>Flag, Blue</sym></wpt><wpt lat="33.993468" lon="71.478372"><ele>369.300140</ele><time>2020-09-15T06:24:04Z</time><name>016</name><sym>Flag, Blue</sym></wpt><wpt lat="33.993503" lon="71.478904"><ele>369.747162</ele><time>2020-09-15T06:24:41Z</time><name>017</name><sym>Flag, Blue</sym></wpt><wpt lat="33.993521" lon="71.479417"><ele>370.113708</ele><time>2020-09-15T06:25:09Z</time><name>018</name><sym>Flag, Blue</sym></wpt><wpt lat="33.993509" lon="71.479874"><ele>369.176819</ele><time>2020-09-15T06:25:30Z</time><name>019</name><sym>Flag, Blue</sym></wpt><wpt lat="33.993491" lon="71.480337"><ele>369.795166</ele><time>2020-09-15T06:28:12Z</time><name>020</name><sym>Flag, Blue</sym></wpt><wpt lat="33.993454" lon="71.480794"><ele>370.746338</ele><time>2020-09-15T06:28:34Z</time><name>021</name><sym>Flag, Blue</sym></wpt><wpt lat="33.993434" lon="71.480899"><ele>369.523376</ele><time>2020-09-15T06:29:48Z</time><name>022</name><sym>Flag, Blue</sym></wpt><wpt lat="33.993333" lon="71.481431"><ele>371.061188</ele><time>2020-09-15T06:31:38Z</time><name>023</name><sym>Flag, Blue</sym></wpt><wpt lat="33.993176" lon="71.481993"><ele>370.772705</ele><time>2020-09-15T06:31:57Z</time><name>024</name><sym>Flag, Blue</sym></wpt><wpt lat="33.992984" lon="71.482546"><ele>370.950226</ele><time>2020-09-15T06:32:16Z</time><name>025</name><sym>Flag, Blue</sym></wpt><wpt lat="33.992830" lon="71.482886"><ele>370.444183</ele><time>2020-09-15T06:32:32Z</time><name>026</name><sym>Flag, Blue</sym></wpt><wpt lat="33.992596" lon="71.483340"><ele>371.597260</ele><time>2020-09-15T06:33:55Z</time><name>027</name><sym>Flag, Blue</sym></wpt><wpt lat="33.992315" lon="71.483806"><ele>369.531708</ele><time>2020-09-15T06:34:11Z</time><name>028</name><sym>Flag, Blue</sym></wpt><wpt lat="33.992053" lon="71.484200"><ele>369.593140</ele><time>2020-09-15T06:35:19Z</time><name>029</name><sym>Flag, Blue</sym></wpt><wpt lat="33.991735" lon="71.484656"><ele>369.265472</ele><time>2020-09-15T06:37:20Z</time><name>030</name><sym>Flag, Blue</sym></wpt><wpt lat="33.991342" lon="71.485202"><ele>370.177368</ele><time>2020-09-15T06:37:44Z</time><name>031</name><sym>Flag, Blue</sym></wpt><wpt lat="33.990971" lon="71.485751"><ele>368.781219</ele><time>2020-09-15T06:38:08Z</time><name>032</name><sym>Flag, Blue</sym></wpt><wpt lat="33.990715" lon="71.486118"><ele>371.039154</ele><time>2020-09-15T06:38:33Z</time><name>033</name><sym>Flag, Blue</sym></wpt><wpt lat="33.990406" lon="71.486573"><ele>371.525604</ele><time>2020-09-15T06:40:32Z</time><name>034</name><sym>Flag, Blue</sym></wpt><wpt lat="33.990145" lon="71.486967"><ele>376.302612</ele><time>2020-09-15T06:40:59Z</time><name>035</name><sym>Flag, Blue</sym></wpt><wpt lat="33.989883" lon="71.487421"><ele>372.537079</ele><time>2020-09-15T06:42:59Z</time><name>036</name><sym>Flag, Blue</sym></wpt><wpt lat="33.989680" lon="71.487752"><ele>372.413727</ele><time>2020-09-15T06:43:14Z</time><name>037</name><sym>Flag, Blue</sym></wpt><wpt lat="33.989586" lon="71.487897"><ele>371.838806</ele><time>2020-09-15T06:43:36Z</time><name>038</name><sym>Flag, Blue</sym></wpt><wpt lat="33.989389" lon="71.488297"><ele>371.067413</ele><time>2020-09-15T06:45:08Z</time><name>039</name><sym>Flag, Blue</sym></wpt><wpt lat="33.989208" lon="71.488699"><ele>371.862091</ele><time>2020-09-15T06:45:23Z</time><name>040</name><sym>Flag, Blue</sym></wpt><wpt lat="33.989132" lon="71.489071"><ele>371.226715</ele><time>2020-09-15T06:47:30Z</time><name>041</name><sym>Flag, Blue</sym></wpt><wpt lat="33.989048" lon="71.489534"><ele>370.689850</ele><time>2020-09-15T06:47:44Z</time><name>042</name><sym>Flag, Blue</sym></wpt><wpt lat="33.988985" lon="71.489984"><ele>371.845154</ele><time>2020-09-15T06:47:57Z</time><name>043</name><sym>Flag, Blue</sym></wpt><wpt lat="33.988890" lon="71.490582"><ele>368.853058</ele><time>2020-09-15T06:48:13Z</time><name>044</name><sym>Flag, Blue</sym></wpt><wpt lat="33.988833" lon="71.491013"><ele>369.707672</ele><time>2020-09-15T06:48:27Z</time><name>045</name><sym>Flag, Blue</sym></wpt><wpt lat="33.988794" lon="71.491225"><ele>371.444855</ele><time>2020-09-15T06:48:41Z</time><name>046</name><sym>Flag, Blue</sym></wpt><wpt lat="33.988731" lon="71.491761"><ele>371.310181</ele><time>2020-09-15T06:50:10Z</time><name>047</name><sym>Flag, Blue</sym></wpt><wpt lat="33.988648" lon="71.492214"><ele>372.642517</ele><time>2020-09-15T06:50:29Z</time><name>048</name><sym>Flag, Blue</sym></wpt><wpt lat="33.988565" lon="71.492670"><ele>371.013550</ele><time>2020-09-15T06:50:43Z</time><name>049</name><sym>Flag, Blue</sym></wpt><wpt lat="33.988507" lon="71.493106"><ele>370.454132</ele><time>2020-09-15T06:50:58Z</time><name>050</name><sym>Flag, Blue</sym></wpt><wpt lat="33.988409" lon="71.493680"><ele>369.760834</ele><time>2020-09-15T06:51:17Z</time><name>051</name><sym>Flag, Blue</sym></wpt><wpt lat="33.988342" lon="71.494160"><ele>371.090271</ele><time>2020-09-15T06:51:33Z</time><name>052</name><sym>Flag, Blue</sym></wpt><wpt lat="33.988298" lon="71.494472"><ele>369.989044</ele><time>2020-09-15T06:51:51Z</time><name>053</name><sym>Flag, Blue</sym></wpt><wpt lat="33.988261" lon="71.494670"><ele>370.546783</ele><time>2020-09-15T06:53:34Z</time><name>054</name><sym>Flag, Blue</sym></wpt><wpt lat="33.988184" lon="71.495243"><ele>371.360077</ele><time>2020-09-15T06:53:51Z</time><name>055</name><sym>Flag, Blue</sym></wpt><wpt lat="33.988103" lon="71.495686"><ele>370.930328</ele><time>2020-09-15T06:54:12Z</time><name>056</name><sym>Flag, Blue</sym></wpt><wpt lat="33.988062" lon="71.496149"><ele>371.625946</ele><time>2020-09-15T06:55:13Z</time><name>057</name><sym>Flag, Blue</sym></wpt><wpt lat="33.987901" lon="71.496616"><ele>371.244965</ele><time>2020-09-15T06:56:02Z</time><name>058</name><sym>Flag, Blue</sym></wpt><wpt lat="33.987682" lon="71.497021"><ele>371.408051</ele><time>2020-09-15T06:56:25Z</time><name>059</name><sym>Flag, Blue</sym></wpt><wpt lat="33.987380" lon="71.497358"><ele>370.755768</ele><time>2020-09-15T06:57:16Z</time><name>060</name><sym>Flag, Blue</sym></wpt><wpt lat="33.987030" lon="71.497626"><ele>369.600281</ele><time>2020-09-15T06:57:38Z</time><name>061</name><sym>Flag, Blue</sym></wpt><wpt lat="33.986650" lon="71.497842"><ele>369.870911</ele><time>2020-09-15T06:57:57Z</time><name>062</name><sym>Flag, Blue</sym></wpt><wpt lat="33.986364" lon="71.498096"><ele>370.887238</ele><time>2020-09-15T06:58:11Z</time><name>063</name><sym>Flag, Blue</sym></wpt><wpt lat="33.985984" lon="71.498322"><ele>370.560669</ele><time>2020-09-15T06:58:28Z</time><name>064</name><sym>Flag, Blue</sym></wpt><wpt lat="33.985521" lon="71.498597"><ele>370.358704</ele><time>2020-09-15T06:58:48Z</time><name>065</name><sym>Flag, Blue</sym></wpt><wpt lat="33.985151" lon="71.498799"><ele>370.863953</ele><time>2020-09-15T06:59:08Z</time><name>066</name><sym>Flag, Blue</sym></wpt></gpx>