<?xml version="1.0" encoding="UTF-8" standalone="no" ?><gpx xmlns="http://www.topografix.com/GPX/1/1" xmlns:gpxx="http://www.garmin.com/xmlschemas/GpxExtensions/v3" xmlns:wptx1="http://www.garmin.com/xmlschemas/WaypointExtension/v1" xmlns:gpxtpx="http://www.garmin.com/xmlschemas/TrackPointExtension/v1" creator="GPSMAP 78s" version="1.1" xmlns:xsi="http://www.w3.org/2001/XMLSchema-instance" xsi:schemaLocation="http://www.topografix.com/GPX/1/1 http://www.topografix.com/GPX/1/1/gpx.xsd http://www.garmin.com/xmlschemas/GpxExtensions/v3 http://www8.garmin.com/xmlschemas/GpxExtensionsv3.xsd http://www.garmin.com/xmlschemas/WaypointExtension/v1 http://www8.garmin.com/xmlschemas/WaypointExtensionv1.xsd http://www.garmin.com/xmlschemas/TrackPointExtension/v1 http://www.garmin.com/xmlschemas/TrackPointExtensionv1.xsd"><metadata><link href="http://www.garmin.com"><text>Garmin International</text></link><time>2020-07-02T03:56:17Z</time></metadata><wpt lat="33.981886" lon="71.500364"><ele>369.400177</ele><time>2020-07-02T03:56:17Z</time><name>001</name><sym>Flag, Blue</sym></wpt><wpt lat="33.981847" lon="71.499920"><ele>369.450256</ele><time>2020-07-02T03:56:41Z</time><name>002</name><sym>Flag, Blue</sym></wpt><wpt lat="33.981788" lon="71.499476"><ele>370.120819</ele><time>2020-07-02T03:57:59Z</time><name>003</name><sym>Flag, Blue</sym></wpt><wpt lat="33.981720" lon="71.499198"><ele>370.669067</ele><time>2020-07-02T03:58:34Z</time><name>004</name><sym>Flag, Blue</sym></wpt><wpt lat="33.981116" lon="71.500810"><ele>370.801636</ele><time>2020-07-02T04:00:06Z</time><name>005</name><sym>Flag, Blue</sym></wpt><wpt lat="33.979178" lon="71.504320"><ele>371.317139</ele><time>2020-07-02T04:03:00Z</time><name>006</name><sym>Flag, Blue</sym></wpt><wpt lat="33.978927" lon="71.503609"><ele>370.670197</ele><time>2020-07-02T04:03:48Z</time><name>007</name><sym>Flag, Blue</sym></wpt><wpt lat="33.979358" lon="71.503924"><ele>370.993622</ele><time>2020-07-02T04:05:19Z</time><name>008</name><sym>Flag, Blue</sym></wpt><wpt lat="33.979422" lon="71.503649"><ele>371.011749</ele><time>2020-07-02T04:05:41Z</time><name>009</name><sym>Flag, Blue</sym></wpt><wpt lat="33.979531" lon="71.503231"><ele>369.801453</ele><time>2020-07-02T04:06:04Z</time><name>010</name><sym>Flag, Blue</sym></wpt><wpt lat="33.979670" lon="71.502669"><ele>372.091431</ele><time>2020-07-02T04:06:37Z</time><name>011</name><sym>Flag, Blue</sym></wpt><wpt lat="33.979956" lon="71.502029"><ele>373.555145</ele><time>2020-07-02T04:07:18Z</time><name>012</name><sym>Flag, Blue</sym></wpt><wpt lat="33.978604" lon="71.502112"><ele>370.746796</ele><time>2020-07-02T04:09:16Z</time><name>013</name><sym>Flag, Blue</sym></wpt><wpt lat="33.978516" lon="71.501930"><ele>373.054138</ele><time>2020-07-02T04:10:16Z</time><name>014</name><sym>Flag, Blue</sym></wpt><wpt lat="33.978041" lon="71.501973"><ele>372.737854</ele><time>2020-07-02T04:10:46Z</time><name>015</name><sym>Flag, Blue</sym></wpt><wpt lat="33.977555" lon="71.502151"><ele>370.962860</ele><time>2020-07-02T04:11:12Z</time><name>016</name><sym>Flag, Blue</sym></wpt><wpt lat="33.977271" lon="71.502461"><ele>372.992126</ele><time>2020-07-02T04:11:38Z</time><name>017</name><sym>Flag, Blue</sym></wpt><wpt lat="33.976967" lon="71.502765"><ele>370.369659</ele><time>2020-07-02T04:13:11Z</time><name>018</name><sym>Flag, Blue</sym></wpt><wpt lat="33.978474" lon="71.501699"><ele>373.061310</ele><time>2020-07-02T04:21:48Z</time><name>019</name><sym>Flag, Blue</sym></wpt><wpt lat="33.978393" lon="71.501269"><ele>372.701996</ele><time>2020-07-02T04:22:04Z</time><name>020</name><sym>Flag, Blue</sym></wpt><wpt lat="33.978680" lon="71.502664"><ele>371.490448</ele><time>2020-07-02T04:22:42Z</time><name>021</name><sym>Flag, Blue</sym></wpt><wpt lat="33.978767" lon="71.503115"><ele>372.184998</ele><time>2020-07-02T04:22:56Z</time><name>022</name><sym>Flag, Blue</sym></wpt><wpt lat="33.979207" lon="71.504508"><ele>370.883972</ele><time>2020-07-02T04:25:28Z</time><name>023</name><sym>Flag, Blue</sym></wpt><wpt lat="33.979161" lon="71.504689"><ele>369.950592</ele><time>2020-07-02T04:25:54Z</time><name>024</name><sym>Flag, Blue</sym></wpt><wpt lat="33.978659" lon="71.504720"><ele>371.702576</ele><time>2020-07-02T04:26:21Z</time><name>025</name><sym>Flag, Blue</sym></wpt><wpt lat="33.978422" lon="71.504636"><ele>372.159851</ele><time>2020-07-02T04:26:41Z</time><name>026</name><sym>Flag, Blue</sym></wpt><wpt lat="33.978032" lon="71.504582"><ele>371.916565</ele><time>2020-07-02T04:27:08Z</time><name>027</name><sym>Flag, Blue</sym></wpt><wpt lat="33.977859" lon="71.504568"><ele>371.916504</ele><time>2020-07-02T04:27:18Z</time><name>028</name><sym>Flag, Blue</sym></wpt><wpt lat="33.977553" lon="71.504652"><ele>372.230408</ele><time>2020-07-02T04:27:34Z</time><name>029</name><sym>Flag, Blue</sym></wpt><wpt lat="33.979111" lon="71.504862"><ele>369.771362</ele><time>2020-07-02T04:29:51Z</time><name>030</name><sym>Flag, Blue</sym></wpt><wpt lat="33.978946" lon="71.505514"><ele>370.677856</ele><time>2020-07-02T04:30:19Z</time><name>031</name><sym>Flag, Blue</sym></wpt><wpt lat="33.978788" lon="71.506332"><ele>371.587250</ele><time>2020-07-02T04:30:52Z</time><name>032</name><sym>Flag, Blue</sym></wpt><wpt lat="33.978728" lon="71.507043"><ele>371.408905</ele><time>2020-07-02T04:32:18Z</time><name>033</name><sym>Flag, Blue</sym></wpt><wpt lat="33.978671" lon="71.507289"><ele>370.039246</ele><time>2020-07-02T04:35:34Z</time><name>034</name><sym>Flag, Blue</sym></wpt><wpt lat="33.978390" lon="71.506696"><ele>370.610596</ele><time>2020-07-02T04:38:29Z</time><name>035</name><sym>Flag, Blue</sym></wpt><wpt lat="33.976710" lon="71.506044"><ele>373.770630</ele><time>2020-07-02T04:42:35Z</time><name>036</name><sym>Flag, Blue</sym></wpt><wpt lat="33.977408" lon="71.505789"><ele>374.195557</ele><time>2020-07-02T04:43:43Z</time><name>037</name><sym>Flag, Blue</sym></wpt><wpt lat="33.977053" lon="71.505381"><ele>372.431549</ele><time>2020-07-02T04:44:06Z</time><name>038</name><sym>Flag, Blue</sym></wpt><wpt lat="33.976729" lon="71.504971"><ele>373.464478</ele><time>2020-07-02T04:44:52Z</time><name>039</name><sym>Flag, Blue</sym></wpt><wpt lat="33.976914" lon="71.506521"><ele>373.958649</ele><time>2020-07-02T04:46:16Z</time><name>040</name><sym>Flag, Blue</sym></wpt><wpt lat="33.976895" lon="71.507299"><ele>373.314667</ele><time>2020-07-02T04:46:56Z</time><name>041</name><sym>Flag, Blue</sym></wpt><wpt lat="33.976009" lon="71.506377"><ele>374.287415</ele><time>2020-07-02T04:50:32Z</time><name>042</name><sym>Flag, Blue</sym></wpt><wpt lat="33.976429" lon="71.506185"><ele>374.107056</ele><time>2020-07-02T04:51:16Z</time><name>043</name><sym>Flag, Blue</sym></wpt><wpt lat="33.976715" lon="71.506039"><ele>373.928162</ele><time>2020-07-02T04:51:38Z</time><name>044</name><sym>Flag, Blue</sym></wpt></gpx>