<?xml version="1.0" encoding="UTF-8" standalone="no" ?><gpx xmlns="http://www.topografix.com/GPX/1/1" xmlns:gpxx="http://www.garmin.com/xmlschemas/GpxExtensions/v3" xmlns:wptx1="http://www.garmin.com/xmlschemas/WaypointExtension/v1" xmlns:gpxtpx="http://www.garmin.com/xmlschemas/TrackPointExtension/v1" creator="GPSMAP 78s" version="1.1" xmlns:xsi="http://www.w3.org/2001/XMLSchema-instance" xsi:schemaLocation="http://www.topografix.com/GPX/1/1 http://www.topografix.com/GPX/1/1/gpx.xsd http://www.garmin.com/xmlschemas/GpxExtensions/v3 http://www8.garmin.com/xmlschemas/GpxExtensionsv3.xsd http://www.garmin.com/xmlschemas/WaypointExtension/v1 http://www8.garmin.com/xmlschemas/WaypointExtensionv1.xsd http://www.garmin.com/xmlschemas/TrackPointExtension/v1 http://www.garmin.com/xmlschemas/TrackPointExtensionv1.xsd"><metadata><link href="http://www.garmin.com"><text>Garmin International</text></link><time>2022-08-16T03:31:08Z</time></metadata><wpt lat="33.985344" lon="71.510555"><ele>372.396790</ele><time>2022-08-16T03:31:08Z</time><name>601</name><sym>Flag, Blue</sym></wpt><wpt lat="33.984255" lon="71.510752"><ele>372.353943</ele><time>2022-08-16T03:35:42Z</time><name>602</name><sym>Flag, Blue</sym></wpt><wpt lat="33.984370" lon="71.510612"><ele>372.264740</ele><time>2022-08-16T03:35:59Z</time><name>603</name><sym>Flag, Blue</sym></wpt><wpt lat="33.984466" lon="71.510645"><ele>372.408112</ele><time>2022-08-16T03:36:38Z</time><name>604</name><sym>Flag, Blue</sym></wpt><wpt lat="33.984666" lon="71.510644"><ele>372.257416</ele><time>2022-08-16T03:37:44Z</time><name>605</name><sym>Flag, Blue</sym></wpt><wpt lat="33.984829" lon="71.510559"><ele>372.727112</ele><time>2022-08-16T03:40:21Z</time><name>606</name><sym>Flag, Blue</sym></wpt><wpt lat="33.984942" lon="71.508568"><ele>369.182465</ele><time>2022-08-16T03:47:38Z</time><name>607</name><sym>Flag, Blue</sym></wpt><wpt lat="33.978652" lon="71.507245"><ele>376.591797</ele><time>2022-08-16T04:31:17Z</time><name>608</name><sym>Flag, Blue</sym></wpt><wpt lat="33.978538" lon="71.507215"><ele>374.226379</ele><time>2022-08-16T04:32:00Z</time><name>609</name><sym>Flag, Blue</sym></wpt><wpt lat="33.978199" lon="71.507325"><ele>374.781616</ele><time>2022-08-16T04:32:38Z</time><name>610</name><sym>Flag, Blue</sym></wpt><wpt lat="33.978174" lon="71.507247"><ele>373.846344</ele><time>2022-08-16T04:32:54Z</time><name>611</name><sym>Flag, Blue</sym></wpt><wpt lat="33.977903" lon="71.507051"><ele>374.220612</ele><time>2022-08-16T04:33:16Z</time><name>612</name><sym>Flag, Blue</sym></wpt><wpt lat="33.977871" lon="71.507043"><ele>375.101074</ele><time>2022-08-16T04:33:31Z</time><name>613</name><sym>Flag, Blue</sym></wpt><wpt lat="33.976062" lon="71.505012"><ele>374.628204</ele><time>2022-08-16T04:43:00Z</time><name>614</name><sym>Flag, Blue</sym></wpt><wpt lat="33.976916" lon="71.505923"><ele>374.459747</ele><time>2022-08-16T04:53:51Z</time><name>615</name><sym>Flag, Blue</sym></wpt><wpt lat="33.976933" lon="71.506485"><ele>371.884064</ele><time>2022-08-16T04:55:04Z</time><name>616</name><sym>Flag, Blue</sym></wpt><wpt lat="33.976851" lon="71.507113"><ele>374.756500</ele><time>2022-08-16T04:55:42Z</time><name>617</name><sym>Flag, Blue</sym></wpt><wpt lat="33.976879" lon="71.507238"><ele>375.964844</ele><time>2022-08-16T04:57:04Z</time><name>618</name><sym>Flag, Blue</sym></wpt><wpt lat="33.976880" lon="71.507294"><ele>375.956879</ele><time>2022-08-16T04:57:06Z</time><name>619</name><sym>Flag, Blue</sym></wpt><wpt lat="33.976886" lon="71.507285"><ele>375.947205</ele><time>2022-08-16T04:57:08Z</time><name>620</name><sym>Flag, Blue</sym></wpt><wpt lat="33.976891" lon="71.507719"><ele>374.523682</ele><time>2022-08-16T05:01:40Z</time><name>621</name><sym>Flag, Blue</sym></wpt><wpt lat="33.976907" lon="71.507899"><ele>372.737854</ele><time>2022-08-16T05:01:54Z</time><name>622</name><sym>Flag, Blue</sym></wpt><wpt lat="33.976951" lon="71.508200"><ele>373.920319</ele><time>2022-08-16T05:02:11Z</time><name>623</name><sym>Flag, Blue</sym></wpt><wpt lat="33.974329" lon="71.507520"><ele>378.255615</ele><time>2022-08-16T05:11:53Z</time><name>624</name><sym>Flag, Blue</sym></wpt><wpt lat="33.974661" lon="71.507575"><ele>376.854828</ele><time>2022-08-16T05:12:52Z</time><name>625</name><sym>Flag, Blue</sym></wpt><wpt lat="33.974134" lon="71.508596"><ele>377.222321</ele><time>2022-08-16T05:17:15Z</time><name>626</name><sym>Flag, Blue</sym></wpt><wpt lat="33.974433" lon="71.508550"><ele>377.550781</ele><time>2022-08-16T05:18:03Z</time><name>627</name><sym>Flag, Blue</sym></wpt><wpt lat="33.978542" lon="71.507519"><ele>375.787170</ele><time>2022-08-16T05:29:47Z</time><name>628</name><sym>Flag, Blue</sym></wpt><wpt lat="33.978660" lon="71.507421"><ele>374.161102</ele><time>2022-08-16T05:30:22Z</time><name>629</name><sym>Flag, Blue</sym></wpt><wpt lat="33.978677" lon="71.507467"><ele>373.880005</ele><time>2022-08-16T05:30:41Z</time><name>630</name><sym>Flag, Blue</sym></wpt><wpt lat="33.978623" lon="71.508646"><ele>374.534515</ele><time>2022-08-16T05:32:53Z</time><name>631</name><sym>Flag, Blue</sym></wpt><wpt lat="33.980535" lon="71.506535"><ele>376.086761</ele><time>2022-08-16T05:51:11Z</time><name>632</name><sym>Flag, Blue</sym></wpt><wpt lat="33.980684" lon="71.506353"><ele>375.977875</ele><time>2022-08-16T05:51:32Z</time><name>633</name><sym>Flag, Blue</sym></wpt><wpt lat="33.980748" lon="71.506317"><ele>375.212860</ele><time>2022-08-16T05:51:49Z</time><name>634</name><sym>Flag, Blue</sym></wpt><wpt lat="33.980914" lon="71.506183"><ele>374.713257</ele><time>2022-08-16T05:52:05Z</time><name>635</name><sym>Flag, Blue</sym></wpt><wpt lat="33.980516" lon="71.506574"><ele>376.196564</ele><time>2022-08-16T06:13:06Z</time><name>636</name><sym>Flag, Blue</sym></wpt></gpx>