<?xml version="1.0" encoding="UTF-8" standalone="no" ?><gpx xmlns="http://www.topografix.com/GPX/1/1" xmlns:gpxx="http://www.garmin.com/xmlschemas/GpxExtensions/v3" xmlns:wptx1="http://www.garmin.com/xmlschemas/WaypointExtension/v1" xmlns:gpxtpx="http://www.garmin.com/xmlschemas/TrackPointExtension/v1" creator="GPSMAP 78s" version="1.1" xmlns:xsi="http://www.w3.org/2001/XMLSchema-instance" xsi:schemaLocation="http://www.topografix.com/GPX/1/1 http://www.topografix.com/GPX/1/1/gpx.xsd http://www.garmin.com/xmlschemas/GpxExtensions/v3 http://www8.garmin.com/xmlschemas/GpxExtensionsv3.xsd http://www.garmin.com/xmlschemas/WaypointExtension/v1 http://www8.garmin.com/xmlschemas/WaypointExtensionv1.xsd http://www.garmin.com/xmlschemas/TrackPointExtension/v1 http://www.garmin.com/xmlschemas/TrackPointExtensionv1.xsd"><metadata><link href="http://www.garmin.com"><text>Garmin International</text></link><time>2022-08-17T03:59:35Z</time></metadata><wpt lat="33.976599" lon="71.497786"><ele>380.629944</ele><time>2022-08-17T03:59:35Z</time><name>637</name><sym>Flag, Blue</sym></wpt><wpt lat="33.976381" lon="71.498270"><ele>380.320312</ele><time>2022-08-17T04:00:01Z</time><name>638</name><sym>Flag, Blue</sym></wpt><wpt lat="33.968688" lon="71.501410"><ele>382.419342</ele><time>2022-08-17T04:30:56Z</time><name>639</name><sym>Flag, Blue</sym></wpt><wpt lat="33.968766" lon="71.501604"><ele>382.594635</ele><time>2022-08-17T04:31:33Z</time><name>640</name><sym>Flag, Blue</sym></wpt><wpt lat="33.968870" lon="71.501727"><ele>382.812103</ele><time>2022-08-17T04:31:47Z</time><name>641</name><sym>Flag, Blue</sym></wpt><wpt lat="33.967458" lon="71.502094"><ele>383.532532</ele><time>2022-08-17T04:36:47Z</time><name>642</name><sym>Flag, Blue</sym></wpt><wpt lat="33.967375" lon="71.502094"><ele>383.931305</ele><time>2022-08-17T04:37:00Z</time><name>643</name><sym>Flag, Blue</sym></wpt><wpt lat="33.967227" lon="71.502338"><ele>383.826782</ele><time>2022-08-17T04:37:20Z</time><name>644</name><sym>Flag, Blue</sym></wpt><wpt lat="33.970239" lon="71.499329"><ele>383.643707</ele><time>2022-08-17T04:40:54Z</time><name>645</name><sym>Flag, Blue</sym></wpt><wpt lat="33.970230" lon="71.499329"><ele>383.644592</ele><time>2022-08-17T04:40:57Z</time><name>646</name><sym>Flag, Blue</sym></wpt><wpt lat="33.970229" lon="71.499314"><ele>383.644653</ele><time>2022-08-17T04:40:59Z</time><name>647</name><sym>Flag, Blue</sym></wpt><wpt lat="33.970499" lon="71.498703"><ele>384.200928</ele><time>2022-08-17T04:41:28Z</time><name>648</name><sym>Flag, Blue</sym></wpt><wpt lat="33.967751" lon="71.505927"><ele>385.183258</ele><time>2022-08-17T04:52:03Z</time><name>649</name><sym>Flag, Blue</sym></wpt><wpt lat="33.967305" lon="71.505566"><ele>385.610870</ele><time>2022-08-17T04:52:51Z</time><name>650</name><sym>Flag, Blue</sym></wpt><wpt lat="33.969179" lon="71.506432"><ele>381.958923</ele><time>2022-08-17T05:00:54Z</time><name>651</name><sym>Flag, Blue</sym></wpt><wpt lat="33.969070" lon="71.506367"><ele>381.091003</ele><time>2022-08-17T05:01:12Z</time><name>652</name><sym>Flag, Blue</sym></wpt><wpt lat="33.968953" lon="71.506530"><ele>381.865753</ele><time>2022-08-17T05:01:27Z</time><name>653</name><sym>Flag, Blue</sym></wpt><wpt lat="33.968860" lon="71.506561"><ele>382.377960</ele><time>2022-08-17T05:01:42Z</time><name>654</name><sym>Flag, Blue</sym></wpt><wpt lat="33.970495" lon="71.508012"><ele>377.210297</ele><time>2022-08-17T05:10:10Z</time><name>655</name><sym>Flag, Blue</sym></wpt><wpt lat="33.970372" lon="71.508119"><ele>378.657166</ele><time>2022-08-17T05:10:32Z</time><name>656</name><sym>Flag, Blue</sym></wpt><wpt lat="33.970343" lon="71.508513"><ele>378.322449</ele><time>2022-08-17T05:11:14Z</time><name>657</name><sym>Flag, Blue</sym></wpt><wpt lat="33.971502" lon="71.508350"><ele>378.062775</ele><time>2022-08-17T05:16:29Z</time><name>658</name><sym>Flag, Blue</sym></wpt><wpt lat="33.971791" lon="71.508049"><ele>378.083588</ele><time>2022-08-17T05:17:09Z</time><name>659</name><sym>Flag, Blue</sym></wpt><wpt lat="33.972289" lon="71.508329"><ele>378.466705</ele><time>2022-08-17T05:17:46Z</time><name>660</name><sym>Flag, Blue</sym></wpt><wpt lat="33.975958" lon="71.504741"><ele>374.314087</ele><time>2022-08-17T05:32:53Z</time><name>661</name><sym>Flag, Blue</sym></wpt><wpt lat="33.975544" lon="71.504851"><ele>374.867035</ele><time>2022-08-17T05:33:46Z</time><name>662</name><sym>Flag, Blue</sym></wpt><wpt lat="33.975006" lon="71.504989"><ele>374.700562</ele><time>2022-08-17T05:34:16Z</time><name>663</name><sym>Flag, Blue</sym></wpt><wpt lat="33.974597" lon="71.505108"><ele>371.458069</ele><time>2022-08-17T05:41:05Z</time><name>664</name><sym>Flag, Blue</sym></wpt><wpt lat="33.974206" lon="71.505283"><ele>372.496826</ele><time>2022-08-17T05:41:42Z</time><name>665</name><sym>Flag, Blue</sym></wpt><wpt lat="33.975571" lon="71.505190"><ele>372.623260</ele><time>2022-08-17T05:44:30Z</time><name>666</name><sym>Flag, Blue</sym></wpt><wpt lat="33.975295" lon="71.505196"><ele>372.477875</ele><time>2022-08-17T05:44:52Z</time><name>667</name><sym>Flag, Blue</sym></wpt><wpt lat="33.976026" lon="71.505006"><ele>372.413727</ele><time>2022-08-17T05:47:39Z</time><name>668</name><sym>Flag, Blue</sym></wpt><wpt lat="33.976081" lon="71.505152"><ele>371.882965</ele><time>2022-08-17T05:47:54Z</time><name>669</name><sym>Flag, Blue</sym></wpt><wpt lat="33.975796" lon="71.505159"><ele>372.210999</ele><time>2022-08-17T05:48:12Z</time><name>670</name><sym>Flag, Blue</sym></wpt></gpx>