<?xml version="1.0" encoding="UTF-8" standalone="no" ?><gpx xmlns="http://www.topografix.com/GPX/1/1" xmlns:gpxx="http://www.garmin.com/xmlschemas/GpxExtensions/v3" xmlns:wptx1="http://www.garmin.com/xmlschemas/WaypointExtension/v1" xmlns:gpxtpx="http://www.garmin.com/xmlschemas/TrackPointExtension/v1" creator="GPSMAP 78s" version="1.1" xmlns:xsi="http://www.w3.org/2001/XMLSchema-instance" xsi:schemaLocation="http://www.topografix.com/GPX/1/1 http://www.topografix.com/GPX/1/1/gpx.xsd http://www.garmin.com/xmlschemas/GpxExtensions/v3 http://www8.garmin.com/xmlschemas/GpxExtensionsv3.xsd http://www.garmin.com/xmlschemas/WaypointExtension/v1 http://www8.garmin.com/xmlschemas/WaypointExtensionv1.xsd http://www.garmin.com/xmlschemas/TrackPointExtension/v1 http://www.garmin.com/xmlschemas/TrackPointExtensionv1.xsd"><metadata><link href="http://www.garmin.com"><text>Garmin International</text></link><time>2020-02-13T04:59:53Z</time></metadata><wpt lat="33.983243" lon="71.499559"><ele>371.394806</ele><time>2020-02-13T04:59:53Z</time><name>019</name><sym>Flag, Blue</sym></wpt><wpt lat="33.983144" lon="71.499418"><ele>373.493011</ele><time>2020-02-13T05:02:13Z</time><name>020</name><sym>Flag, Blue</sym></wpt><wpt lat="33.983376" lon="71.499094"><ele>374.400604</ele><time>2020-02-13T05:04:42Z</time><name>021</name><sym>Flag, Blue</sym></wpt><wpt lat="33.983635" lon="71.498705"><ele>372.368164</ele><time>2020-02-13T05:09:45Z</time><name>022</name><sym>Flag, Blue</sym></wpt><wpt lat="33.983891" lon="71.498455"><ele>372.658417</ele><time>2020-02-13T05:12:30Z</time><name>023</name><sym>Flag, Blue</sym></wpt><wpt lat="33.983364" lon="71.498345"><ele>371.871002</ele><time>2020-02-13T05:15:24Z</time><name>024</name><sym>Flag, Blue</sym></wpt><wpt lat="33.982236" lon="71.498992"><ele>373.316345</ele><time>2020-02-13T05:20:24Z</time><name>025</name><sym>Flag, Blue</sym></wpt><wpt lat="33.982338" lon="71.499058"><ele>371.713867</ele><time>2020-02-13T05:22:57Z</time><name>026</name><sym>Flag, Blue</sym></wpt><wpt lat="33.981990" lon="71.498857"><ele>372.420044</ele><time>2020-02-13T05:25:23Z</time><name>027</name><sym>Flag, Blue</sym></wpt><wpt lat="33.981606" lon="71.498771"><ele>375.211243</ele><time>2020-02-13T05:27:18Z</time><name>028</name><sym>Flag, Blue</sym></wpt><wpt lat="33.981164" lon="71.498705"><ele>373.820465</ele><time>2020-02-13T05:29:01Z</time><name>029</name><sym>Flag, Blue</sym></wpt><wpt lat="33.980277" lon="71.498201"><ele>375.825775</ele><time>2020-02-13T05:33:02Z</time><name>030</name><sym>Flag, Blue</sym></wpt><wpt lat="33.980319" lon="71.498507"><ele>375.519104</ele><time>2020-02-13T05:36:03Z</time><name>031</name><sym>Flag, Blue</sym></wpt><wpt lat="33.980020" lon="71.498457"><ele>374.417786</ele><time>2020-02-13T05:40:33Z</time><name>032</name><sym>Flag, Blue</sym></wpt><wpt lat="33.980072" lon="71.497650"><ele>374.050446</ele><time>2020-02-13T05:44:15Z</time><name>033</name><sym>Flag, Blue</sym></wpt><wpt lat="33.979284" lon="71.496441"><ele>376.018494</ele><time>2020-02-13T05:47:47Z</time><name>034</name><sym>Flag, Blue</sym></wpt><wpt lat="33.979889" lon="71.496830"><ele>376.746887</ele><time>2020-02-13T05:51:13Z</time><name>035</name><sym>Flag, Blue</sym></wpt><wpt lat="33.978603" lon="71.496057"><ele>378.926697</ele><time>2020-02-13T05:55:00Z</time><name>036</name><sym>Flag, Blue</sym></wpt><wpt lat="33.976545" lon="71.497835"><ele>375.562622</ele><time>2020-02-13T06:00:35Z</time><name>037</name><sym>Flag, Blue</sym></wpt><wpt lat="33.976987" lon="71.498088"><ele>375.155640</ele><time>2020-02-13T06:03:33Z</time><name>038</name><sym>Flag, Blue</sym></wpt><wpt lat="33.976269" lon="71.497725"><ele>374.829498</ele><time>2020-02-13T06:05:57Z</time><name>039</name><sym>Flag, Blue</sym></wpt><wpt lat="33.975792" lon="71.497237"><ele>374.733917</ele><time>2020-02-13T06:06:59Z</time><name>040</name><sym>Flag, Blue</sym></wpt><wpt lat="33.974253" lon="71.496741"><ele>378.454498</ele><time>2020-02-13T06:10:14Z</time><name>041</name><sym>Flag, Blue</sym></wpt><wpt lat="33.974066" lon="71.496691"><ele>377.121399</ele><time>2020-02-13T06:12:04Z</time><name>042</name><sym>Flag, Blue</sym></wpt><wpt lat="33.972422" lon="71.498168"><ele>380.400055</ele><time>2020-02-13T06:17:19Z</time><name>043</name><sym>Flag, Blue</sym></wpt><wpt lat="33.972477" lon="71.498274"><ele>381.057159</ele><time>2020-02-13T06:19:45Z</time><name>044</name><sym>Flag, Blue</sym></wpt><wpt lat="33.971957" lon="71.498144"><ele>379.567017</ele><time>2020-02-13T06:22:42Z</time><name>045</name><sym>Flag, Blue</sym></wpt><wpt lat="33.968682" lon="71.501384"><ele>383.171356</ele><time>2020-02-13T06:26:21Z</time><name>046</name><sym>Flag, Blue</sym></wpt><wpt lat="33.968785" lon="71.501635"><ele>384.393768</ele><time>2020-02-13T06:29:46Z</time><name>047</name><sym>Flag, Blue</sym></wpt><wpt lat="33.968850" lon="71.501238"><ele>384.336273</ele><time>2020-02-13T06:31:17Z</time><name>048</name><sym>Flag, Blue</sym></wpt><wpt lat="33.968588" lon="71.500768"><ele>385.199097</ele><time>2020-02-13T06:32:30Z</time><name>049</name><sym>Flag, Blue</sym></wpt><wpt lat="33.968928" lon="71.501165"><ele>386.183838</ele><time>2020-02-13T06:33:52Z</time><name>050</name><sym>Flag, Blue</sym></wpt><wpt lat="33.969122" lon="71.501434"><ele>384.906097</ele><time>2020-02-13T06:34:47Z</time><name>051</name><sym>Flag, Blue</sym></wpt><wpt lat="33.969278" lon="71.501790"><ele>385.110931</ele><time>2020-02-13T06:35:43Z</time><name>052</name><sym>Flag, Blue</sym></wpt><wpt lat="33.969129" lon="71.501066"><ele>386.016846</ele><time>2020-02-13T06:37:35Z</time><name>053</name><sym>Flag, Blue</sym></wpt><wpt lat="33.968919" lon="71.500756"><ele>386.056091</ele><time>2020-02-13T06:38:58Z</time><name>054</name><sym>Flag, Blue</sym></wpt><wpt lat="33.969430" lon="71.500515"><ele>386.612762</ele><time>2020-02-13T06:41:04Z</time><name>055</name><sym>Flag, Blue</sym></wpt><wpt lat="33.969791" lon="71.499925"><ele>387.255554</ele><time>2020-02-13T06:42:19Z</time><name>056</name><sym>Flag, Blue</sym></wpt><wpt lat="33.970213" lon="71.499351"><ele>385.749146</ele><time>2020-02-13T06:44:19Z</time><name>057</name><sym>Flag, Blue</sym></wpt><wpt lat="33.967712" lon="71.501912"><ele>383.134552</ele><time>2020-02-13T06:53:14Z</time><name>058</name><sym>Flag, Blue</sym></wpt><wpt lat="33.967489" lon="71.501575"><ele>384.355560</ele><time>2020-02-13T06:56:04Z</time><name>059</name><sym>Flag, Blue</sym></wpt><wpt lat="33.967477" lon="71.502077"><ele>384.038910</ele><time>2020-02-13T06:58:23Z</time><name>060</name><sym>Flag, Blue</sym></wpt><wpt lat="33.967218" lon="71.502316"><ele>386.198914</ele><time>2020-02-13T06:59:16Z</time><name>061</name><sym>Flag, Blue</sym></wpt><wpt lat="33.968020" lon="71.501825"><ele>386.770538</ele><time>2020-02-13T07:01:52Z</time><name>062</name><sym>Flag, Blue</sym></wpt><wpt lat="33.968276" lon="71.501655"><ele>385.892059</ele><time>2020-02-13T07:03:12Z</time><name>063</name><sym>Flag, Blue</sym></wpt></gpx>