<?xml version="1.0" encoding="UTF-8" standalone="no" ?><gpx xmlns="http://www.topografix.com/GPX/1/1" xmlns:gpxx="http://www.garmin.com/xmlschemas/GpxExtensions/v3" xmlns:wptx1="http://www.garmin.com/xmlschemas/WaypointExtension/v1" xmlns:gpxtpx="http://www.garmin.com/xmlschemas/TrackPointExtension/v1" creator="GPSMAP 78s" version="1.1" xmlns:xsi="http://www.w3.org/2001/XMLSchema-instance" xsi:schemaLocation="http://www.topografix.com/GPX/1/1 http://www.topografix.com/GPX/1/1/gpx.xsd http://www.garmin.com/xmlschemas/GpxExtensions/v3 http://www8.garmin.com/xmlschemas/GpxExtensionsv3.xsd http://www.garmin.com/xmlschemas/WaypointExtension/v1 http://www8.garmin.com/xmlschemas/WaypointExtensionv1.xsd http://www.garmin.com/xmlschemas/TrackPointExtension/v1 http://www.garmin.com/xmlschemas/TrackPointExtensionv1.xsd"><metadata><link href="http://www.garmin.com"><text>Garmin International</text></link><time>2020-09-16T06:07:42Z</time></metadata><wpt lat="33.985237" lon="71.498391"><ele>374.777435</ele><time>2020-09-16T06:07:42Z</time><name>067</name><sym>Flag, Blue</sym></wpt><wpt lat="33.985101" lon="71.497849"><ele>373.262634</ele><time>2020-09-16T06:08:12Z</time><name>068</name><sym>Flag, Blue</sym></wpt><wpt lat="33.984791" lon="71.497432"><ele>375.839294</ele><time>2020-09-16T06:08:36Z</time><name>069</name><sym>Flag, Blue</sym></wpt><wpt lat="33.984776" lon="71.497439"><ele>375.842499</ele><time>2020-09-16T06:08:42Z</time><name>070</name><sym>Flag, Blue</sym></wpt><wpt lat="33.984771" lon="71.497438"><ele>375.830658</ele><time>2020-09-16T06:08:47Z</time><name>071</name><sym>Flag, Blue</sym></wpt><wpt lat="33.985065" lon="71.497254"><ele>374.149475</ele><time>2020-09-16T06:09:23Z</time><name>072</name><sym>Flag, Blue</sym></wpt><wpt lat="33.985349" lon="71.497113"><ele>375.646149</ele><time>2020-09-16T06:10:45Z</time><name>073</name><sym>Flag, Blue</sym></wpt><wpt lat="33.985663" lon="71.496848"><ele>375.155334</ele><time>2020-09-16T06:11:25Z</time><name>074</name><sym>Flag, Blue</sym></wpt><wpt lat="33.985746" lon="71.496660"><ele>373.971985</ele><time>2020-09-16T06:11:51Z</time><name>075</name><sym>Flag, Blue</sym></wpt><wpt lat="33.985741" lon="71.496667"><ele>373.965210</ele><time>2020-09-16T06:11:55Z</time><name>076</name><sym>Flag, Blue</sym></wpt><wpt lat="33.985752" lon="71.496646"><ele>373.959015</ele><time>2020-09-16T06:11:59Z</time><name>077</name><sym>Flag, Blue</sym></wpt><wpt lat="33.984790" lon="71.499044"><ele>374.145050</ele><time>2020-09-16T06:17:55Z</time><name>078</name><sym>Flag, Blue</sym></wpt><wpt lat="33.984414" lon="71.499214"><ele>373.401611</ele><time>2020-09-16T06:18:24Z</time><name>079</name><sym>Flag, Blue</sym></wpt><wpt lat="33.983901" lon="71.499522"><ele>374.653259</ele><time>2020-09-16T06:18:54Z</time><name>080</name><sym>Flag, Blue</sym></wpt><wpt lat="33.983419" lon="71.499805"><ele>373.987640</ele><time>2020-09-16T06:19:51Z</time><name>081</name><sym>Flag, Blue</sym></wpt><wpt lat="33.983420" lon="71.499806"><ele>373.990662</ele><time>2020-09-16T06:19:54Z</time><name>082</name><sym>Flag, Blue</sym></wpt><wpt lat="33.983416" lon="71.499811"><ele>373.998138</ele><time>2020-09-16T06:19:58Z</time><name>083</name><sym>Flag, Blue</sym></wpt><wpt lat="33.983555" lon="71.499800"><ele>373.462860</ele><time>2020-09-16T06:24:34Z</time><name>084</name><sym>Flag, Blue</sym></wpt><wpt lat="33.983772" lon="71.499953"><ele>375.000793</ele><time>2020-09-16T06:24:59Z</time><name>085</name><sym>Flag, Blue</sym></wpt><wpt lat="33.983994" lon="71.500196"><ele>374.068054</ele><time>2020-09-16T06:25:23Z</time><name>086</name><sym>Flag, Blue</sym></wpt><wpt lat="33.984310" lon="71.500518"><ele>372.744507</ele><time>2020-09-16T06:25:46Z</time><name>087</name><sym>Flag, Blue</sym></wpt><wpt lat="33.984493" lon="71.500700"><ele>373.687897</ele><time>2020-09-16T06:26:20Z</time><name>088</name><sym>Flag, Blue</sym></wpt><wpt lat="33.984493" lon="71.500693"><ele>373.677673</ele><time>2020-09-16T06:26:22Z</time><name>089</name><sym>Flag, Blue</sym></wpt><wpt lat="33.984492" lon="71.500681"><ele>373.667816</ele><time>2020-09-16T06:26:25Z</time><name>090</name><sym>Flag, Blue</sym></wpt><wpt lat="33.984481" lon="71.500700"><ele>373.648865</ele><time>2020-09-16T06:26:30Z</time><name>091</name><sym>Flag, Blue</sym></wpt><wpt lat="33.984474" lon="71.500708"><ele>373.638855</ele><time>2020-09-16T06:26:33Z</time><name>092</name><sym>Flag, Blue</sym></wpt><wpt lat="33.984848" lon="71.500183"><ele>372.692352</ele><time>2020-09-16T06:28:48Z</time><name>093</name><sym>Flag, Blue</sym></wpt><wpt lat="33.985161" lon="71.499692"><ele>373.940613</ele><time>2020-09-16T06:29:13Z</time><name>094</name><sym>Flag, Blue</sym></wpt><wpt lat="33.985160" lon="71.499688"><ele>373.916077</ele><time>2020-09-16T06:29:21Z</time><name>095</name><sym>Flag, Blue</sym></wpt><wpt lat="33.985159" lon="71.499675"><ele>373.911835</ele><time>2020-09-16T06:29:23Z</time><name>096</name><sym>Flag, Blue</sym></wpt><wpt lat="33.983232" lon="71.499572"><ele>374.182709</ele><time>2020-09-16T06:36:51Z</time><name>097</name><sym>Flag, Blue</sym></wpt><wpt lat="33.983226" lon="71.499560"><ele>373.907715</ele><time>2020-09-16T06:36:54Z</time><name>098</name><sym>Flag, Blue</sym></wpt><wpt lat="33.983224" lon="71.499553"><ele>373.541168</ele><time>2020-09-16T06:36:57Z</time><name>099</name><sym>Flag, Blue</sym></wpt><wpt lat="33.983678" lon="71.499302"><ele>373.772583</ele><time>2020-09-16T06:40:00Z</time><name>100</name><sym>Flag, Blue</sym></wpt><wpt lat="33.983687" lon="71.499293"><ele>373.779083</ele><time>2020-09-16T06:40:03Z</time><name>101</name><sym>Flag, Blue</sym></wpt><wpt lat="33.983702" lon="71.499281"><ele>373.785980</ele><time>2020-09-16T06:40:06Z</time><name>102</name><sym>Flag, Blue</sym></wpt><wpt lat="33.983160" lon="71.499417"><ele>375.060760</ele><time>2020-09-16T06:43:03Z</time><name>103</name><sym>Flag, Blue</sym></wpt><wpt lat="33.983377" lon="71.499110"><ele>374.008575</ele><time>2020-09-16T06:44:49Z</time><name>104</name><sym>Flag, Blue</sym></wpt><wpt lat="33.983668" lon="71.498737"><ele>373.787384</ele><time>2020-09-16T06:45:15Z</time><name>105</name><sym>Flag, Blue</sym></wpt><wpt lat="33.983656" lon="71.498739"><ele>373.789612</ele><time>2020-09-16T06:45:17Z</time><name>106</name><sym>Flag, Blue</sym></wpt><wpt lat="33.983642" lon="71.498747"><ele>373.791626</ele><time>2020-09-16T06:45:20Z</time><name>107</name><sym>Flag, Blue</sym></wpt><wpt lat="33.982871" lon="71.499221"><ele>374.286530</ele><time>2020-09-16T06:49:28Z</time><name>108</name><sym>Flag, Blue</sym></wpt><wpt lat="33.982803" lon="71.499174"><ele>373.023834</ele><time>2020-09-16T06:49:44Z</time><name>109</name><sym>Flag, Blue</sym></wpt><wpt lat="33.982805" lon="71.499185"><ele>373.019196</ele><time>2020-09-16T06:49:47Z</time><name>110</name><sym>Flag, Blue</sym></wpt><wpt lat="33.982806" lon="71.499196"><ele>373.015686</ele><time>2020-09-16T06:49:50Z</time><name>111</name><sym>Flag, Blue</sym></wpt><wpt lat="33.982335" lon="71.499092"><ele>375.258087</ele><time>2020-09-16T06:52:59Z</time><name>112</name><sym>Flag, Blue</sym></wpt><wpt lat="33.982291" lon="71.499003"><ele>374.818970</ele><time>2020-09-16T06:54:07Z</time><name>113</name><sym>Flag, Blue</sym></wpt><wpt lat="33.982292" lon="71.499005"><ele>374.814697</ele><time>2020-09-16T06:54:10Z</time><name>114</name><sym>Flag, Blue</sym></wpt><wpt lat="33.982287" lon="71.499001"><ele>374.821838</ele><time>2020-09-16T06:54:13Z</time><name>115</name><sym>Flag, Blue</sym></wpt><wpt lat="33.981986" lon="71.498855"><ele>376.188995</ele><time>2020-09-16T06:58:32Z</time><name>116</name><sym>Flag, Blue</sym></wpt><wpt lat="33.981752" lon="71.498845"><ele>375.319946</ele><time>2020-09-16T06:58:52Z</time><name>117</name><sym>Flag, Blue</sym></wpt><wpt lat="33.981406" lon="71.498738"><ele>376.798035</ele><time>2020-09-16T06:59:20Z</time><name>118</name><sym>Flag, Blue</sym></wpt><wpt lat="33.981161" lon="71.498686"><ele>377.174896</ele><time>2020-09-16T06:59:57Z</time><name>119</name><sym>Flag, Blue</sym></wpt><wpt lat="33.981166" lon="71.498679"><ele>377.170593</ele><time>2020-09-16T06:59:59Z</time><name>120</name><sym>Flag, Blue</sym></wpt><wpt lat="33.981163" lon="71.498702"><ele>377.167999</ele><time>2020-09-16T07:00:02Z</time><name>121</name><sym>Flag, Blue</sym></wpt><wpt lat="33.981770" lon="71.498592"><ele>376.184967</ele><time>2020-09-16T07:05:49Z</time><name>122</name><sym>Flag, Blue</sym></wpt><wpt lat="33.981062" lon="71.498405"><ele>376.187561</ele><time>2020-09-16T07:07:18Z</time><name>123</name><sym>Flag, Blue</sym></wpt><wpt lat="33.980287" lon="71.498192"><ele>377.115631</ele><time>2020-09-16T07:09:45Z</time><name>124</name><sym>Flag, Blue</sym></wpt><wpt lat="33.980289" lon="71.498193"><ele>377.108063</ele><time>2020-09-16T07:09:47Z</time><name>125</name><sym>Flag, Blue</sym></wpt><wpt lat="33.980289" lon="71.498176"><ele>377.103668</ele><time>2020-09-16T07:09:52Z</time><name>126</name><sym>Flag, Blue</sym></wpt><wpt lat="33.980123" lon="71.497643"><ele>376.555237</ele><time>2020-09-16T07:18:25Z</time><name>127</name><sym>Flag, Blue</sym></wpt><wpt lat="33.979893" lon="71.496840"><ele>379.464966</ele><time>2020-09-16T07:19:01Z</time><name>128</name><sym>Flag, Blue</sym></wpt><wpt lat="33.979279" lon="71.496411"><ele>379.830719</ele><time>2020-09-16T07:19:37Z</time><name>129</name><sym>Flag, Blue</sym></wpt><wpt lat="33.979278" lon="71.496434"><ele>379.815796</ele><time>2020-09-16T07:19:41Z</time><name>130</name><sym>Flag, Blue</sym></wpt><wpt lat="33.979284" lon="71.496425"><ele>379.809814</ele><time>2020-09-16T07:19:44Z</time><name>131</name><sym>Flag, Blue</sym></wpt></gpx>