<?xml version="1.0" encoding="UTF-8" standalone="no" ?><gpx xmlns="http://www.topografix.com/GPX/1/1" xmlns:gpxx="http://www.garmin.com/xmlschemas/GpxExtensions/v3" xmlns:wptx1="http://www.garmin.com/xmlschemas/WaypointExtension/v1" xmlns:gpxtpx="http://www.garmin.com/xmlschemas/TrackPointExtension/v1" creator="GPSMAP 78s" version="1.1" xmlns:xsi="http://www.w3.org/2001/XMLSchema-instance" xsi:schemaLocation="http://www.topografix.com/GPX/1/1 http://www.topografix.com/GPX/1/1/gpx.xsd http://www.garmin.com/xmlschemas/GpxExtensions/v3 http://www8.garmin.com/xmlschemas/GpxExtensionsv3.xsd http://www.garmin.com/xmlschemas/WaypointExtension/v1 http://www8.garmin.com/xmlschemas/WaypointExtensionv1.xsd http://www.garmin.com/xmlschemas/TrackPointExtension/v1 http://www.garmin.com/xmlschemas/TrackPointExtensionv1.xsd"><metadata><link href="http://www.garmin.com"><text>Garmin International</text></link><time>2020-09-28T04:53:59Z</time></metadata><wpt lat="33.980380" lon="71.501394"><ele>377.182739</ele><time>2020-09-28T04:53:59Z</time><name>272</name><sym>Flag, Blue</sym></wpt><wpt lat="33.980121" lon="71.501803"><ele>377.671600</ele><time>2020-09-28T04:55:00Z</time><name>273</name><sym>Flag, Blue</sym></wpt><wpt lat="33.980120" lon="71.501815"><ele>377.671265</ele><time>2020-09-28T04:55:03Z</time><name>274</name><sym>Flag, Blue</sym></wpt><wpt lat="33.980122" lon="71.501837"><ele>377.671326</ele><time>2020-09-28T04:55:07Z</time><name>275</name><sym>Flag, Blue</sym></wpt><wpt lat="33.979920" lon="71.502068"><ele>377.294281</ele><time>2020-09-28T04:55:27Z</time><name>276</name><sym>Flag, Blue</sym></wpt><wpt lat="33.980310" lon="71.501976"><ele>376.272156</ele><time>2020-09-28T04:57:07Z</time><name>277</name><sym>Flag, Blue</sym></wpt><wpt lat="33.980289" lon="71.501986"><ele>376.264404</ele><time>2020-09-28T04:57:11Z</time><name>278</name><sym>Flag, Blue</sym></wpt><wpt lat="33.980280" lon="71.501996"><ele>376.256775</ele><time>2020-09-28T04:57:14Z</time><name>279</name><sym>Flag, Blue</sym></wpt><wpt lat="33.979696" lon="71.502658"><ele>374.280457</ele><time>2020-09-28T05:03:12Z</time><name>280</name><sym>Flag, Blue</sym></wpt><wpt lat="33.979552" lon="71.503237"><ele>377.180420</ele><time>2020-09-28T05:03:32Z</time><name>281</name><sym>Flag, Blue</sym></wpt><wpt lat="33.979464" lon="71.503619"><ele>375.293457</ele><time>2020-09-28T05:03:51Z</time><name>282</name><sym>Flag, Blue</sym></wpt><wpt lat="33.979360" lon="71.503946"><ele>375.404602</ele><time>2020-09-28T05:04:07Z</time><name>283</name><sym>Flag, Blue</sym></wpt><wpt lat="33.979235" lon="71.504403"><ele>374.517120</ele><time>2020-09-28T05:04:32Z</time><name>284</name><sym>Flag, Blue</sym></wpt><wpt lat="33.979246" lon="71.504397"><ele>374.521545</ele><time>2020-09-28T05:04:35Z</time><name>285</name><sym>Flag, Blue</sym></wpt><wpt lat="33.979256" lon="71.504389"><ele>374.526276</ele><time>2020-09-28T05:04:38Z</time><name>286</name><sym>Flag, Blue</sym></wpt><wpt lat="33.978916" lon="71.503633"><ele>375.422150</ele><time>2020-09-28T05:07:52Z</time><name>287</name><sym>Flag, Blue</sym></wpt><wpt lat="33.978788" lon="71.503086"><ele>374.901001</ele><time>2020-09-28T05:08:15Z</time><name>288</name><sym>Flag, Blue</sym></wpt><wpt lat="33.978691" lon="71.502660"><ele>378.071075</ele><time>2020-09-28T05:08:32Z</time><name>289</name><sym>Flag, Blue</sym></wpt><wpt lat="33.978581" lon="71.502081"><ele>375.085144</ele><time>2020-09-28T05:09:04Z</time><name>290</name><sym>Flag, Blue</sym></wpt><wpt lat="33.978583" lon="71.502094"><ele>375.132965</ele><time>2020-09-28T05:09:07Z</time><name>291</name><sym>Flag, Blue</sym></wpt><wpt lat="33.978587" lon="71.502111"><ele>375.132629</ele><time>2020-09-28T05:09:10Z</time><name>292</name><sym>Flag, Blue</sym></wpt><wpt lat="33.979206" lon="71.504513"><ele>374.805664</ele><time>2020-09-28T05:12:13Z</time><name>293</name><sym>Flag, Blue</sym></wpt><wpt lat="33.979213" lon="71.504505"><ele>374.805267</ele><time>2020-09-28T05:12:16Z</time><name>294</name><sym>Flag, Blue</sym></wpt><wpt lat="33.979204" lon="71.504491"><ele>374.793732</ele><time>2020-09-28T05:12:20Z</time><name>295</name><sym>Flag, Blue</sym></wpt><wpt lat="33.979113" lon="71.504214"><ele>374.708984</ele><time>2020-09-28T05:13:02Z</time><name>296</name><sym>Flag, Blue</sym></wpt><wpt lat="33.979117" lon="71.504209"><ele>374.700897</ele><time>2020-09-28T05:13:05Z</time><name>297</name><sym>Flag, Blue</sym></wpt><wpt lat="33.979111" lon="71.504220"><ele>374.685089</ele><time>2020-09-28T05:13:09Z</time><name>298</name><sym>Flag, Blue</sym></wpt><wpt lat="33.979176" lon="71.504732"><ele>373.132111</ele><time>2020-09-28T05:16:12Z</time><name>299</name><sym>Flag, Blue</sym></wpt><wpt lat="33.979175" lon="71.504727"><ele>373.122131</ele><time>2020-09-28T05:16:15Z</time><name>300</name><sym>Flag, Blue</sym></wpt><wpt lat="33.979180" lon="71.504703"><ele>373.121918</ele><time>2020-09-28T05:16:19Z</time><name>301</name><sym>Flag, Blue</sym></wpt><wpt lat="33.979122" lon="71.504896"><ele>373.225586</ele><time>2020-09-28T05:17:59Z</time><name>302</name><sym>Flag, Blue</sym></wpt><wpt lat="33.979130" lon="71.504905"><ele>373.179077</ele><time>2020-09-28T05:18:04Z</time><name>303</name><sym>Flag, Blue</sym></wpt><wpt lat="33.979120" lon="71.504900"><ele>373.229004</ele><time>2020-09-28T05:18:07Z</time><name>304</name><sym>Flag, Blue</sym></wpt><wpt lat="33.978965" lon="71.505605"><ele>373.709686</ele><time>2020-09-28T05:25:40Z</time><name>305</name><sym>Flag, Blue</sym></wpt><wpt lat="33.978842" lon="71.506338"><ele>373.214447</ele><time>2020-09-28T05:26:12Z</time><name>306</name><sym>Flag, Blue</sym></wpt><wpt lat="33.978775" lon="71.506357"><ele>372.583649</ele><time>2020-09-28T05:26:30Z</time><name>307</name><sym>Flag, Blue</sym></wpt><wpt lat="33.978708" lon="71.507004"><ele>373.554474</ele><time>2020-09-28T05:36:54Z</time><name>308</name><sym>Flag, Blue</sym></wpt><wpt lat="33.978726" lon="71.507003"><ele>373.555939</ele><time>2020-09-28T05:36:56Z</time><name>309</name><sym>Flag, Blue</sym></wpt><wpt lat="33.978720" lon="71.506998"><ele>373.560486</ele><time>2020-09-28T05:36:59Z</time><name>310</name><sym>Flag, Blue</sym></wpt><wpt lat="33.978389" lon="71.506683"><ele>372.948517</ele><time>2020-09-28T05:40:10Z</time><name>311</name><sym>Flag, Blue</sym></wpt><wpt lat="33.978084" lon="71.506439"><ele>374.040588</ele><time>2020-09-28T05:40:30Z</time><name>312</name><sym>Flag, Blue</sym></wpt><wpt lat="33.977782" lon="71.506160"><ele>373.121552</ele><time>2020-09-28T05:40:59Z</time><name>313</name><sym>Flag, Blue</sym></wpt><wpt lat="33.977423" lon="71.505762"><ele>374.093567</ele><time>2020-09-28T05:41:23Z</time><name>314</name><sym>Flag, Blue</sym></wpt><wpt lat="33.976729" lon="71.506055"><ele>373.777557</ele><time>2020-09-28T05:41:59Z</time><name>315</name><sym>Flag, Blue</sym></wpt><wpt lat="33.976717" lon="71.506062"><ele>373.790649</ele><time>2020-09-28T05:42:02Z</time><name>316</name><sym>Flag, Blue</sym></wpt><wpt lat="33.976728" lon="71.506053"><ele>373.782410</ele><time>2020-09-28T05:42:05Z</time><name>317</name><sym>Flag, Blue</sym></wpt><wpt lat="33.976430" lon="71.506168"><ele>374.314484</ele><time>2020-09-28T05:45:13Z</time><name>318</name><sym>Flag, Blue</sym></wpt><wpt lat="33.976035" lon="71.506335"><ele>373.927643</ele><time>2020-09-28T05:45:46Z</time><name>319</name><sym>Flag, Blue</sym></wpt><wpt lat="33.976038" lon="71.506352"><ele>373.918976</ele><time>2020-09-28T05:45:49Z</time><name>320</name><sym>Flag, Blue</sym></wpt><wpt lat="33.976045" lon="71.506360"><ele>373.909821</ele><time>2020-09-28T05:45:52Z</time><name>321</name><sym>Flag, Blue</sym></wpt><wpt lat="33.975517" lon="71.506568"><ele>376.585815</ele><time>2020-09-28T05:47:53Z</time><name>322</name><sym>Flag, Blue</sym></wpt><wpt lat="33.975325" lon="71.506613"><ele>375.442291</ele><time>2020-09-28T05:48:11Z</time><name>323</name><sym>Flag, Blue</sym></wpt><wpt lat="33.974971" lon="71.506813"><ele>373.695068</ele><time>2020-09-28T05:48:34Z</time><name>324</name><sym>Flag, Blue</sym></wpt><wpt lat="33.974998" lon="71.507164"><ele>375.202637</ele><time>2020-09-28T05:49:07Z</time><name>325</name><sym>Flag, Blue</sym></wpt><wpt lat="33.975016" lon="71.507148"><ele>375.201294</ele><time>2020-09-28T05:49:10Z</time><name>326</name><sym>Flag, Blue</sym></wpt><wpt lat="33.975015" lon="71.507144"><ele>375.198578</ele><time>2020-09-28T05:49:13Z</time><name>327</name><sym>Flag, Blue</sym></wpt><wpt lat="33.975019" lon="71.507539"><ele>376.455353</ele><time>2020-09-28T05:51:06Z</time><name>328</name><sym>Flag, Blue</sym></wpt><wpt lat="33.974721" lon="71.507590"><ele>375.932922</ele><time>2020-09-28T05:51:38Z</time><name>329</name><sym>Flag, Blue</sym></wpt><wpt lat="33.974713" lon="71.507593"><ele>375.941681</ele><time>2020-09-28T05:51:41Z</time><name>330</name><sym>Flag, Blue</sym></wpt><wpt lat="33.974702" lon="71.507596"><ele>375.947021</ele><time>2020-09-28T05:51:44Z</time><name>331</name><sym>Flag, Blue</sym></wpt><wpt lat="33.974718" lon="71.508011"><ele>376.049347</ele><time>2020-09-28T05:54:11Z</time><name>332</name><sym>Flag, Blue</sym></wpt><wpt lat="33.974711" lon="71.508020"><ele>376.057617</ele><time>2020-09-28T05:54:15Z</time><name>333</name><sym>Flag, Blue</sym></wpt><wpt lat="33.974725" lon="71.508014"><ele>376.061890</ele><time>2020-09-28T05:54:19Z</time><name>334</name><sym>Flag, Blue</sym></wpt><wpt lat="33.974386" lon="71.508024"><ele>376.610870</ele><time>2020-09-28T05:57:37Z</time><name>335</name><sym>Flag, Blue</sym></wpt><wpt lat="33.974376" lon="71.508023"><ele>376.603333</ele><time>2020-09-28T05:57:40Z</time><name>336</name><sym>Flag, Blue</sym></wpt><wpt lat="33.974397" lon="71.508021"><ele>376.594879</ele><time>2020-09-28T05:57:44Z</time><name>337</name><sym>Flag, Blue</sym></wpt><wpt lat="33.978713" lon="71.507415"><ele>373.578766</ele><time>2020-09-28T06:02:56Z</time><name>338</name><sym>Flag, Blue</sym></wpt><wpt lat="33.978670" lon="71.507689"><ele>366.939758</ele><time>2020-09-28T06:03:30Z</time><name>339</name><sym>Flag, Blue</sym></wpt><wpt lat="33.978675" lon="71.507679"><ele>366.933105</ele><time>2020-09-28T06:03:34Z</time><name>340</name><sym>Flag, Blue</sym></wpt><wpt lat="33.978673" lon="71.507701"><ele>366.932129</ele><time>2020-09-28T06:03:36Z</time><name>341</name><sym>Flag, Blue</sym></wpt><wpt lat="33.978654" lon="71.508194"><ele>367.472076</ele><time>2020-09-28T06:04:23Z</time><name>342</name><sym>Flag, Blue</sym></wpt><wpt lat="33.978886" lon="71.508165"><ele>367.110840</ele><time>2020-09-28T06:05:29Z</time><name>343</name><sym>Flag, Blue</sym></wpt><wpt lat="33.978879" lon="71.508172"><ele>367.125366</ele><time>2020-09-28T06:05:33Z</time><name>344</name><sym>Flag, Blue</sym></wpt><wpt lat="33.978884" lon="71.508150"><ele>367.145294</ele><time>2020-09-28T06:05:36Z</time><name>345</name><sym>Flag, Blue</sym></wpt><wpt lat="33.978588" lon="71.508585"><ele>367.663330</ele><time>2020-09-28T06:06:57Z</time><name>346</name><sym>Flag, Blue</sym></wpt><wpt lat="33.978577" lon="71.508602"><ele>367.675110</ele><time>2020-09-28T06:07:00Z</time><name>347</name><sym>Flag, Blue</sym></wpt><wpt lat="33.978572" lon="71.508607"><ele>367.694519</ele><time>2020-09-28T06:07:04Z</time><name>348</name><sym>Flag, Blue</sym></wpt><wpt lat="33.978647" lon="71.509057"><ele>369.074554</ele><time>2020-09-28T06:08:03Z</time><name>349</name><sym>Flag, Blue</sym></wpt><wpt lat="33.978630" lon="71.509066"><ele>369.053986</ele><time>2020-09-28T06:08:06Z</time><name>350</name><sym>Flag, Blue</sym></wpt><wpt lat="33.978647" lon="71.509061"><ele>369.054901</ele><time>2020-09-28T06:08:09Z</time><name>351</name><sym>Flag, Blue</sym></wpt><wpt lat="33.978259" lon="71.508615"><ele>366.773163</ele><time>2020-09-28T06:26:23Z</time><name>352</name><sym>Flag, Blue</sym></wpt><wpt lat="33.977687" lon="71.508639"><ele>365.555969</ele><time>2020-09-28T06:26:51Z</time><name>353</name><sym>Flag, Blue</sym></wpt><wpt lat="33.977484" lon="71.508717"><ele>366.022125</ele><time>2020-09-28T06:27:05Z</time><name>354</name><sym>Flag, Blue</sym></wpt><wpt lat="33.977200" lon="71.508757"><ele>366.844513</ele><time>2020-09-28T06:27:26Z</time><name>355</name><sym>Flag, Blue</sym></wpt><wpt lat="33.977193" lon="71.508759"><ele>366.841217</ele><time>2020-09-28T06:27:29Z</time><name>356</name><sym>Flag, Blue</sym></wpt><wpt lat="33.977192" lon="71.508761"><ele>366.842255</ele><time>2020-09-28T06:27:32Z</time><name>357</name><sym>Flag, Blue</sym></wpt><wpt lat="33.977551" lon="71.509091"><ele>370.198761</ele><time>2020-09-28T06:30:39Z</time><name>358</name><sym>Flag, Blue</sym></wpt><wpt lat="33.977578" lon="71.509302"><ele>367.712799</ele><time>2020-09-28T06:30:56Z</time><name>359</name><sym>Flag, Blue</sym></wpt><wpt lat="33.977586" lon="71.509304"><ele>367.685303</ele><time>2020-09-28T06:31:21Z</time><name>360</name><sym>Flag, Blue</sym></wpt><wpt lat="33.977594" lon="71.509281"><ele>367.697266</ele><time>2020-09-28T06:31:24Z</time><name>361</name><sym>Flag, Blue</sym></wpt></gpx>