<?xml version="1.0" encoding="UTF-8" standalone="no" ?><gpx xmlns="http://www.topografix.com/GPX/1/1" xmlns:gpxx="http://www.garmin.com/xmlschemas/GpxExtensions/v3" xmlns:wptx1="http://www.garmin.com/xmlschemas/WaypointExtension/v1" xmlns:gpxtpx="http://www.garmin.com/xmlschemas/TrackPointExtension/v1" creator="GPSMAP 78s" version="1.1" xmlns:xsi="http://www.w3.org/2001/XMLSchema-instance" xsi:schemaLocation="http://www.topografix.com/GPX/1/1 http://www.topografix.com/GPX/1/1/gpx.xsd http://www.garmin.com/xmlschemas/GpxExtensions/v3 http://www8.garmin.com/xmlschemas/GpxExtensionsv3.xsd http://www.garmin.com/xmlschemas/WaypointExtension/v1 http://www8.garmin.com/xmlschemas/WaypointExtensionv1.xsd http://www.garmin.com/xmlschemas/TrackPointExtension/v1 http://www.garmin.com/xmlschemas/TrackPointExtensionv1.xsd"><metadata><link href="http://www.garmin.com"><text>Garmin International</text></link><time>2020-01-30T05:06:50Z</time></metadata><wpt lat="33.984753" lon="71.497448"><ele>369.357178</ele><time>2020-01-30T05:06:50Z</time><name>001</name><sym>Flag, Blue</sym></wpt><wpt lat="33.985023" lon="71.497232"><ele>370.311768</ele><time>2020-01-30T05:11:54Z</time><name>002</name><sym>Flag, Blue</sym></wpt><wpt lat="33.985298" lon="71.497123"><ele>369.536469</ele><time>2020-01-30T05:14:33Z</time><name>003</name><sym>Flag, Blue</sym></wpt><wpt lat="33.985629" lon="71.496806"><ele>371.079651</ele><time>2020-01-30T05:16:47Z</time><name>004</name><sym>Flag, Blue</sym></wpt><wpt lat="33.984516" lon="71.497628"><ele>371.797913</ele><time>2020-01-30T05:20:12Z</time><name>005</name><sym>Flag, Blue</sym></wpt><wpt lat="33.985746" lon="71.496653"><ele>368.962463</ele><time>2020-01-30T05:38:08Z</time><name>006</name><sym>Flag, Blue</sym></wpt><wpt lat="33.985905" lon="71.496588"><ele>369.619385</ele><time>2020-01-30T05:41:03Z</time><name>007</name><sym>Flag, Blue</sym></wpt><wpt lat="33.986280" lon="71.496339"><ele>369.455505</ele><time>2020-01-30T05:43:06Z</time><name>008</name><sym>Flag, Blue</sym></wpt><wpt lat="33.983712" lon="71.499263"><ele>367.603210</ele><time>2020-01-30T05:51:58Z</time><name>009</name><sym>Flag, Blue</sym></wpt><wpt lat="33.983253" lon="71.499605"><ele>370.179840</ele><time>2020-01-30T05:56:19Z</time><name>010</name><sym>Flag, Blue</sym></wpt><wpt lat="33.982839" lon="71.499840"><ele>370.411346</ele><time>2020-01-30T05:58:53Z</time><name>011</name><sym>Flag, Blue</sym></wpt><wpt lat="33.982525" lon="71.500004"><ele>372.887085</ele><time>2020-01-30T06:01:52Z</time><name>012</name><sym>Flag, Blue</sym></wpt><wpt lat="33.982327" lon="71.500147"><ele>373.729492</ele><time>2020-01-30T06:03:48Z</time><name>013</name><sym>Flag, Blue</sym></wpt><wpt lat="33.984003" lon="71.499172"><ele>375.953217</ele><time>2020-01-30T06:07:49Z</time><name>014</name><sym>Flag, Blue</sym></wpt><wpt lat="33.984425" lon="71.498916"><ele>375.621124</ele><time>2020-01-30T06:09:09Z</time><name>015</name><sym>Flag, Blue</sym></wpt><wpt lat="33.984842" lon="71.498687"><ele>376.198761</ele><time>2020-01-30T06:10:35Z</time><name>016</name><sym>Flag, Blue</sym></wpt><wpt lat="33.985241" lon="71.498412"><ele>374.731445</ele><time>2020-01-30T06:12:22Z</time><name>017</name><sym>Flag, Blue</sym></wpt><wpt lat="33.985163" lon="71.497954"><ele>374.476898</ele><time>2020-01-30T06:16:46Z</time><name>018</name><sym>Flag, Blue</sym></wpt></gpx>