<?xml version="1.0" encoding="UTF-8" standalone="no" ?><gpx xmlns="http://www.topografix.com/GPX/1/1" xmlns:gpxx="http://www.garmin.com/xmlschemas/GpxExtensions/v3" xmlns:wptx1="http://www.garmin.com/xmlschemas/WaypointExtension/v1" xmlns:gpxtpx="http://www.garmin.com/xmlschemas/TrackPointExtension/v1" creator="GPSMAP 78s" version="1.1" xmlns:xsi="http://www.w3.org/2001/XMLSchema-instance" xsi:schemaLocation="http://www.topografix.com/GPX/1/1 http://www.topografix.com/GPX/1/1/gpx.xsd http://www.garmin.com/xmlschemas/GpxExtensions/v3 http://www8.garmin.com/xmlschemas/GpxExtensionsv3.xsd http://www.garmin.com/xmlschemas/WaypointExtension/v1 http://www8.garmin.com/xmlschemas/WaypointExtensionv1.xsd http://www.garmin.com/xmlschemas/TrackPointExtension/v1 http://www.garmin.com/xmlschemas/TrackPointExtensionv1.xsd"><metadata><link href="http://www.garmin.com"><text>Garmin International</text></link><time>2022-09-13T04:21:32Z</time></metadata><wpt lat="33.996512" lon="71.453777"><ele>368.812225</ele><time>2022-09-13T04:21:32Z</time><name>048</name><sym>Flag, Blue</sym></wpt><wpt lat="33.996822" lon="71.453862"><ele>379.279724</ele><time>2022-09-13T04:22:15Z</time><name>049</name><sym>Flag, Blue</sym></wpt><wpt lat="33.996813" lon="71.453874"><ele>379.264160</ele><time>2022-09-13T04:22:18Z</time><name>050</name><sym>Flag, Blue</sym></wpt><wpt lat="33.996816" lon="71.453887"><ele>379.270050</ele><time>2022-09-13T04:22:21Z</time><name>051</name><sym>Flag, Blue</sym></wpt><wpt lat="33.997123" lon="71.454116"><ele>379.997955</ele><time>2022-09-13T04:24:10Z</time><name>052</name><sym>Flag, Blue</sym></wpt><wpt lat="33.997125" lon="71.454122"><ele>379.998444</ele><time>2022-09-13T04:24:13Z</time><name>053</name><sym>Flag, Blue</sym></wpt><wpt lat="33.997124" lon="71.454129"><ele>379.998657</ele><time>2022-09-13T04:24:16Z</time><name>054</name><sym>Flag, Blue</sym></wpt><wpt lat="33.997124" lon="71.454137"><ele>379.999634</ele><time>2022-09-13T04:24:19Z</time><name>055</name><sym>Flag, Blue</sym></wpt><wpt lat="33.997128" lon="71.454146"><ele>380.002380</ele><time>2022-09-13T04:24:22Z</time><name>056</name><sym>Flag, Blue</sym></wpt><wpt lat="33.996262" lon="71.456276"><ele>383.297546</ele><time>2022-09-13T04:30:23Z</time><name>057</name><sym>Flag, Blue</sym></wpt><wpt lat="33.996265" lon="71.456285"><ele>383.289795</ele><time>2022-09-13T04:30:26Z</time><name>058</name><sym>Flag, Blue</sym></wpt><wpt lat="33.996268" lon="71.456292"><ele>383.278046</ele><time>2022-09-13T04:30:29Z</time><name>059</name><sym>Flag, Blue</sym></wpt><wpt lat="33.993034" lon="71.457168"><ele>383.947205</ele><time>2022-09-13T04:36:36Z</time><name>060</name><sym>Flag, Blue</sym></wpt><wpt lat="33.993012" lon="71.457472"><ele>381.630249</ele><time>2022-09-13T04:37:02Z</time><name>061</name><sym>Flag, Blue</sym></wpt><wpt lat="33.992940" lon="71.457876"><ele>382.935059</ele><time>2022-09-13T04:37:42Z</time><name>062</name><sym>Flag, Blue</sym></wpt><wpt lat="33.992928" lon="71.457879"><ele>382.927887</ele><time>2022-09-13T04:37:45Z</time><name>063</name><sym>Flag, Blue</sym></wpt><wpt lat="33.992916" lon="71.457882"><ele>382.916351</ele><time>2022-09-13T04:37:47Z</time><name>064</name><sym>Flag, Blue</sym></wpt><wpt lat="33.993746" lon="71.457936"><ele>385.563171</ele><time>2022-09-13T04:39:59Z</time><name>065</name><sym>Flag, Blue</sym></wpt><wpt lat="33.994068" lon="71.458132"><ele>385.462982</ele><time>2022-09-13T04:40:09Z</time><name>066</name><sym>Flag, Blue</sym></wpt><wpt lat="33.994385" lon="71.458318"><ele>384.866974</ele><time>2022-09-13T04:40:20Z</time><name>067</name><sym>Flag, Blue</sym></wpt><wpt lat="33.994788" lon="71.458517"><ele>382.520905</ele><time>2022-09-13T04:40:55Z</time><name>068</name><sym>Flag, Blue</sym></wpt><wpt lat="33.994781" lon="71.458520"><ele>382.539612</ele><time>2022-09-13T04:40:57Z</time><name>069</name><sym>Flag, Blue</sym></wpt><wpt lat="33.994779" lon="71.458529"><ele>382.537811</ele><time>2022-09-13T04:41:00Z</time><name>070</name><sym>Flag, Blue</sym></wpt><wpt lat="33.990753" lon="71.455553"><ele>384.191528</ele><time>2022-09-13T04:46:18Z</time><name>071</name><sym>Flag, Blue</sym></wpt><wpt lat="33.990747" lon="71.455555"><ele>384.190460</ele><time>2022-09-13T04:46:22Z</time><name>072</name><sym>Flag, Blue</sym></wpt><wpt lat="33.990734" lon="71.455556"><ele>384.193878</ele><time>2022-09-13T04:46:25Z</time><name>073</name><sym>Flag, Blue</sym></wpt><wpt lat="33.990529" lon="71.455278"><ele>386.455139</ele><time>2022-09-13T04:50:03Z</time><name>074</name><sym>Flag, Blue</sym></wpt><wpt lat="33.990529" lon="71.455273"><ele>386.455170</ele><time>2022-09-13T04:50:07Z</time><name>075</name><sym>Flag, Blue</sym></wpt><wpt lat="33.990660" lon="71.455816"><ele>384.895264</ele><time>2022-09-13T04:54:10Z</time><name>076</name><sym>Flag, Blue</sym></wpt><wpt lat="33.990492" lon="71.456223"><ele>386.521027</ele><time>2022-09-13T04:55:02Z</time><name>077</name><sym>Flag, Blue</sym></wpt><wpt lat="33.990311" lon="71.456563"><ele>386.436249</ele><time>2022-09-13T04:55:54Z</time><name>078</name><sym>Flag, Blue</sym></wpt><wpt lat="33.990261" lon="71.455125"><ele>386.887115</ele><time>2022-09-13T04:58:54Z</time><name>079</name><sym>Flag, Blue</sym></wpt><wpt lat="33.990264" lon="71.455102"><ele>386.884430</ele><time>2022-09-13T04:58:57Z</time><name>080</name><sym>Flag, Blue</sym></wpt><wpt lat="33.990265" lon="71.455099"><ele>386.882172</ele><time>2022-09-13T04:59:00Z</time><name>081</name><sym>Flag, Blue</sym></wpt><wpt lat="33.990484" lon="71.455274"><ele>387.227234</ele><time>2022-09-13T04:59:28Z</time><name>082</name><sym>Flag, Blue</sym></wpt><wpt lat="33.990225" lon="71.454954"><ele>389.742188</ele><time>2022-09-13T05:01:51Z</time><name>083</name><sym>Flag, Blue</sym></wpt><wpt lat="33.989970" lon="71.455355"><ele>387.084412</ele><time>2022-09-13T05:03:02Z</time><name>084</name><sym>Flag, Blue</sym></wpt><wpt lat="33.989832" lon="71.455786"><ele>386.742401</ele><time>2022-09-13T05:03:37Z</time><name>085</name><sym>Flag, Blue</sym></wpt><wpt lat="33.989990" lon="71.454844"><ele>389.824554</ele><time>2022-09-13T05:05:41Z</time><name>086</name><sym>Flag, Blue</sym></wpt><wpt lat="33.989989" lon="71.454815"><ele>389.822510</ele><time>2022-09-13T05:05:44Z</time><name>087</name><sym>Flag, Blue</sym></wpt><wpt lat="33.989989" lon="71.454803"><ele>389.830841</ele><time>2022-09-13T05:05:47Z</time><name>088</name><sym>Flag, Blue</sym></wpt><wpt lat="33.989581" lon="71.454468"><ele>392.603760</ele><time>2022-09-13T05:07:24Z</time><name>089</name><sym>Flag, Blue</sym></wpt><wpt lat="33.989205" lon="71.454136"><ele>392.415436</ele><time>2022-09-13T05:07:44Z</time><name>090</name><sym>Flag, Blue</sym></wpt><wpt lat="33.989077" lon="71.454345"><ele>388.360260</ele><time>2022-09-13T05:08:44Z</time><name>091</name><sym>Flag, Blue</sym></wpt><wpt lat="33.988807" lon="71.454648"><ele>392.091431</ele><time>2022-09-13T05:09:14Z</time><name>092</name><sym>Flag, Blue</sym></wpt><wpt lat="33.988814" lon="71.454649"><ele>392.074188</ele><time>2022-09-13T05:09:16Z</time><name>093</name><sym>Flag, Blue</sym></wpt><wpt lat="33.988818" lon="71.454642"><ele>392.073334</ele><time>2022-09-13T05:09:19Z</time><name>094</name><sym>Flag, Blue</sym></wpt><wpt lat="33.988567" lon="71.455047"><ele>389.833801</ele><time>2022-09-13T05:10:03Z</time><name>095</name><sym>Flag, Blue</sym></wpt><wpt lat="33.988356" lon="71.455524"><ele>392.880737</ele><time>2022-09-13T05:15:36Z</time><name>096</name><sym>Flag, Blue</sym></wpt><wpt lat="33.988888" lon="71.453851"><ele>390.177155</ele><time>2022-09-13T05:17:28Z</time><name>097</name><sym>Flag, Blue</sym></wpt><wpt lat="33.988626" lon="71.453610"><ele>392.597534</ele><time>2022-09-13T05:17:39Z</time><name>098</name><sym>Flag, Blue</sym></wpt><wpt lat="33.988398" lon="71.453409"><ele>394.211334</ele><time>2022-09-13T05:18:21Z</time><name>099</name><sym>Flag, Blue</sym></wpt><wpt lat="33.988394" lon="71.453422"><ele>394.208130</ele><time>2022-09-13T05:18:24Z</time><name>100</name><sym>Flag, Blue</sym></wpt><wpt lat="33.988386" lon="71.453433"><ele>394.203094</ele><time>2022-09-13T05:18:27Z</time><name>101</name><sym>Flag, Blue</sym></wpt><wpt lat="33.988229" lon="71.453682"><ele>391.332611</ele><time>2022-09-13T05:20:01Z</time><name>102</name><sym>Flag, Blue</sym></wpt><wpt lat="33.987990" lon="71.454061"><ele>391.285309</ele><time>2022-09-13T05:20:51Z</time><name>103</name><sym>Flag, Blue</sym></wpt><wpt lat="33.987744" lon="71.454505"><ele>391.186493</ele><time>2022-09-13T05:21:45Z</time><name>104</name><sym>Flag, Blue</sym></wpt><wpt lat="33.987506" lon="71.454927"><ele>390.230835</ele><time>2022-09-13T05:22:49Z</time><name>105</name><sym>Flag, Blue</sym></wpt><wpt lat="33.988049" lon="71.452938"><ele>397.934113</ele><time>2022-09-13T05:27:08Z</time><name>106</name><sym>Flag, Blue</sym></wpt><wpt lat="33.988054" lon="71.452928"><ele>397.928986</ele><time>2022-09-13T05:27:10Z</time><name>107</name><sym>Flag, Blue</sym></wpt><wpt lat="33.988061" lon="71.452935"><ele>397.926117</ele><time>2022-09-13T05:27:13Z</time><name>108</name><sym>Flag, Blue</sym></wpt><wpt lat="33.988082" lon="71.453097"><ele>394.622253</ele><time>2022-09-13T05:30:02Z</time><name>109</name><sym>Flag, Blue</sym></wpt><wpt lat="33.987811" lon="71.453409"><ele>395.227264</ele><time>2022-09-13T05:32:04Z</time><name>110</name><sym>Flag, Blue</sym></wpt><wpt lat="33.987596" lon="71.453781"><ele>394.274475</ele><time>2022-09-13T05:40:40Z</time><name>111</name><sym>Flag, Blue</sym></wpt><wpt lat="33.987862" lon="71.452750"><ele>401.056610</ele><time>2022-09-13T05:58:29Z</time><name>112</name><sym>Flag, Blue</sym></wpt><wpt lat="33.987557" lon="71.452893"><ele>399.926788</ele><time>2022-09-13T05:59:34Z</time><name>113</name><sym>Flag, Blue</sym></wpt><wpt lat="33.989367" lon="71.453762"><ele>394.359009</ele><time>2022-09-13T06:04:31Z</time><name>114</name><sym>Flag, Blue</sym></wpt><wpt lat="33.989368" lon="71.453760"><ele>394.349091</ele><time>2022-09-13T06:04:34Z</time><name>115</name><sym>Flag, Blue</sym></wpt><wpt lat="33.989366" lon="71.453769"><ele>394.339203</ele><time>2022-09-13T06:04:38Z</time><name>116</name><sym>Flag, Blue</sym></wpt></gpx>