<?xml version="1.0" encoding="UTF-8" standalone="no" ?><gpx xmlns="http://www.topografix.com/GPX/1/1" xmlns:gpxx="http://www.garmin.com/xmlschemas/GpxExtensions/v3" xmlns:wptx1="http://www.garmin.com/xmlschemas/WaypointExtension/v1" xmlns:gpxtpx="http://www.garmin.com/xmlschemas/TrackPointExtension/v1" creator="GPSMAP 78s" version="1.1" xmlns:xsi="http://www.w3.org/2001/XMLSchema-instance" xsi:schemaLocation="http://www.topografix.com/GPX/1/1 http://www.topografix.com/GPX/1/1/gpx.xsd http://www.garmin.com/xmlschemas/GpxExtensions/v3 http://www8.garmin.com/xmlschemas/GpxExtensionsv3.xsd http://www.garmin.com/xmlschemas/WaypointExtension/v1 http://www8.garmin.com/xmlschemas/WaypointExtensionv1.xsd http://www.garmin.com/xmlschemas/TrackPointExtension/v1 http://www.garmin.com/xmlschemas/TrackPointExtensionv1.xsd"><metadata><link href="http://www.garmin.com"><text>Garmin International</text></link><time>2022-09-12T05:26:00Z</time></metadata><wpt lat="33.996805" lon="71.440115"><ele>402.860718</ele><time>2022-09-12T05:26:00Z</time><name>001</name><sym>Flag, Blue</sym></wpt><wpt lat="33.996750" lon="71.440866"><ele>404.094818</ele><time>2022-09-12T05:26:12Z</time><name>002</name><sym>Flag, Blue</sym></wpt><wpt lat="33.996702" lon="71.441635"><ele>404.487274</ele><time>2022-09-12T05:26:24Z</time><name>003</name><sym>Flag, Blue</sym></wpt><wpt lat="33.996651" lon="71.442519"><ele>404.045471</ele><time>2022-09-12T05:26:37Z</time><name>004</name><sym>Flag, Blue</sym></wpt><wpt lat="33.996629" lon="71.442920"><ele>404.736023</ele><time>2022-09-12T05:26:46Z</time><name>005</name><sym>Flag, Blue</sym></wpt><wpt lat="33.996604" lon="71.443310"><ele>403.393005</ele><time>2022-09-12T05:26:56Z</time><name>006</name><sym>Flag, Blue</sym></wpt><wpt lat="33.996184" lon="71.443397"><ele>402.474976</ele><time>2022-09-12T05:27:12Z</time><name>007</name><sym>Flag, Blue</sym></wpt><wpt lat="33.995658" lon="71.443361"><ele>399.202515</ele><time>2022-09-12T05:27:38Z</time><name>008</name><sym>Flag, Blue</sym></wpt><wpt lat="33.995656" lon="71.443374"><ele>399.171082</ele><time>2022-09-12T05:27:41Z</time><name>009</name><sym>Flag, Blue</sym></wpt><wpt lat="33.995667" lon="71.443360"><ele>399.235321</ele><time>2022-09-12T05:27:45Z</time><name>010</name><sym>Flag, Blue</sym></wpt><wpt lat="33.995356" lon="71.443335"><ele>397.100525</ele><time>2022-09-12T05:29:05Z</time><name>011</name><sym>Flag, Blue</sym></wpt><wpt lat="33.995413" lon="71.443883"><ele>401.544067</ele><time>2022-09-12T05:33:19Z</time><name>012</name><sym>Flag, Blue</sym></wpt><wpt lat="33.995772" lon="71.444066"><ele>400.640961</ele><time>2022-09-12T05:33:32Z</time><name>013</name><sym>Flag, Blue</sym></wpt><wpt lat="33.996139" lon="71.444077"><ele>399.900024</ele><time>2022-09-12T05:33:45Z</time><name>014</name><sym>Flag, Blue</sym></wpt><wpt lat="33.996458" lon="71.444109"><ele>400.222778</ele><time>2022-09-12T05:33:59Z</time><name>015</name><sym>Flag, Blue</sym></wpt><wpt lat="33.996538" lon="71.444397"><ele>400.793396</ele><time>2022-09-12T05:34:07Z</time><name>016</name><sym>Flag, Blue</sym></wpt><wpt lat="33.996540" lon="71.445052"><ele>400.279541</ele><time>2022-09-12T05:34:20Z</time><name>017</name><sym>Flag, Blue</sym></wpt><wpt lat="33.996506" lon="71.445867"><ele>399.798676</ele><time>2022-09-12T05:34:34Z</time><name>018</name><sym>Flag, Blue</sym></wpt><wpt lat="33.996492" lon="71.446699"><ele>400.391937</ele><time>2022-09-12T05:34:48Z</time><name>019</name><sym>Flag, Blue</sym></wpt><wpt lat="33.996409" lon="71.447551"><ele>399.505554</ele><time>2022-09-12T05:35:03Z</time><name>020</name><sym>Flag, Blue</sym></wpt><wpt lat="33.996394" lon="71.448387"><ele>398.140411</ele><time>2022-09-12T05:35:18Z</time><name>021</name><sym>Flag, Blue</sym></wpt><wpt lat="33.996354" lon="71.449268"><ele>397.893005</ele><time>2022-09-12T05:35:33Z</time><name>022</name><sym>Flag, Blue</sym></wpt><wpt lat="33.996283" lon="71.450154"><ele>394.502594</ele><time>2022-09-12T05:36:32Z</time><name>023</name><sym>Flag, Blue</sym></wpt><wpt lat="33.996279" lon="71.450147"><ele>394.538300</ele><time>2022-09-12T05:36:34Z</time><name>024</name><sym>Flag, Blue</sym></wpt><wpt lat="33.996276" lon="71.450155"><ele>394.524994</ele><time>2022-09-12T05:36:37Z</time><name>025</name><sym>Flag, Blue</sym></wpt><wpt lat="33.996213" lon="71.451003"><ele>393.708282</ele><time>2022-09-12T05:39:47Z</time><name>026</name><sym>Flag, Blue</sym></wpt><wpt lat="33.996121" lon="71.451648"><ele>392.639069</ele><time>2022-09-12T05:40:00Z</time><name>027</name><sym>Flag, Blue</sym></wpt><wpt lat="33.996135" lon="71.452344"><ele>392.027557</ele><time>2022-09-12T05:40:15Z</time><name>028</name><sym>Flag, Blue</sym></wpt><wpt lat="33.996115" lon="71.452779"><ele>392.330353</ele><time>2022-09-12T05:40:25Z</time><name>029</name><sym>Flag, Blue</sym></wpt><wpt lat="33.996040" lon="71.453524"><ele>391.510406</ele><time>2022-09-12T05:40:39Z</time><name>030</name><sym>Flag, Blue</sym></wpt><wpt lat="33.996048" lon="71.454448"><ele>390.065460</ele><time>2022-09-12T05:45:15Z</time><name>031</name><sym>Flag, Blue</sym></wpt><wpt lat="33.995986" lon="71.455326"><ele>390.200043</ele><time>2022-09-12T05:45:33Z</time><name>032</name><sym>Flag, Blue</sym></wpt><wpt lat="33.995910" lon="71.456145"><ele>390.121277</ele><time>2022-09-12T05:45:51Z</time><name>033</name><sym>Flag, Blue</sym></wpt><wpt lat="33.995774" lon="71.456765"><ele>388.720886</ele><time>2022-09-12T05:46:09Z</time><name>034</name><sym>Flag, Blue</sym></wpt><wpt lat="33.995766" lon="71.457258"><ele>388.017609</ele><time>2022-09-12T05:46:22Z</time><name>035</name><sym>Flag, Blue</sym></wpt><wpt lat="33.995394" lon="71.458195"><ele>388.741547</ele><time>2022-09-12T05:47:37Z</time><name>036</name><sym>Flag, Blue</sym></wpt><wpt lat="33.994902" lon="71.457866"><ele>388.846161</ele><time>2022-09-12T05:48:22Z</time><name>037</name><sym>Flag, Blue</sym></wpt><wpt lat="33.994499" lon="71.457562"><ele>386.994659</ele><time>2022-09-12T05:49:01Z</time><name>038</name><sym>Flag, Blue</sym></wpt><wpt lat="33.994043" lon="71.457292"><ele>387.868042</ele><time>2022-09-12T05:49:37Z</time><name>039</name><sym>Flag, Blue</sym></wpt><wpt lat="33.993588" lon="71.457002"><ele>388.454163</ele><time>2022-09-12T05:50:16Z</time><name>040</name><sym>Flag, Blue</sym></wpt><wpt lat="33.993102" lon="71.456710"><ele>388.687592</ele><time>2022-09-12T05:51:07Z</time><name>041</name><sym>Flag, Blue</sym></wpt><wpt lat="33.992655" lon="71.456469"><ele>389.302582</ele><time>2022-09-12T05:53:44Z</time><name>042</name><sym>Flag, Blue</sym></wpt><wpt lat="33.992288" lon="71.456262"><ele>389.074951</ele><time>2022-09-12T05:54:34Z</time><name>043</name><sym>Flag, Blue</sym></wpt><wpt lat="33.991923" lon="71.456008"><ele>389.567230</ele><time>2022-09-12T05:55:11Z</time><name>044</name><sym>Flag, Blue</sym></wpt><wpt lat="33.991642" lon="71.455804"><ele>388.044373</ele><time>2022-09-12T05:55:43Z</time><name>045</name><sym>Flag, Blue</sym></wpt><wpt lat="33.991242" lon="71.455528"><ele>390.091156</ele><time>2022-09-12T05:56:25Z</time><name>046</name><sym>Flag, Blue</sym></wpt><wpt lat="33.991065" lon="71.455870"><ele>392.714996</ele><time>2022-09-12T05:58:24Z</time><name>047</name><sym>Flag, Blue</sym></wpt></gpx>