<?xml version="1.0" encoding="UTF-8" standalone="no" ?><gpx xmlns="http://www.topografix.com/GPX/1/1" xmlns:gpxx="http://www.garmin.com/xmlschemas/GpxExtensions/v3" xmlns:wptx1="http://www.garmin.com/xmlschemas/WaypointExtension/v1" xmlns:gpxtpx="http://www.garmin.com/xmlschemas/TrackPointExtension/v1" creator="GPSMAP 78s" version="1.1" xmlns:xsi="http://www.w3.org/2001/XMLSchema-instance" xsi:schemaLocation="http://www.topografix.com/GPX/1/1 http://www.topografix.com/GPX/1/1/gpx.xsd http://www.garmin.com/xmlschemas/GpxExtensions/v3 http://www8.garmin.com/xmlschemas/GpxExtensionsv3.xsd http://www.garmin.com/xmlschemas/WaypointExtension/v1 http://www8.garmin.com/xmlschemas/WaypointExtensionv1.xsd http://www.garmin.com/xmlschemas/TrackPointExtension/v1 http://www.garmin.com/xmlschemas/TrackPointExtensionv1.xsd"><metadata><link href="http://www.garmin.com"><text>Garmin International</text></link><time>2022-09-16T02:58:53Z</time></metadata><wpt lat="33.985916" lon="71.455918"><ele>385.885529</ele><time>2022-09-16T02:58:53Z</time><name>247</name><sym>Flag, Blue</sym></wpt><wpt lat="33.985924" lon="71.455906"><ele>385.881104</ele><time>2022-09-16T02:58:55Z</time><name>248</name><sym>Flag, Blue</sym></wpt><wpt lat="33.985928" lon="71.455890"><ele>385.892944</ele><time>2022-09-16T02:58:58Z</time><name>249</name><sym>Flag, Blue</sym></wpt><wpt lat="33.985927" lon="71.455223"><ele>387.589233</ele><time>2022-09-16T03:02:01Z</time><name>250</name><sym>Flag, Blue</sym></wpt><wpt lat="33.985488" lon="71.455668"><ele>385.942291</ele><time>2022-09-16T03:05:29Z</time><name>251</name><sym>Flag, Blue</sym></wpt><wpt lat="33.985250" lon="71.455532"><ele>388.911407</ele><time>2022-09-16T03:06:22Z</time><name>252</name><sym>Flag, Blue</sym></wpt><wpt lat="33.985858" lon="71.456094"><ele>385.945312</ele><time>2022-09-16T03:07:54Z</time><name>253</name><sym>Flag, Blue</sym></wpt><wpt lat="33.985730" lon="71.456394"><ele>386.348297</ele><time>2022-09-16T03:08:27Z</time><name>254</name><sym>Flag, Blue</sym></wpt><wpt lat="33.985589" lon="71.456756"><ele>386.585052</ele><time>2022-09-16T03:09:32Z</time><name>255</name><sym>Flag, Blue</sym></wpt><wpt lat="33.985592" lon="71.456767"><ele>387.316376</ele><time>2022-09-16T03:09:50Z</time><name>256</name><sym>Flag, Blue</sym></wpt><wpt lat="33.985588" lon="71.456748"><ele>387.313507</ele><time>2022-09-16T03:09:53Z</time><name>257</name><sym>Flag, Blue</sym></wpt><wpt lat="33.985322" lon="71.457324"><ele>388.902679</ele><time>2022-09-16T03:15:51Z</time><name>258</name><sym>Flag, Blue</sym></wpt><wpt lat="33.984922" lon="71.457090"><ele>389.971527</ele><time>2022-09-16T03:16:51Z</time><name>259</name><sym>Flag, Blue</sym></wpt><wpt lat="33.985084" lon="71.456628"><ele>391.839844</ele><time>2022-09-16T03:17:44Z</time><name>260</name><sym>Flag, Blue</sym></wpt><wpt lat="33.985156" lon="71.457762"><ele>389.563965</ele><time>2022-09-16T03:21:30Z</time><name>261</name><sym>Flag, Blue</sym></wpt><wpt lat="33.985154" lon="71.457767"><ele>389.551910</ele><time>2022-09-16T03:21:33Z</time><name>262</name><sym>Flag, Blue</sym></wpt><wpt lat="33.985161" lon="71.457773"><ele>389.547577</ele><time>2022-09-16T03:21:36Z</time><name>263</name><sym>Flag, Blue</sym></wpt><wpt lat="33.984982" lon="71.458185"><ele>388.373688</ele><time>2022-09-16T03:27:47Z</time><name>264</name><sym>Flag, Blue</sym></wpt><wpt lat="33.984981" lon="71.458187"><ele>388.688873</ele><time>2022-09-16T03:28:08Z</time><name>265</name><sym>Flag, Blue</sym></wpt><wpt lat="33.984990" lon="71.458170"><ele>388.691101</ele><time>2022-09-16T03:28:11Z</time><name>266</name><sym>Flag, Blue</sym></wpt><wpt lat="33.984771" lon="71.458701"><ele>386.383301</ele><time>2022-09-16T03:31:09Z</time><name>267</name><sym>Flag, Blue</sym></wpt><wpt lat="33.985207" lon="71.458346"><ele>390.137360</ele><time>2022-09-16T03:32:40Z</time><name>268</name><sym>Flag, Blue</sym></wpt><wpt lat="33.984635" lon="71.457995"><ele>390.581635</ele><time>2022-09-16T03:36:53Z</time><name>269</name><sym>Flag, Blue</sym></wpt><wpt lat="33.984635" lon="71.457999"><ele>390.574005</ele><time>2022-09-16T03:36:56Z</time><name>270</name><sym>Flag, Blue</sym></wpt><wpt lat="33.984641" lon="71.457998"><ele>390.577148</ele><time>2022-09-16T03:36:58Z</time><name>271</name><sym>Flag, Blue</sym></wpt><wpt lat="33.984472" lon="71.458328"><ele>387.503479</ele><time>2022-09-16T03:38:02Z</time><name>272</name><sym>Flag, Blue</sym></wpt><wpt lat="33.984341" lon="71.457806"><ele>392.120972</ele><time>2022-09-16T03:42:18Z</time><name>273</name><sym>Flag, Blue</sym></wpt><wpt lat="33.984320" lon="71.457800"><ele>391.842682</ele><time>2022-09-16T03:42:38Z</time><name>274</name><sym>Flag, Blue</sym></wpt><wpt lat="33.984337" lon="71.457803"><ele>391.849915</ele><time>2022-09-16T03:42:41Z</time><name>275</name><sym>Flag, Blue</sym></wpt><wpt lat="33.984486" lon="71.457452"><ele>393.011780</ele><time>2022-09-16T03:43:42Z</time><name>276</name><sym>Flag, Blue</sym></wpt><wpt lat="33.984223" lon="71.457265"><ele>390.820343</ele><time>2022-09-16T03:44:20Z</time><name>277</name><sym>Flag, Blue</sym></wpt><wpt lat="33.983986" lon="71.457609"><ele>393.003723</ele><time>2022-09-16T03:45:58Z</time><name>278</name><sym>Flag, Blue</sym></wpt><wpt lat="33.986103" lon="71.457066"><ele>390.008392</ele><time>2022-09-16T03:49:13Z</time><name>279</name><sym>Flag, Blue</sym></wpt><wpt lat="33.986375" lon="71.456553"><ele>389.326080</ele><time>2022-09-16T03:53:00Z</time><name>280</name><sym>Flag, Blue</sym></wpt><wpt lat="33.985881" lon="71.457642"><ele>390.652222</ele><time>2022-09-16T03:59:05Z</time><name>281</name><sym>Flag, Blue</sym></wpt><wpt lat="33.986198" lon="71.457813"><ele>389.424103</ele><time>2022-09-16T04:01:19Z</time><name>282</name><sym>Flag, Blue</sym></wpt><wpt lat="33.986200" lon="71.457821"><ele>389.408478</ele><time>2022-09-16T04:01:22Z</time><name>283</name><sym>Flag, Blue</sym></wpt><wpt lat="33.986213" lon="71.457820"><ele>389.429657</ele><time>2022-09-16T04:01:25Z</time><name>284</name><sym>Flag, Blue</sym></wpt><wpt lat="33.986581" lon="71.458058"><ele>391.467010</ele><time>2022-09-16T04:02:24Z</time><name>285</name><sym>Flag, Blue</sym></wpt><wpt lat="33.986953" lon="71.458295"><ele>391.018585</ele><time>2022-09-16T04:03:40Z</time><name>286</name><sym>Flag, Blue</sym></wpt><wpt lat="33.985685" lon="71.458006"><ele>389.665771</ele><time>2022-09-16T04:08:12Z</time><name>287</name><sym>Flag, Blue</sym></wpt><wpt lat="33.985637" lon="71.458198"><ele>388.282227</ele><time>2022-09-16T04:10:28Z</time><name>288</name><sym>Flag, Blue</sym></wpt><wpt lat="33.985600" lon="71.458334"><ele>389.309265</ele><time>2022-09-16T04:11:34Z</time><name>289</name><sym>Flag, Blue</sym></wpt><wpt lat="33.985615" lon="71.458348"><ele>390.218658</ele><time>2022-09-16T04:12:03Z</time><name>290</name><sym>Flag, Blue</sym></wpt><wpt lat="33.985613" lon="71.458365"><ele>390.218170</ele><time>2022-09-16T04:12:05Z</time><name>291</name><sym>Flag, Blue</sym></wpt><wpt lat="33.985615" lon="71.458370"><ele>390.217499</ele><time>2022-09-16T04:12:08Z</time><name>292</name><sym>Flag, Blue</sym></wpt><wpt lat="33.985608" lon="71.458387"><ele>390.216980</ele><time>2022-09-16T04:12:10Z</time><name>293</name><sym>Flag, Blue</sym></wpt><wpt lat="33.985587" lon="71.458502"><ele>390.635559</ele><time>2022-09-16T04:17:00Z</time><name>294</name><sym>Flag, Blue</sym></wpt><wpt lat="33.985711" lon="71.458604"><ele>391.055847</ele><time>2022-09-16T04:17:40Z</time><name>295</name><sym>Flag, Blue</sym></wpt><wpt lat="33.986054" lon="71.458804"><ele>389.604431</ele><time>2022-09-16T04:18:24Z</time><name>296</name><sym>Flag, Blue</sym></wpt><wpt lat="33.985890" lon="71.459092"><ele>387.408173</ele><time>2022-09-16T04:19:12Z</time><name>297</name><sym>Flag, Blue</sym></wpt><wpt lat="33.985408" lon="71.458416"><ele>393.001282</ele><time>2022-09-16T04:20:51Z</time><name>298</name><sym>Flag, Blue</sym></wpt><wpt lat="33.985337" lon="71.458538"><ele>389.193146</ele><time>2022-09-16T04:21:20Z</time><name>299</name><sym>Flag, Blue</sym></wpt><wpt lat="33.985198" lon="71.458847"><ele>388.237885</ele><time>2022-09-16T04:21:49Z</time><name>300</name><sym>Flag, Blue</sym></wpt><wpt lat="33.985883" lon="71.458342"><ele>390.120087</ele><time>2022-09-16T04:24:02Z</time><name>301</name><sym>Flag, Blue</sym></wpt><wpt lat="33.985899" lon="71.458353"><ele>392.853699</ele><time>2022-09-16T04:24:21Z</time><name>302</name><sym>Flag, Blue</sym></wpt><wpt lat="33.985887" lon="71.458343"><ele>392.848206</ele><time>2022-09-16T04:24:23Z</time><name>303</name><sym>Flag, Blue</sym></wpt><wpt lat="33.986211" lon="71.458531"><ele>390.332428</ele><time>2022-09-16T04:27:58Z</time><name>304</name><sym>Flag, Blue</sym></wpt><wpt lat="33.986503" lon="71.458664"><ele>390.513031</ele><time>2022-09-16T04:28:54Z</time><name>305</name><sym>Flag, Blue</sym></wpt><wpt lat="33.986381" lon="71.458961"><ele>386.943817</ele><time>2022-09-16T04:30:42Z</time><name>306</name><sym>Flag, Blue</sym></wpt><wpt lat="33.986835" lon="71.458924"><ele>393.611206</ele><time>2022-09-16T04:43:29Z</time><name>307</name><sym>Flag, Blue</sym></wpt><wpt lat="33.986713" lon="71.459102"><ele>391.041595</ele><time>2022-09-16T04:43:54Z</time><name>308</name><sym>Flag, Blue</sym></wpt><wpt lat="33.987020" lon="71.459098"><ele>395.155518</ele><time>2022-09-16T04:46:13Z</time><name>309</name><sym>Flag, Blue</sym></wpt><wpt lat="33.986981" lon="71.459126"><ele>395.505585</ele><time>2022-09-16T04:46:23Z</time><name>310</name><sym>Flag, Blue</sym></wpt><wpt lat="33.986970" lon="71.459134"><ele>395.518311</ele><time>2022-09-16T04:46:26Z</time><name>311</name><sym>Flag, Blue</sym></wpt><wpt lat="33.986481" lon="71.457295"><ele>398.599365</ele><time>2022-09-16T04:51:20Z</time><name>312</name><sym>Flag, Blue</sym></wpt><wpt lat="33.986486" lon="71.457309"><ele>398.552338</ele><time>2022-09-16T04:51:23Z</time><name>313</name><sym>Flag, Blue</sym></wpt><wpt lat="33.986489" lon="71.457315"><ele>398.538696</ele><time>2022-09-16T04:51:25Z</time><name>314</name><sym>Flag, Blue</sym></wpt><wpt lat="33.986897" lon="71.457509"><ele>395.806549</ele><time>2022-09-16T04:56:23Z</time><name>315</name><sym>Flag, Blue</sym></wpt><wpt lat="33.987276" lon="71.457732"><ele>399.031219</ele><time>2022-09-16T05:00:00Z</time><name>316</name><sym>Flag, Blue</sym></wpt><wpt lat="33.987289" lon="71.457761"><ele>399.048553</ele><time>2022-09-16T05:00:05Z</time><name>317</name><sym>Flag, Blue</sym></wpt><wpt lat="33.987294" lon="71.457763"><ele>399.057343</ele><time>2022-09-16T05:00:08Z</time><name>318</name><sym>Flag, Blue</sym></wpt><wpt lat="33.987342" lon="71.457179"><ele>397.738708</ele><time>2022-09-16T05:07:03Z</time><name>319</name><sym>Flag, Blue</sym></wpt><wpt lat="33.987550" lon="71.457282"><ele>398.887451</ele><time>2022-09-16T05:07:49Z</time><name>320</name><sym>Flag, Blue</sym></wpt><wpt lat="33.987554" lon="71.457294"><ele>398.875702</ele><time>2022-09-16T05:07:51Z</time><name>321</name><sym>Flag, Blue</sym></wpt><wpt lat="33.987563" lon="71.457301"><ele>398.877777</ele><time>2022-09-16T05:07:54Z</time><name>322</name><sym>Flag, Blue</sym></wpt><wpt lat="33.987962" lon="71.457544"><ele>396.788635</ele><time>2022-09-16T05:09:38Z</time><name>323</name><sym>Flag, Blue</sym></wpt><wpt lat="33.988135" lon="71.457651"><ele>397.539795</ele><time>2022-09-16T05:10:03Z</time><name>324</name><sym>Flag, Blue</sym></wpt><wpt lat="33.988421" lon="71.457784"><ele>395.439117</ele><time>2022-09-16T05:10:41Z</time><name>325</name><sym>Flag, Blue</sym></wpt><wpt lat="33.987599" lon="71.457956"><ele>398.232086</ele><time>2022-09-16T05:16:06Z</time><name>326</name><sym>Flag, Blue</sym></wpt><wpt lat="33.987902" lon="71.458173"><ele>398.336243</ele><time>2022-09-16T05:17:18Z</time><name>327</name><sym>Flag, Blue</sym></wpt><wpt lat="33.988248" lon="71.458361"><ele>396.037048</ele><time>2022-09-16T05:18:19Z</time><name>328</name><sym>Flag, Blue</sym></wpt><wpt lat="33.988564" lon="71.458585"><ele>397.307648</ele><time>2022-09-16T05:24:20Z</time><name>329</name><sym>Flag, Blue</sym></wpt><wpt lat="33.988586" lon="71.458596"><ele>397.293304</ele><time>2022-09-16T05:24:26Z</time><name>330</name><sym>Flag, Blue</sym></wpt><wpt lat="33.988598" lon="71.458593"><ele>397.285889</ele><time>2022-09-16T05:24:28Z</time><name>331</name><sym>Flag, Blue</sym></wpt><wpt lat="33.988830" lon="71.458224"><ele>395.361816</ele><time>2022-09-16T05:27:39Z</time><name>332</name><sym>Flag, Blue</sym></wpt><wpt lat="33.989080" lon="71.458413"><ele>395.094666</ele><time>2022-09-16T05:28:52Z</time><name>333</name><sym>Flag, Blue</sym></wpt><wpt lat="33.989062" lon="71.458819"><ele>384.957275</ele><time>2022-09-16T05:48:22Z</time><name>334</name><sym>Flag, Blue</sym></wpt><wpt lat="33.989314" lon="71.459031"><ele>384.179993</ele><time>2022-09-16T05:49:20Z</time><name>335</name><sym>Flag, Blue</sym></wpt><wpt lat="33.990386" lon="71.457671"><ele>386.577087</ele><time>2022-09-16T05:55:25Z</time><name>336</name><sym>Flag, Blue</sym></wpt><wpt lat="33.990383" lon="71.457664"><ele>386.585205</ele><time>2022-09-16T05:55:29Z</time><name>337</name><sym>Flag, Blue</sym></wpt><wpt lat="33.990384" lon="71.457649"><ele>386.589966</ele><time>2022-09-16T05:55:32Z</time><name>338</name><sym>Flag, Blue</sym></wpt><wpt lat="33.990231" lon="71.458004"><ele>382.840546</ele><time>2022-09-16T05:59:46Z</time><name>339</name><sym>Flag, Blue</sym></wpt><wpt lat="33.990015" lon="71.458655"><ele>385.780304</ele><time>2022-09-16T06:02:31Z</time><name>340</name><sym>Flag, Blue</sym></wpt><wpt lat="33.989801" lon="71.459129"><ele>387.583557</ele><time>2022-09-16T06:04:13Z</time><name>341</name><sym>Flag, Blue</sym></wpt><wpt lat="33.989634" lon="71.459198"><ele>389.369141</ele><time>2022-09-16T06:07:59Z</time><name>342</name><sym>Flag, Blue</sym></wpt><wpt lat="33.989629" lon="71.459215"><ele>389.373871</ele><time>2022-09-16T06:08:02Z</time><name>343</name><sym>Flag, Blue</sym></wpt><wpt lat="33.989622" lon="71.459199"><ele>389.378601</ele><time>2022-09-16T06:08:05Z</time><name>344</name><sym>Flag, Blue</sym></wpt><wpt lat="33.989568" lon="71.459510"><ele>386.762268</ele><time>2022-09-16T06:09:01Z</time><name>345</name><sym>Flag, Blue</sym></wpt><wpt lat="33.989407" lon="71.459785"><ele>389.993652</ele><time>2022-09-16T06:09:55Z</time><name>346</name><sym>Flag, Blue</sym></wpt><wpt lat="33.989202" lon="71.459699"><ele>390.377014</ele><time>2022-09-16T06:10:30Z</time><name>347</name><sym>Flag, Blue</sym></wpt><wpt lat="33.989019" lon="71.459561"><ele>374.738312</ele><time>2022-09-16T06:13:14Z</time><name>348</name><sym>Flag, Blue</sym></wpt><wpt lat="33.988932" lon="71.459543"><ele>375.636597</ele><time>2022-09-16T06:13:52Z</time><name>349</name><sym>Flag, Blue</sym></wpt><wpt lat="33.988694" lon="71.459456"><ele>375.393219</ele><time>2022-09-16T06:14:36Z</time><name>350</name><sym>Flag, Blue</sym></wpt><wpt lat="33.988839" lon="71.459458"><ele>376.019226</ele><time>2022-09-16T06:15:11Z</time><name>351</name><sym>Flag, Blue</sym></wpt><wpt lat="33.988623" lon="71.459308"><ele>377.393890</ele><time>2022-09-16T06:15:49Z</time><name>352</name><sym>Flag, Blue</sym></wpt><wpt lat="33.988249" lon="71.459091"><ele>376.157593</ele><time>2022-09-16T06:16:41Z</time><name>353</name><sym>Flag, Blue</sym></wpt><wpt lat="33.988050" lon="71.458972"><ele>378.930847</ele><time>2022-09-16T06:17:29Z</time><name>354</name><sym>Flag, Blue</sym></wpt><wpt lat="33.988181" lon="71.458707"><ele>379.415161</ele><time>2022-09-16T06:18:01Z</time><name>355</name><sym>Flag, Blue</sym></wpt><wpt lat="33.987865" lon="71.458849"><ele>377.856659</ele><time>2022-09-16T06:19:00Z</time><name>356</name><sym>Flag, Blue</sym></wpt><wpt lat="33.988006" lon="71.458607"><ele>379.613403</ele><time>2022-09-16T06:19:54Z</time><name>357</name><sym>Flag, Blue</sym></wpt><wpt lat="33.987643" lon="71.458704"><ele>379.597351</ele><time>2022-09-16T06:20:56Z</time><name>358</name><sym>Flag, Blue</sym></wpt><wpt lat="33.987513" lon="71.458274"><ele>383.253540</ele><time>2022-09-16T06:29:25Z</time><name>359</name><sym>Flag, Blue</sym></wpt><wpt lat="33.987375" lon="71.458601"><ele>382.879913</ele><time>2022-09-16T06:30:39Z</time><name>360</name><sym>Flag, Blue</sym></wpt><wpt lat="33.987378" lon="71.458596"><ele>382.884064</ele><time>2022-09-16T06:30:41Z</time><name>361</name><sym>Flag, Blue</sym></wpt><wpt lat="33.987385" lon="71.458585"><ele>382.890045</ele><time>2022-09-16T06:30:44Z</time><name>362</name><sym>Flag, Blue</sym></wpt><wpt lat="33.987289" lon="71.458857"><ele>380.764130</ele><time>2022-09-16T06:31:56Z</time><name>363</name><sym>Flag, Blue</sym></wpt><wpt lat="33.987534" lon="71.458992"><ele>386.608490</ele><time>2022-09-16T06:40:34Z</time><name>364</name><sym>Flag, Blue</sym></wpt><wpt lat="33.987043" lon="71.459422"><ele>380.042267</ele><time>2022-09-16T06:51:43Z</time><name>365</name><sym>Flag, Blue</sym></wpt><wpt lat="33.987414" lon="71.459163"><ele>381.109253</ele><time>2022-09-16T06:52:46Z</time><name>366</name><sym>Flag, Blue</sym></wpt><wpt lat="33.987617" lon="71.459211"><ele>382.482635</ele><time>2022-09-16T06:53:08Z</time><name>367</name><sym>Flag, Blue</sym></wpt><wpt lat="33.987854" lon="71.459281"><ele>382.069031</ele><time>2022-09-16T06:53:30Z</time><name>368</name><sym>Flag, Blue</sym></wpt><wpt lat="33.988070" lon="71.459381"><ele>382.838898</ele><time>2022-09-16T06:53:44Z</time><name>369</name><sym>Flag, Blue</sym></wpt><wpt lat="33.988246" lon="71.459378"><ele>382.917694</ele><time>2022-09-16T06:53:55Z</time><name>370</name><sym>Flag, Blue</sym></wpt><wpt lat="33.988432" lon="71.459438"><ele>382.761871</ele><time>2022-09-16T06:54:06Z</time><name>371</name><sym>Flag, Blue</sym></wpt></gpx>