<?xml version="1.0" encoding="UTF-8" standalone="no" ?><gpx xmlns="http://www.topografix.com/GPX/1/1" xmlns:gpxx="http://www.garmin.com/xmlschemas/GpxExtensions/v3" xmlns:wptx1="http://www.garmin.com/xmlschemas/WaypointExtension/v1" xmlns:gpxtpx="http://www.garmin.com/xmlschemas/TrackPointExtension/v1" creator="GPSMAP 64s" version="1.1" xmlns:xsi="http://www.w3.org/2001/XMLSchema-instance" xsi:schemaLocation="http://www.topografix.com/GPX/1/1 http://www.topografix.com/GPX/1/1/gpx.xsd http://www.garmin.com/xmlschemas/GpxExtensions/v3 http://www8.garmin.com/xmlschemas/GpxExtensionsv3.xsd http://www.garmin.com/xmlschemas/TrackStatsExtension/v1 http://www8.garmin.com/xmlschemas/TrackStatsExtension.xsd http://www.garmin.com/xmlschemas/WaypointExtension/v1 http://www8.garmin.com/xmlschemas/WaypointExtensionv1.xsd http://www.garmin.com/xmlschemas/TrackPointExtension/v1 http://www.garmin.com/xmlschemas/TrackPointExtensionv1.xsd"><metadata><link href="http://www.garmin.com"><text>Garmin International</text></link><time>2025-08-22T06:44:30Z</time></metadata><wpt lat="30.175984" lon="67.016840"><ele>1709.777344</ele><time>2025-08-22T06:44:30Z</time><name>417</name><sym>Flag, Blue</sym></wpt><wpt lat="30.176405" lon="67.016565"><ele>1709.294312</ele><time>2025-08-22T06:45:22Z</time><name>418</name><sym>Flag, Blue</sym></wpt><wpt lat="30.176389" lon="67.016576"><ele>1709.359497</ele><time>2025-08-22T06:45:27Z</time><name>419</name><sym>Flag, Blue</sym></wpt><wpt lat="30.176590" lon="67.016354"><ele>1710.479614</ele><time>2025-08-22T06:47:06Z</time><name>420</name><sym>Flag, Blue</sym></wpt><wpt lat="30.176840" lon="67.016152"><ele>1710.294189</ele><time>2025-08-22T06:47:26Z</time><name>421</name><sym>Flag, Blue</sym></wpt><wpt lat="30.176493" lon="67.015417"><ele>1711.902100</ele><time>2025-08-22T06:51:42Z</time><name>422</name><sym>Flag, Blue</sym></wpt><wpt lat="30.176141" lon="67.015902"><ele>1712.582275</ele><time>2025-08-22T06:56:59Z</time><name>423</name><sym>Flag, Blue</sym></wpt><wpt lat="30.176143" lon="67.015922"><ele>1712.510376</ele><time>2025-08-22T06:57:05Z</time><name>424</name><sym>Flag, Blue</sym></wpt><wpt lat="30.176485" lon="67.014895"><ele>1710.527344</ele><time>2025-08-22T07:06:30Z</time><name>425</name><sym>Flag, Blue</sym></wpt><wpt lat="30.176465" lon="67.014857"><ele>1710.929688</ele><time>2025-08-22T07:06:39Z</time><name>426</name><sym>Flag, Blue</sym></wpt><wpt lat="30.176715" lon="67.014688"><ele>1710.213013</ele><time>2025-08-22T07:09:27Z</time><name>427</name><sym>Flag, Blue</sym></wpt><wpt lat="30.176718" lon="67.014680"><ele>1710.609375</ele><time>2025-08-22T07:09:34Z</time><name>428</name><sym>Flag, Blue</sym></wpt><wpt lat="30.176612" lon="67.014417"><ele>1707.969116</ele><time>2025-08-22T07:14:27Z</time><name>429</name><sym>Flag, Blue</sym></wpt><wpt lat="30.176473" lon="67.013837"><ele>1707.699341</ele><time>2025-08-22T07:15:45Z</time><name>430</name><sym>Flag, Blue</sym></wpt><wpt lat="30.176449" lon="67.013823"><ele>1707.639282</ele><time>2025-08-22T07:15:53Z</time><name>431</name><sym>Flag, Blue</sym></wpt><wpt lat="30.175663" lon="67.017015"><ele>1716.825928</ele><time>2025-08-22T07:20:57Z</time><name>432</name><sym>Flag, Blue</sym></wpt><wpt lat="30.175660" lon="67.017020"><ele>1716.921875</ele><time>2025-08-22T07:21:04Z</time><name>433</name><sym>Flag, Blue</sym></wpt><wpt lat="30.175425" lon="67.017229"><ele>1717.551270</ele><time>2025-08-22T07:23:30Z</time><name>434</name><sym>Flag, Blue</sym></wpt><wpt lat="30.175143" lon="67.017432"><ele>1718.653564</ele><time>2025-08-22T07:24:17Z</time><name>435</name><sym>Flag, Blue</sym></wpt><wpt lat="30.175139" lon="67.017423"><ele>1719.366089</ele><time>2025-08-22T07:24:24Z</time><name>436</name><sym>Flag, Blue</sym></wpt><wpt lat="30.175111" lon="67.017448"><ele>1719.779297</ele><time>2025-08-22T07:24:34Z</time><name>437</name><sym>Flag, Blue</sym></wpt><wpt lat="30.174742" lon="67.017740"><ele>1721.989502</ele><time>2025-08-22T07:26:58Z</time><name>438</name><sym>Flag, Blue</sym></wpt><wpt lat="30.174712" lon="67.017754"><ele>1722.214355</ele><time>2025-08-22T07:27:06Z</time><name>439</name><sym>Flag, Blue</sym></wpt><wpt lat="30.174689" lon="67.017786"><ele>1722.091919</ele><time>2025-08-22T07:27:16Z</time><name>440</name><sym>Flag, Blue</sym></wpt><wpt lat="30.174509" lon="67.017991"><ele>1722.218872</ele><time>2025-08-22T07:28:48Z</time><name>441</name><sym>Flag, Blue</sym></wpt><wpt lat="30.174264" lon="67.018194"><ele>1722.932129</ele><time>2025-08-22T07:29:01Z</time><name>442</name><sym>Flag, Blue</sym></wpt><wpt lat="30.174076" lon="67.018400"><ele>1723.249268</ele><time>2025-08-22T07:29:49Z</time><name>443</name><sym>Flag, Blue</sym></wpt><wpt lat="30.174072" lon="67.018429"><ele>1723.910889</ele><time>2025-08-22T07:29:57Z</time><name>444</name><sym>Flag, Blue</sym></wpt><wpt lat="30.173924" lon="67.018622"><ele>1724.989014</ele><time>2025-08-22T07:31:13Z</time><name>445</name><sym>Flag, Blue</sym></wpt><wpt lat="30.173879" lon="67.018609"><ele>1725.448364</ele><time>2025-08-22T07:31:20Z</time><name>446</name><sym>Flag, Blue</sym></wpt><wpt lat="30.173723" lon="67.018809"><ele>1726.469727</ele><time>2025-08-22T07:33:07Z</time><name>447</name><sym>Flag, Blue</sym></wpt><wpt lat="30.173555" lon="67.019089"><ele>1727.355347</ele><time>2025-08-22T07:33:32Z</time><name>448</name><sym>Flag, Blue</sym></wpt><wpt lat="30.173376" lon="67.019324"><ele>1728.306396</ele><time>2025-08-22T07:33:49Z</time><name>449</name><sym>Flag, Blue</sym></wpt><wpt lat="30.173173" lon="67.019634"><ele>1730.003174</ele><time>2025-08-22T07:34:24Z</time><name>450</name><sym>Flag, Blue</sym></wpt><wpt lat="30.172910" lon="67.020026"><ele>1731.104004</ele><time>2025-08-22T07:35:16Z</time><name>451</name><sym>Flag, Blue</sym></wpt><wpt lat="30.172921" lon="67.020008"><ele>1731.039307</ele><time>2025-08-22T07:35:23Z</time><name>452</name><sym>Flag, Blue</sym></wpt><wpt lat="30.172898" lon="67.020071"><ele>1731.403809</ele><time>2025-08-22T07:35:32Z</time><name>453</name><sym>Flag, Blue</sym></wpt><wpt lat="30.172738" lon="67.020394"><ele>1731.996826</ele><time>2025-08-22T07:41:18Z</time><name>454</name><sym>Flag, Blue</sym></wpt><wpt lat="30.172585" lon="67.020588"><ele>1732.621338</ele><time>2025-08-22T07:41:29Z</time><name>455</name><sym>Flag, Blue</sym></wpt><wpt lat="30.172274" lon="67.021001"><ele>1733.528809</ele><time>2025-08-22T07:42:14Z</time><name>456</name><sym>Flag, Blue</sym></wpt><wpt lat="30.172150" lon="67.020826"><ele>1734.840454</ele><time>2025-08-22T07:43:28Z</time><name>457</name><sym>Flag, Blue</sym></wpt><wpt lat="30.171924" lon="67.020559"><ele>1734.591553</ele><time>2025-08-22T07:44:19Z</time><name>458</name><sym>Flag, Blue</sym></wpt><wpt lat="30.171779" lon="67.020390"><ele>1734.147095</ele><time>2025-08-22T07:44:34Z</time><name>459</name><sym>Flag, Blue</sym></wpt><wpt lat="30.171689" lon="67.020221"><ele>1734.414673</ele><time>2025-08-22T07:44:45Z</time><name>460</name><sym>Flag, Blue</sym></wpt><wpt lat="30.171541" lon="67.019992"><ele>1734.831543</ele><time>2025-08-22T07:45:43Z</time><name>461</name><sym>Flag, Blue</sym></wpt><wpt lat="30.171542" lon="67.019985"><ele>1734.278320</ele><time>2025-08-22T07:45:55Z</time><name>462</name><sym>Flag, Blue</sym></wpt><wpt lat="30.172066" lon="67.021173"><ele>1738.592041</ele><time>2025-08-22T07:54:30Z</time><name>463</name><sym>Flag, Blue</sym></wpt><wpt lat="30.172082" lon="67.021178"><ele>1737.878296</ele><time>2025-08-22T07:54:37Z</time><name>464</name><sym>Flag, Blue</sym></wpt><wpt lat="30.172006" lon="67.021274"><ele>1738.775879</ele><time>2025-08-22T07:54:54Z</time><name>465</name><sym>Flag, Blue</sym></wpt><wpt lat="30.171517" lon="67.021861"><ele>1740.544189</ele><time>2025-08-22T07:58:07Z</time><name>466</name><sym>Flag, Blue</sym></wpt><wpt lat="30.171213" lon="67.022112"><ele>1742.166992</ele><time>2025-08-22T08:00:01Z</time><name>467</name><sym>Flag, Blue</sym></wpt><wpt lat="30.171187" lon="67.022111"><ele>1742.647583</ele><time>2025-08-22T08:00:09Z</time><name>468</name><sym>Flag, Blue</sym></wpt><wpt lat="30.171000" lon="67.022304"><ele>1743.807739</ele><time>2025-08-22T08:00:41Z</time><name>469</name><sym>Flag, Blue</sym></wpt><wpt lat="30.170975" lon="67.022281"><ele>1744.043335</ele><time>2025-08-22T08:00:47Z</time><name>470</name><sym>Flag, Blue</sym></wpt><wpt lat="30.170751" lon="67.022600"><ele>1745.699097</ele><time>2025-08-22T08:03:52Z</time><name>471</name><sym>Flag, Blue</sym></wpt><wpt lat="30.170505" lon="67.022834"><ele>1746.879028</ele><time>2025-08-22T08:04:08Z</time><name>472</name><sym>Flag, Blue</sym></wpt><wpt lat="30.170156" lon="67.023102"><ele>1748.428345</ele><time>2025-08-22T08:04:37Z</time><name>473</name><sym>Flag, Blue</sym></wpt><wpt lat="30.170136" lon="67.023104"><ele>1748.624634</ele><time>2025-08-22T08:04:45Z</time><name>474</name><sym>Flag, Blue</sym></wpt><wpt lat="30.169899" lon="67.023369"><ele>1749.687744</ele><time>2025-08-22T08:07:01Z</time><name>475</name><sym>Flag, Blue</sym></wpt><wpt lat="30.169590" lon="67.023629"><ele>1751.184204</ele><time>2025-08-22T08:07:26Z</time><name>476</name><sym>Flag, Blue</sym></wpt><wpt lat="30.169350" lon="67.023821"><ele>1751.479248</ele><time>2025-08-22T08:07:51Z</time><name>477</name><sym>Flag, Blue</sym></wpt><wpt lat="30.169342" lon="67.023817"><ele>1751.606079</ele><time>2025-08-22T08:08:01Z</time><name>478</name><sym>Flag, Blue</sym></wpt><wpt lat="30.168995" lon="67.024003"><ele>1753.980835</ele><time>2025-08-22T08:10:25Z</time><name>479</name><sym>Flag, Blue</sym></wpt><wpt lat="30.168859" lon="67.023981"><ele>1754.699341</ele><time>2025-08-22T08:10:55Z</time><name>480</name><sym>Flag, Blue</sym></wpt><wpt lat="30.168884" lon="67.023456"><ele>1754.557129</ele><time>2025-08-22T08:12:20Z</time><name>481</name><sym>Flag, Blue</sym></wpt><wpt lat="30.168694" lon="67.023414"><ele>1754.227295</ele><time>2025-08-22T08:12:30Z</time><name>482</name><sym>Flag, Blue</sym></wpt><wpt lat="30.168444" lon="67.023483"><ele>1755.698608</ele><time>2025-08-22T08:13:16Z</time><name>483</name><sym>Flag, Blue</sym></wpt><wpt lat="30.168446" lon="67.023493"><ele>1755.591919</ele><time>2025-08-22T08:13:23Z</time><name>484</name><sym>Flag, Blue</sym></wpt><wpt lat="30.168631" lon="67.023971"><ele>1755.392212</ele><time>2025-08-22T08:16:24Z</time><name>485</name><sym>Flag, Blue</sym></wpt><wpt lat="30.168622" lon="67.023977"><ele>1755.386719</ele><time>2025-08-22T08:16:27Z</time><name>486</name><sym>Flag, Blue</sym></wpt><wpt lat="30.168304" lon="67.024041"><ele>1756.838013</ele><time>2025-08-22T08:17:20Z</time><name>487</name><sym>Flag, Blue</sym></wpt><wpt lat="30.168287" lon="67.024042"><ele>1757.223389</ele><time>2025-08-22T08:17:26Z</time><name>488</name><sym>Flag, Blue</sym></wpt><wpt lat="30.167930" lon="67.024169"><ele>1759.705566</ele><time>2025-08-22T08:21:50Z</time><name>489</name><sym>Flag, Blue</sym></wpt><wpt lat="30.167903" lon="67.024192"><ele>1759.818237</ele><time>2025-08-22T08:21:57Z</time><name>490</name><sym>Flag, Blue</sym></wpt><wpt lat="30.168015" lon="67.024621"><ele>1762.722656</ele><time>2025-08-22T08:37:44Z</time><name>491</name><sym>Flag, Blue</sym></wpt><wpt lat="30.168154" lon="67.025150"><ele>1763.813843</ele><time>2025-08-22T08:38:13Z</time><name>492</name><sym>Flag, Blue</sym></wpt><wpt lat="30.168073" lon="67.025218"><ele>1763.971313</ele><time>2025-08-22T08:39:21Z</time><name>493</name><sym>Flag, Blue</sym></wpt><wpt lat="30.167941" lon="67.025313"><ele>1764.385620</ele><time>2025-08-22T08:39:36Z</time><name>494</name><sym>Flag, Blue</sym></wpt><wpt lat="30.167907" lon="67.025315"><ele>1764.948853</ele><time>2025-08-22T08:39:51Z</time><name>495</name><sym>Flag, Blue</sym></wpt><wpt lat="30.168245" lon="67.025307"><ele>1765.613647</ele><time>2025-08-22T08:42:32Z</time><name>496</name><sym>Flag, Blue</sym></wpt><wpt lat="30.168313" lon="67.025648"><ele>1766.107178</ele><time>2025-08-22T08:43:10Z</time><name>497</name><sym>Flag, Blue</sym></wpt><wpt lat="30.168335" lon="67.025671"><ele>1766.510010</ele><time>2025-08-22T08:43:19Z</time><name>498</name><sym>Flag, Blue</sym></wpt><wpt lat="30.168612" lon="67.025912"><ele>1767.826294</ele><time>2025-08-22T08:44:14Z</time><name>499</name><sym>Flag, Blue</sym></wpt><wpt lat="30.168927" lon="67.026089"><ele>1769.947144</ele><time>2025-08-22T08:44:38Z</time><name>500</name><sym>Flag, Blue</sym></wpt><wpt lat="30.168903" lon="67.026090"><ele>1770.205200</ele><time>2025-08-22T08:44:45Z</time><name>501</name><sym>Flag, Blue</sym></wpt><wpt lat="30.167539" lon="67.024325"><ele>1767.994019</ele><time>2025-08-22T08:49:11Z</time><name>502</name><sym>Flag, Blue</sym></wpt><wpt lat="30.167272" lon="67.024399"><ele>1769.571289</ele><time>2025-08-22T08:49:32Z</time><name>503</name><sym>Flag, Blue</sym></wpt><wpt lat="30.167153" lon="67.024027"><ele>1769.598877</ele><time>2025-08-22T08:51:07Z</time><name>504</name><sym>Flag, Blue</sym></wpt><wpt lat="30.167164" lon="67.024027"><ele>1770.042480</ele><time>2025-08-22T08:51:14Z</time><name>505</name><sym>Flag, Blue</sym></wpt><wpt lat="30.167152" lon="67.024384"><ele>1770.188110</ele><time>2025-08-22T08:52:43Z</time><name>506</name><sym>Flag, Blue</sym></wpt><wpt lat="30.167137" lon="67.024415"><ele>1770.406250</ele><time>2025-08-22T08:52:50Z</time><name>507</name><sym>Flag, Blue</sym></wpt><wpt lat="30.166855" lon="67.024517"><ele>1773.304199</ele><time>2025-08-22T08:57:12Z</time><name>508</name><sym>Flag, Blue</sym></wpt><wpt lat="30.166641" lon="67.024543"><ele>1774.454834</ele><time>2025-08-22T08:57:29Z</time><name>509</name><sym>Flag, Blue</sym></wpt><wpt lat="30.166414" lon="67.024634"><ele>1776.515747</ele><time>2025-08-22T08:57:41Z</time><name>510</name><sym>Flag, Blue</sym></wpt><wpt lat="30.166055" lon="67.024759"><ele>1777.828613</ele><time>2025-08-22T08:58:32Z</time><name>511</name><sym>Flag, Blue</sym></wpt><wpt lat="30.166043" lon="67.024763"><ele>1778.079468</ele><time>2025-08-22T08:58:39Z</time><name>512</name><sym>Flag, Blue</sym></wpt><wpt lat="30.165596" lon="67.024902"><ele>1780.924683</ele><time>2025-08-22T08:59:57Z</time><name>513</name><sym>Flag, Blue</sym></wpt><wpt lat="30.165174" lon="67.025082"><ele>1782.691040</ele><time>2025-08-22T09:00:32Z</time><name>514</name><sym>Flag, Blue</sym></wpt><wpt lat="30.165177" lon="67.025095"><ele>1782.780884</ele><time>2025-08-22T09:00:41Z</time><name>515</name><sym>Flag, Blue</sym></wpt><wpt lat="30.164925" lon="67.025217"><ele>1785.241699</ele><time>2025-08-22T09:01:59Z</time><name>516</name><sym>Flag, Blue</sym></wpt><wpt lat="30.164726" lon="67.025282"><ele>1786.376221</ele><time>2025-08-22T09:02:21Z</time><name>517</name><sym>Flag, Blue</sym></wpt><wpt lat="30.164225" lon="67.025476"><ele>1789.199707</ele><time>2025-08-22T09:03:06Z</time><name>518</name><sym>Flag, Blue</sym></wpt><wpt lat="30.164216" lon="67.025502"><ele>1788.983887</ele><time>2025-08-22T09:03:14Z</time><name>519</name><sym>Flag, Blue</sym></wpt><wpt lat="30.163770" lon="67.025650"><ele>1792.269897</ele><time>2025-08-22T09:05:30Z</time><name>520</name><sym>Flag, Blue</sym></wpt><wpt lat="30.163754" lon="67.025676"><ele>1792.424438</ele><time>2025-08-22T09:05:40Z</time><name>521</name><sym>Flag, Blue</sym></wpt><wpt lat="30.163275" lon="67.025916"><ele>1795.267578</ele><time>2025-08-22T09:07:02Z</time><name>522</name><sym>Flag, Blue</sym></wpt><wpt lat="30.162947" lon="67.026329"><ele>1796.305664</ele><time>2025-08-22T09:07:36Z</time><name>523</name><sym>Flag, Blue</sym></wpt><wpt lat="30.162948" lon="67.026301"><ele>1796.709595</ele><time>2025-08-22T09:07:46Z</time><name>524</name><sym>Flag, Blue</sym></wpt><wpt lat="30.162688" lon="67.026721"><ele>1797.163330</ele><time>2025-08-22T09:11:00Z</time><name>525</name><sym>Flag, Blue</sym></wpt><wpt lat="30.162629" lon="67.026864"><ele>1798.233398</ele><time>2025-08-22T09:11:28Z</time><name>526</name><sym>Flag, Blue</sym></wpt><wpt lat="30.162649" lon="67.026836"><ele>1798.207153</ele><time>2025-08-22T09:11:35Z</time><name>527</name><sym>Flag, Blue</sym></wpt><wpt lat="30.162533" lon="67.027018"><ele>1798.947754</ele><time>2025-08-22T09:13:28Z</time><name>528</name><sym>Flag, Blue</sym></wpt><wpt lat="30.162337" lon="67.027391"><ele>1801.272583</ele><time>2025-08-22T09:13:44Z</time><name>529</name><sym>Flag, Blue</sym></wpt><wpt lat="30.162179" lon="67.027974"><ele>1802.975586</ele><time>2025-08-22T09:14:19Z</time><name>530</name><sym>Flag, Blue</sym></wpt><wpt lat="30.162307" lon="67.028106"><ele>1804.394165</ele><time>2025-08-22T09:15:26Z</time><name>531</name><sym>Flag, Blue</sym></wpt><wpt lat="30.162309" lon="67.028094"><ele>1804.858887</ele><time>2025-08-22T09:15:33Z</time><name>532</name><sym>Flag, Blue</sym></wpt></gpx>