<?xml version="1.0" encoding="UTF-8" standalone="no" ?><gpx xmlns="http://www.topografix.com/GPX/1/1" xmlns:gpxx="http://www.garmin.com/xmlschemas/GpxExtensions/v3" xmlns:wptx1="http://www.garmin.com/xmlschemas/WaypointExtension/v1" xmlns:gpxtpx="http://www.garmin.com/xmlschemas/TrackPointExtension/v1" creator="GPSMAP 64s" version="1.1" xmlns:xsi="http://www.w3.org/2001/XMLSchema-instance" xsi:schemaLocation="http://www.topografix.com/GPX/1/1 http://www.topografix.com/GPX/1/1/gpx.xsd http://www.garmin.com/xmlschemas/GpxExtensions/v3 http://www8.garmin.com/xmlschemas/GpxExtensionsv3.xsd http://www.garmin.com/xmlschemas/TrackStatsExtension/v1 http://www8.garmin.com/xmlschemas/TrackStatsExtension.xsd http://www.garmin.com/xmlschemas/WaypointExtension/v1 http://www8.garmin.com/xmlschemas/WaypointExtensionv1.xsd http://www.garmin.com/xmlschemas/TrackPointExtension/v1 http://www.garmin.com/xmlschemas/TrackPointExtensionv1.xsd"><metadata><link href="http://www.garmin.com"><text>Garmin International</text></link><time>2025-08-19T06:36:11Z</time></metadata><wpt lat="30.151827" lon="66.981549"><ele>1682.317749</ele><time>2025-08-19T06:36:11Z</time><name>001</name><sym>Flag, Blue</sym></wpt><wpt lat="30.151708" lon="66.981788"><ele>1683.929321</ele><time>2025-08-19T06:40:37Z</time><name>002</name><sym>Flag, Blue</sym></wpt><wpt lat="30.151940" lon="66.982027"><ele>1685.983398</ele><time>2025-08-19T06:50:39Z</time><name>003</name><sym>Flag, Blue</sym></wpt><wpt lat="30.151681" lon="66.982430"><ele>1686.550171</ele><time>2025-08-19T06:53:03Z</time><name>004</name><sym>Flag, Blue</sym></wpt><wpt lat="30.151385" lon="66.982811"><ele>1687.496094</ele><time>2025-08-19T06:53:45Z</time><name>005</name><sym>Flag, Blue</sym></wpt><wpt lat="30.151275" lon="66.983302"><ele>1688.114990</ele><time>2025-08-19T06:54:33Z</time><name>006</name><sym>Flag, Blue</sym></wpt><wpt lat="30.151387" lon="66.983889"><ele>1689.490845</ele><time>2025-08-19T06:56:34Z</time><name>007</name><sym>Flag, Blue</sym></wpt><wpt lat="30.151248" lon="66.984386"><ele>1690.223755</ele><time>2025-08-19T06:56:52Z</time><name>008</name><sym>Flag, Blue</sym></wpt><wpt lat="30.151120" lon="66.984921"><ele>1690.952148</ele><time>2025-08-19T06:57:09Z</time><name>009</name><sym>Flag, Blue</sym></wpt><wpt lat="30.150952" lon="66.985493"><ele>1691.741333</ele><time>2025-08-19T06:57:25Z</time><name>010</name><sym>Flag, Blue</sym></wpt><wpt lat="30.150770" lon="66.985948"><ele>1692.370239</ele><time>2025-08-19T06:57:41Z</time><name>011</name><sym>Flag, Blue</sym></wpt><wpt lat="30.150582" lon="66.986433"><ele>1693.929321</ele><time>2025-08-19T06:58:16Z</time><name>012</name><sym>Flag, Blue</sym></wpt><wpt lat="30.150365" lon="66.986702"><ele>1693.694214</ele><time>2025-08-19T06:59:48Z</time><name>013</name><sym>Flag, Blue</sym></wpt><wpt lat="30.149843" lon="66.986530"><ele>1694.336182</ele><time>2025-08-19T07:01:57Z</time><name>014</name><sym>Flag, Blue</sym></wpt><wpt lat="30.150933" lon="66.986968"><ele>1693.860718</ele><time>2025-08-19T07:03:31Z</time><name>015</name><sym>Flag, Blue</sym></wpt><wpt lat="30.151488" lon="66.987175"><ele>1693.830566</ele><time>2025-08-19T07:03:49Z</time><name>016</name><sym>Flag, Blue</sym></wpt><wpt lat="30.151950" lon="66.987347"><ele>1692.836304</ele><time>2025-08-19T07:04:12Z</time><name>017</name><sym>Flag, Blue</sym></wpt><wpt lat="30.152267" lon="66.987472"><ele>1693.676758</ele><time>2025-08-19T07:04:40Z</time><name>018</name><sym>Flag, Blue</sym></wpt><wpt lat="30.152778" lon="66.987701"><ele>1693.752075</ele><time>2025-08-19T07:05:10Z</time><name>019</name><sym>Flag, Blue</sym></wpt><wpt lat="30.153274" lon="66.987900"><ele>1693.492432</ele><time>2025-08-19T07:05:41Z</time><name>020</name><sym>Flag, Blue</sym></wpt><wpt lat="30.153703" lon="66.988083"><ele>1693.754761</ele><time>2025-08-19T07:06:08Z</time><name>021</name><sym>Flag, Blue</sym></wpt><wpt lat="30.154273" lon="66.988318"><ele>1694.048218</ele><time>2025-08-19T07:06:42Z</time><name>022</name><sym>Flag, Blue</sym></wpt><wpt lat="30.154649" lon="66.988479"><ele>1694.083374</ele><time>2025-08-19T07:07:09Z</time><name>023</name><sym>Flag, Blue</sym></wpt><wpt lat="30.155152" lon="66.988678"><ele>1694.422485</ele><time>2025-08-19T07:07:40Z</time><name>024</name><sym>Flag, Blue</sym></wpt><wpt lat="30.155451" lon="66.988819"><ele>1694.479858</ele><time>2025-08-19T07:08:03Z</time><name>025</name><sym>Flag, Blue</sym></wpt><wpt lat="30.155760" lon="66.988895"><ele>1693.990723</ele><time>2025-08-19T07:08:17Z</time><name>026</name><sym>Flag, Blue</sym></wpt><wpt lat="30.156266" lon="66.989151"><ele>1693.612671</ele><time>2025-08-19T07:08:46Z</time><name>027</name><sym>Flag, Blue</sym></wpt><wpt lat="30.156723" lon="66.989339"><ele>1693.547852</ele><time>2025-08-19T07:09:04Z</time><name>028</name><sym>Flag, Blue</sym></wpt><wpt lat="30.157142" lon="66.989521"><ele>1693.527222</ele><time>2025-08-19T07:09:29Z</time><name>029</name><sym>Flag, Blue</sym></wpt><wpt lat="30.157605" lon="66.989705"><ele>1692.893921</ele><time>2025-08-19T07:10:00Z</time><name>030</name><sym>Flag, Blue</sym></wpt><wpt lat="30.158075" lon="66.989918"><ele>1692.403198</ele><time>2025-08-19T07:10:39Z</time><name>031</name><sym>Flag, Blue</sym></wpt><wpt lat="30.158502" lon="66.990116"><ele>1692.735596</ele><time>2025-08-19T07:11:05Z</time><name>032</name><sym>Flag, Blue</sym></wpt><wpt lat="30.158863" lon="66.990257"><ele>1692.285278</ele><time>2025-08-19T07:11:33Z</time><name>033</name><sym>Flag, Blue</sym></wpt><wpt lat="30.159344" lon="66.990423"><ele>1692.068481</ele><time>2025-08-19T07:12:01Z</time><name>034</name><sym>Flag, Blue</sym></wpt><wpt lat="30.159881" lon="66.990691"><ele>1692.223267</ele><time>2025-08-19T07:12:29Z</time><name>035</name><sym>Flag, Blue</sym></wpt><wpt lat="30.160457" lon="66.990987"><ele>1690.080688</ele><time>2025-08-19T07:13:01Z</time><name>036</name><sym>Flag, Blue</sym></wpt><wpt lat="30.161180" lon="66.991279"><ele>1693.867920</ele><time>2025-08-19T07:14:51Z</time><name>037</name><sym>Flag, Blue</sym></wpt><wpt lat="30.161535" lon="66.991076"><ele>1693.128052</ele><time>2025-08-19T07:19:16Z</time><name>038</name><sym>Flag, Blue</sym></wpt><wpt lat="30.162039" lon="66.991234"><ele>1690.529419</ele><time>2025-08-19T07:20:20Z</time><name>039</name><sym>Flag, Blue</sym></wpt><wpt lat="30.162373" lon="66.991380"><ele>1690.764893</ele><time>2025-08-19T07:20:52Z</time><name>040</name><sym>Flag, Blue</sym></wpt><wpt lat="30.162717" lon="66.991532"><ele>1691.451172</ele><time>2025-08-19T07:21:28Z</time><name>041</name><sym>Flag, Blue</sym></wpt><wpt lat="30.163073" lon="66.991681"><ele>1691.414917</ele><time>2025-08-19T07:22:08Z</time><name>042</name><sym>Flag, Blue</sym></wpt><wpt lat="30.163357" lon="66.991814"><ele>1691.573853</ele><time>2025-08-19T07:22:40Z</time><name>043</name><sym>Flag, Blue</sym></wpt><wpt lat="30.163608" lon="66.991918"><ele>1691.560913</ele><time>2025-08-19T07:23:07Z</time><name>044</name><sym>Flag, Blue</sym></wpt><wpt lat="30.163874" lon="66.992019"><ele>1690.567749</ele><time>2025-08-19T07:23:32Z</time><name>045</name><sym>Flag, Blue</sym></wpt><wpt lat="30.164338" lon="66.992230"><ele>1692.997437</ele><time>2025-08-19T07:24:26Z</time><name>046</name><sym>Flag, Blue</sym></wpt><wpt lat="30.164448" lon="66.992275"><ele>1692.448853</ele><time>2025-08-19T07:24:40Z</time><name>047</name><sym>Flag, Blue</sym></wpt><wpt lat="30.164305" lon="66.992635"><ele>1692.851440</ele><time>2025-08-19T07:31:43Z</time><name>048</name><sym>Flag, Blue</sym></wpt><wpt lat="30.164746" lon="66.992923"><ele>1692.983276</ele><time>2025-08-19T07:32:24Z</time><name>049</name><sym>Flag, Blue</sym></wpt><wpt lat="30.165056" lon="66.993156"><ele>1692.940674</ele><time>2025-08-19T07:33:12Z</time><name>050</name><sym>Flag, Blue</sym></wpt><wpt lat="30.165390" lon="66.993283"><ele>1693.859985</ele><time>2025-08-19T07:34:16Z</time><name>051</name><sym>Flag, Blue</sym></wpt><wpt lat="30.165704" lon="66.993425"><ele>1694.268188</ele><time>2025-08-19T07:34:49Z</time><name>052</name><sym>Flag, Blue</sym></wpt><wpt lat="30.166183" lon="66.993605"><ele>1694.674805</ele><time>2025-08-19T07:35:23Z</time><name>053</name><sym>Flag, Blue</sym></wpt><wpt lat="30.166688" lon="66.993847"><ele>1695.425659</ele><time>2025-08-19T07:35:56Z</time><name>054</name><sym>Flag, Blue</sym></wpt><wpt lat="30.167005" lon="66.993980"><ele>1695.250977</ele><time>2025-08-19T07:36:36Z</time><name>055</name><sym>Flag, Blue</sym></wpt><wpt lat="30.167336" lon="66.994092"><ele>1696.031860</ele><time>2025-08-19T07:37:26Z</time><name>056</name><sym>Flag, Blue</sym></wpt><wpt lat="30.167224" lon="66.994367"><ele>1695.359009</ele><time>2025-08-19T07:39:20Z</time><name>057</name><sym>Flag, Blue</sym></wpt><wpt lat="30.167066" lon="66.994655"><ele>1696.068604</ele><time>2025-08-19T07:39:50Z</time><name>058</name><sym>Flag, Blue</sym></wpt><wpt lat="30.166994" lon="66.995018"><ele>1696.045776</ele><time>2025-08-19T07:40:23Z</time><name>059</name><sym>Flag, Blue</sym></wpt><wpt lat="30.166933" lon="66.995343"><ele>1696.317261</ele><time>2025-08-19T07:40:50Z</time><name>060</name><sym>Flag, Blue</sym></wpt><wpt lat="30.167208" lon="66.995547"><ele>1698.307007</ele><time>2025-08-19T07:53:14Z</time><name>061</name><sym>Flag, Blue</sym></wpt><wpt lat="30.167432" lon="66.995737"><ele>1698.206055</ele><time>2025-08-19T07:53:45Z</time><name>062</name><sym>Flag, Blue</sym></wpt><wpt lat="30.167438" lon="66.995718"><ele>1698.280151</ele><time>2025-08-19T07:54:33Z</time><name>063</name><sym>Flag, Blue</sym></wpt><wpt lat="30.167560" lon="66.995382"><ele>1697.575684</ele><time>2025-08-19T07:55:06Z</time><name>064</name><sym>Flag, Blue</sym></wpt><wpt lat="30.167725" lon="66.995124"><ele>1697.108521</ele><time>2025-08-19T07:55:30Z</time><name>065</name><sym>Flag, Blue</sym></wpt><wpt lat="30.167715" lon="66.995133"><ele>1697.425903</ele><time>2025-08-19T07:55:37Z</time><name>066</name><sym>Flag, Blue</sym></wpt><wpt lat="30.167426" lon="66.995940"><ele>1700.327881</ele><time>2025-08-19T08:00:48Z</time><name>067</name><sym>Flag, Blue</sym></wpt><wpt lat="30.167407" lon="66.995939"><ele>1700.575073</ele><time>2025-08-19T08:01:11Z</time><name>068</name><sym>Flag, Blue</sym></wpt><wpt lat="30.167411" lon="66.995959"><ele>1700.440796</ele><time>2025-08-19T08:01:23Z</time><name>069</name><sym>Flag, Blue</sym></wpt><wpt lat="30.167405" lon="66.995963"><ele>1701.095703</ele><time>2025-08-19T08:01:31Z</time><name>070</name><sym>Flag, Blue</sym></wpt><wpt lat="30.167287" lon="66.996280"><ele>1701.076172</ele><time>2025-08-19T08:06:44Z</time><name>071</name><sym>Flag, Blue</sym></wpt><wpt lat="30.167094" lon="66.996682"><ele>1702.122925</ele><time>2025-08-19T08:07:10Z</time><name>072</name><sym>Flag, Blue</sym></wpt><wpt lat="30.167430" lon="66.996859"><ele>1702.470459</ele><time>2025-08-19T08:08:17Z</time><name>073</name><sym>Flag, Blue</sym></wpt><wpt lat="30.167656" lon="66.996975"><ele>1702.292847</ele><time>2025-08-19T08:08:42Z</time><name>074</name><sym>Flag, Blue</sym></wpt><wpt lat="30.167661" lon="66.996972"><ele>1702.477051</ele><time>2025-08-19T08:08:49Z</time><name>075</name><sym>Flag, Blue</sym></wpt><wpt lat="30.167838" lon="66.997098"><ele>1703.216431</ele><time>2025-08-19T08:10:33Z</time><name>076</name><sym>Flag, Blue</sym></wpt><wpt lat="30.168000" lon="66.997136"><ele>1703.281372</ele><time>2025-08-19T08:11:00Z</time><name>077</name><sym>Flag, Blue</sym></wpt><wpt lat="30.168213" lon="66.997227"><ele>1704.524170</ele><time>2025-08-19T08:12:45Z</time><name>078</name><sym>Flag, Blue</sym></wpt><wpt lat="30.168434" lon="66.997305"><ele>1704.429321</ele><time>2025-08-19T08:13:41Z</time><name>079</name><sym>Flag, Blue</sym></wpt><wpt lat="30.168540" lon="66.997055"><ele>1705.958984</ele><time>2025-08-19T08:15:17Z</time><name>080</name><sym>Flag, Blue</sym></wpt><wpt lat="30.168660" lon="66.996788"><ele>1705.355103</ele><time>2025-08-19T08:15:37Z</time><name>081</name><sym>Flag, Blue</sym></wpt><wpt lat="30.168682" lon="66.996765"><ele>1705.821289</ele><time>2025-08-19T08:15:45Z</time><name>082</name><sym>Flag, Blue</sym></wpt><wpt lat="30.168589" lon="66.997508"><ele>1707.847656</ele><time>2025-08-19T08:20:11Z</time><name>083</name><sym>Flag, Blue</sym></wpt><wpt lat="30.168598" lon="66.997479"><ele>1707.909180</ele><time>2025-08-19T08:20:17Z</time><name>084</name><sym>Flag, Blue</sym></wpt><wpt lat="30.168610" lon="66.997483"><ele>1707.974487</ele><time>2025-08-19T08:20:31Z</time><name>085</name><sym>Flag, Blue</sym></wpt><wpt lat="30.169014" lon="66.997762"><ele>1709.995117</ele><time>2025-08-19T08:24:17Z</time><name>086</name><sym>Flag, Blue</sym></wpt><wpt lat="30.169202" lon="66.997832"><ele>1710.661743</ele><time>2025-08-19T08:25:50Z</time><name>087</name><sym>Flag, Blue</sym></wpt><wpt lat="30.169183" lon="66.997871"><ele>1710.658691</ele><time>2025-08-19T08:26:07Z</time><name>088</name><sym>Flag, Blue</sym></wpt><wpt lat="30.169472" lon="66.998260"><ele>1711.497803</ele><time>2025-08-19T08:28:58Z</time><name>089</name><sym>Flag, Blue</sym></wpt><wpt lat="30.169747" lon="66.998660"><ele>1712.256714</ele><time>2025-08-19T08:29:54Z</time><name>090</name><sym>Flag, Blue</sym></wpt><wpt lat="30.170114" lon="66.999034"><ele>1711.448486</ele><time>2025-08-19T08:31:16Z</time><name>091</name><sym>Flag, Blue</sym></wpt><wpt lat="30.170104" lon="66.999039"><ele>1711.806519</ele><time>2025-08-19T08:31:22Z</time><name>092</name><sym>Flag, Blue</sym></wpt><wpt lat="30.170468" lon="66.998767"><ele>1710.816650</ele><time>2025-08-19T08:33:50Z</time><name>093</name><sym>Flag, Blue</sym></wpt><wpt lat="30.170482" lon="66.998743"><ele>1710.783203</ele><time>2025-08-19T08:33:56Z</time><name>094</name><sym>Flag, Blue</sym></wpt><wpt lat="30.170348" lon="66.999439"><ele>1712.618652</ele><time>2025-08-19T08:37:14Z</time><name>095</name><sym>Flag, Blue</sym></wpt><wpt lat="30.170633" lon="66.999808"><ele>1713.090576</ele><time>2025-08-19T08:38:04Z</time><name>096</name><sym>Flag, Blue</sym></wpt><wpt lat="30.170922" lon="67.000245"><ele>1713.480103</ele><time>2025-08-19T08:39:05Z</time><name>097</name><sym>Flag, Blue</sym></wpt><wpt lat="30.171226" lon="67.000600"><ele>1713.204102</ele><time>2025-08-19T08:40:02Z</time><name>098</name><sym>Flag, Blue</sym></wpt><wpt lat="30.171464" lon="67.000965"><ele>1713.558716</ele><time>2025-08-19T08:40:38Z</time><name>099</name><sym>Flag, Blue</sym></wpt><wpt lat="30.171710" lon="67.001245"><ele>1712.700073</ele><time>2025-08-19T08:41:44Z</time><name>100</name><sym>Flag, Blue</sym></wpt><wpt lat="30.171707" lon="67.001265"><ele>1712.656372</ele><time>2025-08-19T08:41:52Z</time><name>101</name><sym>Flag, Blue</sym></wpt><wpt lat="30.169346" lon="66.998292"><ele>1715.642700</ele><time>2025-08-19T09:15:32Z</time><name>102</name><sym>Flag, Blue</sym></wpt><wpt lat="30.169732" lon="66.998696"><ele>1716.128052</ele><time>2025-08-19T09:16:38Z</time><name>103</name><sym>Flag, Blue</sym></wpt><wpt lat="30.170055" lon="66.999159"><ele>1715.710327</ele><time>2025-08-19T09:17:29Z</time><name>104</name><sym>Flag, Blue</sym></wpt><wpt lat="30.170416" lon="66.999670"><ele>1715.456543</ele><time>2025-08-19T09:19:15Z</time><name>105</name><sym>Flag, Blue</sym></wpt><wpt lat="30.170754" lon="67.000069"><ele>1715.390869</ele><time>2025-08-19T09:20:08Z</time><name>106</name><sym>Flag, Blue</sym></wpt><wpt lat="30.170717" lon="67.000046"><ele>1715.395996</ele><time>2025-08-19T09:20:13Z</time><name>107</name><sym>Flag, Blue</sym></wpt><wpt lat="30.171137" lon="67.000623"><ele>1715.930054</ele><time>2025-08-19T09:23:42Z</time><name>108</name><sym>Flag, Blue</sym></wpt><wpt lat="30.171143" lon="67.000616"><ele>1715.779907</ele><time>2025-08-19T09:23:49Z</time><name>109</name><sym>Flag, Blue</sym></wpt><wpt lat="30.171465" lon="67.001110"><ele>1716.002319</ele><time>2025-08-19T09:25:42Z</time><name>110</name><sym>Flag, Blue</sym></wpt><wpt lat="30.171803" lon="67.001590"><ele>1716.342529</ele><time>2025-08-19T09:26:40Z</time><name>111</name><sym>Flag, Blue</sym></wpt><wpt lat="30.171819" lon="67.001594"><ele>1716.291626</ele><time>2025-08-19T09:26:47Z</time><name>112</name><sym>Flag, Blue</sym></wpt><wpt lat="30.172078" lon="67.001878"><ele>1717.295166</ele><time>2025-08-19T09:29:11Z</time><name>113</name><sym>Flag, Blue</sym></wpt><wpt lat="30.172107" lon="67.001888"><ele>1717.022583</ele><time>2025-08-19T09:29:54Z</time><name>114</name><sym>Flag, Blue</sym></wpt><wpt lat="30.172073" lon="67.001853"><ele>1717.194824</ele><time>2025-08-19T09:30:02Z</time><name>115</name><sym>Flag, Blue</sym></wpt><wpt lat="30.171828" lon="67.001619"><ele>1716.034302</ele><time>2025-08-19T09:35:07Z</time><name>116</name><sym>Flag, Blue</sym></wpt><wpt lat="30.171808" lon="67.001636"><ele>1716.054810</ele><time>2025-08-19T09:35:18Z</time><name>117</name><sym>Flag, Blue</sym></wpt><wpt lat="30.171789" lon="67.001610"><ele>1716.176758</ele><time>2025-08-19T09:35:25Z</time><name>118</name><sym>Flag, Blue</sym></wpt><wpt lat="30.171791" lon="67.001546"><ele>1716.400391</ele><time>2025-08-19T09:37:38Z</time><name>119</name><sym>Flag, Blue</sym></wpt><wpt lat="30.171450" lon="67.001113"><ele>1716.397217</ele><time>2025-08-19T09:41:05Z</time><name>120</name><sym>Flag, Blue</sym></wpt><wpt lat="30.171465" lon="67.001119"><ele>1716.417358</ele><time>2025-08-19T09:41:13Z</time><name>121</name><sym>Flag, Blue</sym></wpt><wpt lat="30.171434" lon="67.001109"><ele>1718.072266</ele><time>2025-08-19T09:42:20Z</time><name>122</name><sym>Flag, Blue</sym></wpt><wpt lat="30.171432" lon="67.001100"><ele>1717.777100</ele><time>2025-08-19T09:42:29Z</time><name>123</name><sym>Flag, Blue</sym></wpt><wpt lat="30.171461" lon="67.001112"><ele>1717.549194</ele><time>2025-08-19T09:42:37Z</time><name>124</name><sym>Flag, Blue</sym></wpt><wpt lat="30.171135" lon="67.000628"><ele>1715.205811</ele><time>2025-08-19T09:47:03Z</time><name>125</name><sym>Flag, Blue</sym></wpt></gpx>