<?xml version="1.0" encoding="UTF-8" standalone="no" ?><gpx xmlns="http://www.topografix.com/GPX/1/1" xmlns:gpxx="http://www.garmin.com/xmlschemas/GpxExtensions/v3" xmlns:wptx1="http://www.garmin.com/xmlschemas/WaypointExtension/v1" xmlns:gpxtpx="http://www.garmin.com/xmlschemas/TrackPointExtension/v1" creator="GPSMAP 64s" version="1.1" xmlns:xsi="http://www.w3.org/2001/XMLSchema-instance" xsi:schemaLocation="http://www.topografix.com/GPX/1/1 http://www.topografix.com/GPX/1/1/gpx.xsd http://www.garmin.com/xmlschemas/GpxExtensions/v3 http://www8.garmin.com/xmlschemas/GpxExtensionsv3.xsd http://www.garmin.com/xmlschemas/TrackStatsExtension/v1 http://www8.garmin.com/xmlschemas/TrackStatsExtension.xsd http://www.garmin.com/xmlschemas/WaypointExtension/v1 http://www8.garmin.com/xmlschemas/WaypointExtensionv1.xsd http://www.garmin.com/xmlschemas/TrackPointExtension/v1 http://www.garmin.com/xmlschemas/TrackPointExtensionv1.xsd"><metadata><link href="http://www.garmin.com"><text>Garmin International</text></link><time>2025-08-21T06:44:33Z</time></metadata><wpt lat="30.171308" lon="67.011462"><ele>1693.830566</ele><time>2025-08-21T06:44:33Z</time><name>302</name><sym>Flag, Blue</sym></wpt><wpt lat="30.171291" lon="67.011450"><ele>1694.108032</ele><time>2025-08-21T06:44:44Z</time><name>303</name><sym>Flag, Blue</sym></wpt><wpt lat="30.171324" lon="67.011496"><ele>1694.251709</ele><time>2025-08-21T06:44:55Z</time><name>304</name><sym>Flag, Blue</sym></wpt><wpt lat="30.171482" lon="67.011608"><ele>1696.281372</ele><time>2025-08-21T06:46:47Z</time><name>305</name><sym>Flag, Blue</sym></wpt><wpt lat="30.171490" lon="67.011639"><ele>1696.928101</ele><time>2025-08-21T06:46:58Z</time><name>306</name><sym>Flag, Blue</sym></wpt><wpt lat="30.171643" lon="67.011853"><ele>1699.100708</ele><time>2025-08-21T06:50:07Z</time><name>307</name><sym>Flag, Blue</sym></wpt><wpt lat="30.171822" lon="67.012023"><ele>1700.320557</ele><time>2025-08-21T06:51:26Z</time><name>308</name><sym>Flag, Blue</sym></wpt><wpt lat="30.171958" lon="67.012287"><ele>1700.347046</ele><time>2025-08-21T06:51:45Z</time><name>309</name><sym>Flag, Blue</sym></wpt><wpt lat="30.172226" lon="67.012765"><ele>1702.958374</ele><time>2025-08-21T06:55:35Z</time><name>310</name><sym>Flag, Blue</sym></wpt><wpt lat="30.172256" lon="67.012789"><ele>1703.135742</ele><time>2025-08-21T06:55:46Z</time><name>311</name><sym>Flag, Blue</sym></wpt><wpt lat="30.172462" lon="67.013052"><ele>1705.979980</ele><time>2025-08-21T07:01:37Z</time><name>312</name><sym>Flag, Blue</sym></wpt><wpt lat="30.172715" lon="67.013335"><ele>1706.217651</ele><time>2025-08-21T07:02:17Z</time><name>313</name><sym>Flag, Blue</sym></wpt><wpt lat="30.172959" lon="67.013736"><ele>1706.971802</ele><time>2025-08-21T07:02:51Z</time><name>314</name><sym>Flag, Blue</sym></wpt><wpt lat="30.172989" lon="67.013763"><ele>1707.227417</ele><time>2025-08-21T07:03:02Z</time><name>315</name><sym>Flag, Blue</sym></wpt><wpt lat="30.173136" lon="67.013681"><ele>1707.103516</ele><time>2025-08-21T07:04:15Z</time><name>316</name><sym>Flag, Blue</sym></wpt><wpt lat="30.173335" lon="67.013488"><ele>1706.121826</ele><time>2025-08-21T07:04:38Z</time><name>317</name><sym>Flag, Blue</sym></wpt><wpt lat="30.173322" lon="67.013494"><ele>1706.460938</ele><time>2025-08-21T07:04:46Z</time><name>318</name><sym>Flag, Blue</sym></wpt><wpt lat="30.173198" lon="67.014067"><ele>1708.672363</ele><time>2025-08-21T07:07:05Z</time><name>319</name><sym>Flag, Blue</sym></wpt><wpt lat="30.173267" lon="67.014197"><ele>1708.874146</ele><time>2025-08-21T07:07:33Z</time><name>320</name><sym>Flag, Blue</sym></wpt><wpt lat="30.173522" lon="67.014002"><ele>1708.441772</ele><time>2025-08-21T07:09:38Z</time><name>321</name><sym>Flag, Blue</sym></wpt><wpt lat="30.173791" lon="67.013803"><ele>1707.833374</ele><time>2025-08-21T07:09:54Z</time><name>322</name><sym>Flag, Blue</sym></wpt><wpt lat="30.173962" lon="67.013628"><ele>1707.783691</ele><time>2025-08-21T07:10:16Z</time><name>323</name><sym>Flag, Blue</sym></wpt><wpt lat="30.173959" lon="67.013620"><ele>1707.926025</ele><time>2025-08-21T07:10:28Z</time><name>324</name><sym>Flag, Blue</sym></wpt><wpt lat="30.173907" lon="67.013516"><ele>1708.018433</ele><time>2025-08-21T07:11:51Z</time><name>325</name><sym>Flag, Blue</sym></wpt><wpt lat="30.174071" lon="67.013422"><ele>1708.132446</ele><time>2025-08-21T07:12:06Z</time><name>326</name><sym>Flag, Blue</sym></wpt><wpt lat="30.173863" lon="67.013109"><ele>1708.182129</ele><time>2025-08-21T07:12:59Z</time><name>327</name><sym>Flag, Blue</sym></wpt><wpt lat="30.173639" lon="67.012781"><ele>1708.772827</ele><time>2025-08-21T07:13:13Z</time><name>328</name><sym>Flag, Blue</sym></wpt><wpt lat="30.173489" lon="67.012544"><ele>1708.655884</ele><time>2025-08-21T07:13:42Z</time><name>329</name><sym>Flag, Blue</sym></wpt><wpt lat="30.173478" lon="67.012550"><ele>1708.793945</ele><time>2025-08-21T07:13:49Z</time><name>330</name><sym>Flag, Blue</sym></wpt><wpt lat="30.173515" lon="67.014691"><ele>1713.542114</ele><time>2025-08-21T07:17:59Z</time><name>331</name><sym>Flag, Blue</sym></wpt><wpt lat="30.173546" lon="67.014678"><ele>1713.426270</ele><time>2025-08-21T07:18:08Z</time><name>332</name><sym>Flag, Blue</sym></wpt><wpt lat="30.173568" lon="67.014789"><ele>1714.108887</ele><time>2025-08-21T07:21:00Z</time><name>333</name><sym>Flag, Blue</sym></wpt><wpt lat="30.173403" lon="67.014950"><ele>1714.563232</ele><time>2025-08-21T07:21:17Z</time><name>334</name><sym>Flag, Blue</sym></wpt><wpt lat="30.173096" lon="67.015187"><ele>1715.391724</ele><time>2025-08-21T07:22:05Z</time><name>335</name><sym>Flag, Blue</sym></wpt><wpt lat="30.173101" lon="67.015193"><ele>1715.675171</ele><time>2025-08-21T07:22:12Z</time><name>336</name><sym>Flag, Blue</sym></wpt><wpt lat="30.172820" lon="67.015438"><ele>1716.517456</ele><time>2025-08-21T07:23:26Z</time><name>337</name><sym>Flag, Blue</sym></wpt><wpt lat="30.172468" lon="67.015637"><ele>1718.083130</ele><time>2025-08-21T07:24:15Z</time><name>338</name><sym>Flag, Blue</sym></wpt><wpt lat="30.172476" lon="67.015647"><ele>1718.204712</ele><time>2025-08-21T07:24:22Z</time><name>339</name><sym>Flag, Blue</sym></wpt><wpt lat="30.172089" lon="67.015869"><ele>1723.431641</ele><time>2025-08-21T07:34:05Z</time><name>340</name><sym>Flag, Blue</sym></wpt><wpt lat="30.171688" lon="67.016167"><ele>1724.899780</ele><time>2025-08-21T07:34:33Z</time><name>341</name><sym>Flag, Blue</sym></wpt><wpt lat="30.171698" lon="67.016167"><ele>1724.869141</ele><time>2025-08-21T07:34:37Z</time><name>342</name><sym>Flag, Blue</sym></wpt><wpt lat="30.171232" lon="67.016447"><ele>1726.748657</ele><time>2025-08-21T07:36:13Z</time><name>343</name><sym>Flag, Blue</sym></wpt><wpt lat="30.171230" lon="67.016457"><ele>1726.740601</ele><time>2025-08-21T07:36:15Z</time><name>344</name><sym>Flag, Blue</sym></wpt><wpt lat="30.170986" lon="67.016615"><ele>1729.470093</ele><time>2025-08-21T07:38:07Z</time><name>345</name><sym>Flag, Blue</sym></wpt><wpt lat="30.170610" lon="67.016688"><ele>1731.081421</ele><time>2025-08-21T07:38:24Z</time><name>346</name><sym>Flag, Blue</sym></wpt><wpt lat="30.170583" lon="67.016694"><ele>1730.520752</ele><time>2025-08-21T07:38:50Z</time><name>347</name><sym>Flag, Blue</sym></wpt><wpt lat="30.171213" lon="67.017018"><ele>1728.093506</ele><time>2025-08-21T07:42:10Z</time><name>348</name><sym>Flag, Blue</sym></wpt><wpt lat="30.170699" lon="67.017503"><ele>1731.580688</ele><time>2025-08-21T07:44:08Z</time><name>349</name><sym>Flag, Blue</sym></wpt><wpt lat="30.170326" lon="67.017796"><ele>1732.454956</ele><time>2025-08-21T07:44:34Z</time><name>350</name><sym>Flag, Blue</sym></wpt><wpt lat="30.170332" lon="67.017806"><ele>1732.461548</ele><time>2025-08-21T07:44:38Z</time><name>351</name><sym>Flag, Blue</sym></wpt><wpt lat="30.171744" lon="67.016909"><ele>1727.197266</ele><time>2025-08-21T07:46:57Z</time><name>352</name><sym>Flag, Blue</sym></wpt><wpt lat="30.171748" lon="67.016898"><ele>1727.051880</ele><time>2025-08-21T07:47:09Z</time><name>353</name><sym>Flag, Blue</sym></wpt><wpt lat="30.172066" lon="67.016862"><ele>1726.627686</ele><time>2025-08-21T07:47:38Z</time><name>354</name><sym>Flag, Blue</sym></wpt><wpt lat="30.172145" lon="67.016961"><ele>1727.210815</ele><time>2025-08-21T07:49:02Z</time><name>355</name><sym>Flag, Blue</sym></wpt><wpt lat="30.171925" lon="67.017204"><ele>1729.513062</ele><time>2025-08-21T07:51:55Z</time><name>356</name><sym>Flag, Blue</sym></wpt><wpt lat="30.171943" lon="67.017190"><ele>1729.518311</ele><time>2025-08-21T07:52:03Z</time><name>357</name><sym>Flag, Blue</sym></wpt><wpt lat="30.171722" lon="67.017675"><ele>1730.886841</ele><time>2025-08-21T07:53:26Z</time><name>358</name><sym>Flag, Blue</sym></wpt><wpt lat="30.171727" lon="67.017999"><ele>1731.257568</ele><time>2025-08-21T07:53:54Z</time><name>359</name><sym>Flag, Blue</sym></wpt><wpt lat="30.171732" lon="67.017999"><ele>1731.294067</ele><time>2025-08-21T07:54:00Z</time><name>360</name><sym>Flag, Blue</sym></wpt><wpt lat="30.171526" lon="67.018166"><ele>1733.685181</ele><time>2025-08-21T07:56:24Z</time><name>361</name><sym>Flag, Blue</sym></wpt><wpt lat="30.171395" lon="67.018195"><ele>1734.500244</ele><time>2025-08-21T07:56:37Z</time><name>362</name><sym>Flag, Blue</sym></wpt><wpt lat="30.171180" lon="67.018327"><ele>1734.781982</ele><time>2025-08-21T07:56:49Z</time><name>363</name><sym>Flag, Blue</sym></wpt><wpt lat="30.171198" lon="67.018323"><ele>1734.645264</ele><time>2025-08-21T07:56:57Z</time><name>364</name><sym>Flag, Blue</sym></wpt><wpt lat="30.171196" lon="67.018334"><ele>1734.653320</ele><time>2025-08-21T07:57:00Z</time><name>365</name><sym>Flag, Blue</sym></wpt><wpt lat="30.172244" lon="67.017913"><ele>1733.570557</ele><time>2025-08-21T08:04:42Z</time><name>366</name><sym>Flag, Blue</sym></wpt><wpt lat="30.172253" lon="67.017922"><ele>1733.564697</ele><time>2025-08-21T08:04:45Z</time><name>367</name><sym>Flag, Blue</sym></wpt><wpt lat="30.172772" lon="67.017265"><ele>1731.203369</ele><time>2025-08-21T08:08:05Z</time><name>368</name><sym>Flag, Blue</sym></wpt><wpt lat="30.173040" lon="67.016961"><ele>1730.220703</ele><time>2025-08-21T08:08:42Z</time><name>369</name><sym>Flag, Blue</sym></wpt><wpt lat="30.173034" lon="67.016948"><ele>1730.225464</ele><time>2025-08-21T08:08:47Z</time><name>370</name><sym>Flag, Blue</sym></wpt><wpt lat="30.173026" lon="67.016973"><ele>1730.984863</ele><time>2025-08-21T08:09:11Z</time><name>371</name><sym>Flag, Blue</sym></wpt><wpt lat="30.172705" lon="67.018061"><ele>1732.288696</ele><time>2025-08-21T08:13:57Z</time><name>372</name><sym>Flag, Blue</sym></wpt><wpt lat="30.172566" lon="67.018510"><ele>1734.857056</ele><time>2025-08-21T08:15:20Z</time><name>373</name><sym>Flag, Blue</sym></wpt><wpt lat="30.172595" lon="67.018640"><ele>1735.625488</ele><time>2025-08-21T08:15:53Z</time><name>374</name><sym>Flag, Blue</sym></wpt><wpt lat="30.172852" lon="67.018726"><ele>1734.688477</ele><time>2025-08-21T08:16:25Z</time><name>375</name><sym>Flag, Blue</sym></wpt><wpt lat="30.172902" lon="67.018845"><ele>1734.509644</ele><time>2025-08-21T08:16:44Z</time><name>376</name><sym>Flag, Blue</sym></wpt><wpt lat="30.172891" lon="67.018826"><ele>1734.512451</ele><time>2025-08-21T08:16:49Z</time><name>377</name><sym>Flag, Blue</sym></wpt><wpt lat="30.173755" lon="67.015056"><ele>1730.648926</ele><time>2025-08-21T08:38:49Z</time><name>378</name><sym>Flag, Blue</sym></wpt><wpt lat="30.173460" lon="67.015385"><ele>1732.595215</ele><time>2025-08-21T08:41:10Z</time><name>379</name><sym>Flag, Blue</sym></wpt><wpt lat="30.173309" lon="67.015603"><ele>1733.383301</ele><time>2025-08-21T08:41:41Z</time><name>380</name><sym>Flag, Blue</sym></wpt><wpt lat="30.173305" lon="67.015636"><ele>1733.296143</ele><time>2025-08-21T08:41:48Z</time><name>381</name><sym>Flag, Blue</sym></wpt><wpt lat="30.173211" lon="67.015727"><ele>1732.802856</ele><time>2025-08-21T08:44:33Z</time><name>382</name><sym>Flag, Blue</sym></wpt><wpt lat="30.173196" lon="67.015739"><ele>1733.186523</ele><time>2025-08-21T08:44:43Z</time><name>383</name><sym>Flag, Blue</sym></wpt><wpt lat="30.173808" lon="67.015107"><ele>1732.584229</ele><time>2025-08-21T08:49:15Z</time><name>384</name><sym>Flag, Blue</sym></wpt><wpt lat="30.173812" lon="67.015093"><ele>1732.528198</ele><time>2025-08-21T08:49:23Z</time><name>385</name><sym>Flag, Blue</sym></wpt><wpt lat="30.173787" lon="67.015118"><ele>1732.572510</ele><time>2025-08-21T08:49:33Z</time><name>386</name><sym>Flag, Blue</sym></wpt><wpt lat="30.174215" lon="67.015262"><ele>1735.896484</ele><time>2025-08-21T09:19:50Z</time><name>387</name><sym>Flag, Blue</sym></wpt><wpt lat="30.174386" lon="67.015404"><ele>1735.262817</ele><time>2025-08-21T09:20:07Z</time><name>388</name><sym>Flag, Blue</sym></wpt><wpt lat="30.174393" lon="67.015389"><ele>1735.839966</ele><time>2025-08-21T09:20:17Z</time><name>389</name><sym>Flag, Blue</sym></wpt><wpt lat="30.174550" lon="67.015121"><ele>1734.913330</ele><time>2025-08-21T09:22:37Z</time><name>390</name><sym>Flag, Blue</sym></wpt><wpt lat="30.174862" lon="67.014816"><ele>1733.279297</ele><time>2025-08-21T09:22:53Z</time><name>391</name><sym>Flag, Blue</sym></wpt><wpt lat="30.175114" lon="67.014466"><ele>1732.701782</ele><time>2025-08-21T09:23:11Z</time><name>392</name><sym>Flag, Blue</sym></wpt><wpt lat="30.175120" lon="67.014443"><ele>1732.950195</ele><time>2025-08-21T09:23:21Z</time><name>393</name><sym>Flag, Blue</sym></wpt><wpt lat="30.175191" lon="67.014344"><ele>1732.483398</ele><time>2025-08-21T09:24:22Z</time><name>394</name><sym>Flag, Blue</sym></wpt><wpt lat="30.175208" lon="67.014354"><ele>1732.271118</ele><time>2025-08-21T09:24:29Z</time><name>395</name><sym>Flag, Blue</sym></wpt><wpt lat="30.174464" lon="67.015437"><ele>1734.638794</ele><time>2025-08-21T09:28:33Z</time><name>396</name><sym>Flag, Blue</sym></wpt><wpt lat="30.174283" lon="67.015662"><ele>1734.578613</ele><time>2025-08-21T09:29:05Z</time><name>397</name><sym>Flag, Blue</sym></wpt><wpt lat="30.174311" lon="67.015670"><ele>1735.254150</ele><time>2025-08-21T09:29:16Z</time><name>398</name><sym>Flag, Blue</sym></wpt><wpt lat="30.174601" lon="67.015580"><ele>1734.390015</ele><time>2025-08-21T09:30:53Z</time><name>399</name><sym>Flag, Blue</sym></wpt><wpt lat="30.174605" lon="67.015579"><ele>1734.824463</ele><time>2025-08-21T09:31:03Z</time><name>400</name><sym>Flag, Blue</sym></wpt><wpt lat="30.174967" lon="67.016011"><ele>1734.811035</ele><time>2025-08-21T09:32:22Z</time><name>401</name><sym>Flag, Blue</sym></wpt><wpt lat="30.175003" lon="67.016024"><ele>1734.923340</ele><time>2025-08-21T09:32:35Z</time><name>402</name><sym>Flag, Blue</sym></wpt><wpt lat="30.174632" lon="67.016204"><ele>1735.220825</ele><time>2025-08-21T09:37:02Z</time><name>403</name><sym>Flag, Blue</sym></wpt><wpt lat="30.174555" lon="67.016256"><ele>1735.284668</ele><time>2025-08-21T09:37:15Z</time><name>404</name><sym>Flag, Blue</sym></wpt><wpt lat="30.174175" lon="67.016412"><ele>1735.739258</ele><time>2025-08-21T09:38:41Z</time><name>405</name><sym>Flag, Blue</sym></wpt><wpt lat="30.174218" lon="67.016670"><ele>1736.476440</ele><time>2025-08-21T09:40:15Z</time><name>406</name><sym>Flag, Blue</sym></wpt><wpt lat="30.174193" lon="67.016694"><ele>1736.710449</ele><time>2025-08-21T09:40:22Z</time><name>407</name><sym>Flag, Blue</sym></wpt><wpt lat="30.173860" lon="67.016587"><ele>1737.360352</ele><time>2025-08-21T09:41:29Z</time><name>408</name><sym>Flag, Blue</sym></wpt><wpt lat="30.173876" lon="67.016580"><ele>1737.331787</ele><time>2025-08-21T09:41:36Z</time><name>409</name><sym>Flag, Blue</sym></wpt><wpt lat="30.175143" lon="67.016245"><ele>1733.979126</ele><time>2025-08-21T09:45:23Z</time><name>410</name><sym>Flag, Blue</sym></wpt><wpt lat="30.175159" lon="67.016227"><ele>1734.303711</ele><time>2025-08-21T09:45:36Z</time><name>411</name><sym>Flag, Blue</sym></wpt><wpt lat="30.175297" lon="67.016468"><ele>1734.486572</ele><time>2025-08-21T09:46:54Z</time><name>412</name><sym>Flag, Blue</sym></wpt><wpt lat="30.175320" lon="67.016457"><ele>1734.083252</ele><time>2025-08-21T09:47:04Z</time><name>413</name><sym>Flag, Blue</sym></wpt><wpt lat="30.175538" lon="67.016749"><ele>1733.630249</ele><time>2025-08-21T09:48:02Z</time><name>414</name><sym>Flag, Blue</sym></wpt><wpt lat="30.175552" lon="67.016718"><ele>1733.364868</ele><time>2025-08-21T09:48:11Z</time><name>415</name><sym>Flag, Blue</sym></wpt><wpt lat="30.175735" lon="67.016935"><ele>1732.646729</ele><time>2025-08-21T09:50:02Z</time><name>416</name><sym>Flag, Blue</sym></wpt></gpx>