<?xml version="1.0" encoding="UTF-8" standalone="no" ?><gpx xmlns="http://www.topografix.com/GPX/1/1" xmlns:gpxx="http://www.garmin.com/xmlschemas/GpxExtensions/v3" xmlns:wptx1="http://www.garmin.com/xmlschemas/WaypointExtension/v1" xmlns:gpxtpx="http://www.garmin.com/xmlschemas/TrackPointExtension/v1" creator="GPSMAP 64s" version="1.1" xmlns:xsi="http://www.w3.org/2001/XMLSchema-instance" xsi:schemaLocation="http://www.topografix.com/GPX/1/1 http://www.topografix.com/GPX/1/1/gpx.xsd http://www.garmin.com/xmlschemas/GpxExtensions/v3 http://www8.garmin.com/xmlschemas/GpxExtensionsv3.xsd http://www.garmin.com/xmlschemas/TrackStatsExtension/v1 http://www8.garmin.com/xmlschemas/TrackStatsExtension.xsd http://www.garmin.com/xmlschemas/WaypointExtension/v1 http://www8.garmin.com/xmlschemas/WaypointExtensionv1.xsd http://www.garmin.com/xmlschemas/TrackPointExtension/v1 http://www.garmin.com/xmlschemas/TrackPointExtensionv1.xsd"><metadata><link href="http://www.garmin.com"><text>Garmin International</text></link><time>2025-08-20T05:47:06Z</time></metadata><wpt lat="30.172284" lon="67.002323"><ele>1686.406006</ele><time>2025-08-20T05:47:06Z</time><name>126</name><sym>Flag, Blue</sym></wpt><wpt lat="30.172461" lon="67.002403"><ele>1687.389893</ele><time>2025-08-20T05:48:22Z</time><name>127</name><sym>Flag, Blue</sym></wpt><wpt lat="30.172434" lon="67.002430"><ele>1687.125610</ele><time>2025-08-20T05:48:31Z</time><name>128</name><sym>Flag, Blue</sym></wpt><wpt lat="30.172007" lon="67.002616"><ele>1690.989136</ele><time>2025-08-20T05:54:47Z</time><name>129</name><sym>Flag, Blue</sym></wpt><wpt lat="30.172004" lon="67.002649"><ele>1691.111938</ele><time>2025-08-20T05:54:55Z</time><name>130</name><sym>Flag, Blue</sym></wpt><wpt lat="30.171799" lon="67.002920"><ele>1691.662231</ele><time>2025-08-20T05:55:52Z</time><name>131</name><sym>Flag, Blue</sym></wpt><wpt lat="30.171666" lon="67.002664"><ele>1692.757080</ele><time>2025-08-20T05:58:28Z</time><name>132</name><sym>Flag, Blue</sym></wpt><wpt lat="30.171485" lon="67.002459"><ele>1692.705688</ele><time>2025-08-20T05:58:50Z</time><name>133</name><sym>Flag, Blue</sym></wpt><wpt lat="30.171490" lon="67.002426"><ele>1692.695679</ele><time>2025-08-20T05:58:57Z</time><name>134</name><sym>Flag, Blue</sym></wpt><wpt lat="30.171395" lon="67.002237"><ele>1693.283691</ele><time>2025-08-20T06:00:35Z</time><name>135</name><sym>Flag, Blue</sym></wpt><wpt lat="30.171485" lon="67.002094"><ele>1694.444092</ele><time>2025-08-20T06:02:12Z</time><name>136</name><sym>Flag, Blue</sym></wpt><wpt lat="30.171336" lon="67.001842"><ele>1694.047119</ele><time>2025-08-20T06:02:34Z</time><name>137</name><sym>Flag, Blue</sym></wpt><wpt lat="30.171360" lon="67.001824"><ele>1694.270996</ele><time>2025-08-20T06:02:41Z</time><name>138</name><sym>Flag, Blue</sym></wpt><wpt lat="30.171187" lon="67.002413"><ele>1695.265137</ele><time>2025-08-20T06:05:06Z</time><name>139</name><sym>Flag, Blue</sym></wpt><wpt lat="30.171032" lon="67.002147"><ele>1695.685547</ele><time>2025-08-20T06:07:48Z</time><name>140</name><sym>Flag, Blue</sym></wpt><wpt lat="30.171048" lon="67.002163"><ele>1695.951782</ele><time>2025-08-20T06:07:55Z</time><name>141</name><sym>Flag, Blue</sym></wpt><wpt lat="30.170828" lon="67.001868"><ele>1696.118896</ele><time>2025-08-20T06:09:15Z</time><name>142</name><sym>Flag, Blue</sym></wpt><wpt lat="30.170840" lon="67.001860"><ele>1696.837891</ele><time>2025-08-20T06:09:22Z</time><name>143</name><sym>Flag, Blue</sym></wpt><wpt lat="30.170675" lon="67.001618"><ele>1696.194336</ele><time>2025-08-20T06:10:17Z</time><name>144</name><sym>Flag, Blue</sym></wpt><wpt lat="30.170728" lon="67.001603"><ele>1696.451416</ele><time>2025-08-20T06:10:26Z</time><name>145</name><sym>Flag, Blue</sym></wpt><wpt lat="30.170744" lon="67.001624"><ele>1698.118164</ele><time>2025-08-20T06:26:47Z</time><name>146</name><sym>Flag, Blue</sym></wpt><wpt lat="30.170752" lon="67.001555"><ele>1697.749512</ele><time>2025-08-20T06:26:53Z</time><name>147</name><sym>Flag, Blue</sym></wpt><wpt lat="30.171765" lon="67.003050"><ele>1698.833374</ele><time>2025-08-20T06:33:05Z</time><name>148</name><sym>Flag, Blue</sym></wpt><wpt lat="30.171774" lon="67.003029"><ele>1698.854126</ele><time>2025-08-20T06:33:12Z</time><name>149</name><sym>Flag, Blue</sym></wpt><wpt lat="30.171489" lon="67.003409"><ele>1698.119873</ele><time>2025-08-20T06:34:31Z</time><name>150</name><sym>Flag, Blue</sym></wpt><wpt lat="30.171185" lon="67.003744"><ele>1698.928345</ele><time>2025-08-20T06:35:00Z</time><name>151</name><sym>Flag, Blue</sym></wpt><wpt lat="30.171169" lon="67.003756"><ele>1698.979492</ele><time>2025-08-20T06:35:06Z</time><name>152</name><sym>Flag, Blue</sym></wpt><wpt lat="30.170988" lon="67.004091"><ele>1699.391479</ele><time>2025-08-20T06:37:38Z</time><name>153</name><sym>Flag, Blue</sym></wpt><wpt lat="30.170990" lon="67.004083"><ele>1699.320679</ele><time>2025-08-20T06:37:46Z</time><name>154</name><sym>Flag, Blue</sym></wpt><wpt lat="30.172419" lon="67.002654"><ele>1697.003662</ele><time>2025-08-20T06:40:33Z</time><name>155</name><sym>Flag, Blue</sym></wpt><wpt lat="30.172553" lon="67.002785"><ele>1696.379150</ele><time>2025-08-20T06:40:59Z</time><name>156</name><sym>Flag, Blue</sym></wpt><wpt lat="30.172544" lon="67.002938"><ele>1697.727661</ele><time>2025-08-20T06:43:30Z</time><name>157</name><sym>Flag, Blue</sym></wpt><wpt lat="30.172602" lon="67.003014"><ele>1697.486938</ele><time>2025-08-20T06:43:44Z</time><name>158</name><sym>Flag, Blue</sym></wpt><wpt lat="30.172629" lon="67.003003"><ele>1697.685303</ele><time>2025-08-20T06:43:51Z</time><name>159</name><sym>Flag, Blue</sym></wpt><wpt lat="30.172616" lon="67.003093"><ele>1697.055542</ele><time>2025-08-20T06:45:49Z</time><name>160</name><sym>Flag, Blue</sym></wpt><wpt lat="30.172759" lon="67.003325"><ele>1697.562622</ele><time>2025-08-20T06:46:17Z</time><name>161</name><sym>Flag, Blue</sym></wpt><wpt lat="30.172837" lon="67.003490"><ele>1696.889404</ele><time>2025-08-20T06:46:40Z</time><name>162</name><sym>Flag, Blue</sym></wpt><wpt lat="30.172857" lon="67.003474"><ele>1697.689697</ele><time>2025-08-20T06:46:56Z</time><name>163</name><sym>Flag, Blue</sym></wpt><wpt lat="30.173043" lon="67.003746"><ele>1708.457153</ele><time>2025-08-20T06:49:08Z</time><name>164</name><sym>Flag, Blue</sym></wpt><wpt lat="30.173050" lon="67.003777"><ele>1708.600830</ele><time>2025-08-20T06:49:26Z</time><name>165</name><sym>Flag, Blue</sym></wpt><wpt lat="30.172706" lon="67.003954"><ele>1707.891602</ele><time>2025-08-20T06:51:47Z</time><name>166</name><sym>Flag, Blue</sym></wpt><wpt lat="30.172523" lon="67.004187"><ele>1707.818359</ele><time>2025-08-20T06:52:30Z</time><name>167</name><sym>Flag, Blue</sym></wpt><wpt lat="30.172410" lon="67.004107"><ele>1707.400513</ele><time>2025-08-20T06:53:07Z</time><name>168</name><sym>Flag, Blue</sym></wpt><wpt lat="30.172406" lon="67.004110"><ele>1707.498291</ele><time>2025-08-20T06:53:15Z</time><name>169</name><sym>Flag, Blue</sym></wpt><wpt lat="30.172396" lon="67.004093"><ele>1707.453857</ele><time>2025-08-20T06:53:21Z</time><name>170</name><sym>Flag, Blue</sym></wpt><wpt lat="30.172398" lon="67.004406"><ele>1707.358032</ele><time>2025-08-20T06:55:59Z</time><name>171</name><sym>Flag, Blue</sym></wpt><wpt lat="30.172378" lon="67.004435"><ele>1707.347046</ele><time>2025-08-20T06:56:04Z</time><name>172</name><sym>Flag, Blue</sym></wpt><wpt lat="30.172196" lon="67.004602"><ele>1707.279053</ele><time>2025-08-20T06:56:24Z</time><name>173</name><sym>Flag, Blue</sym></wpt><wpt lat="30.172185" lon="67.004599"><ele>1707.328125</ele><time>2025-08-20T06:56:31Z</time><name>174</name><sym>Flag, Blue</sym></wpt><wpt lat="30.171887" lon="67.004891"><ele>1707.727051</ele><time>2025-08-20T06:59:29Z</time><name>175</name><sym>Flag, Blue</sym></wpt><wpt lat="30.173070" lon="67.003766"><ele>1705.150513</ele><time>2025-08-20T07:00:55Z</time><name>176</name><sym>Flag, Blue</sym></wpt><wpt lat="30.173079" lon="67.003788"><ele>1705.522461</ele><time>2025-08-20T07:01:02Z</time><name>177</name><sym>Flag, Blue</sym></wpt><wpt lat="30.173094" lon="67.003795"><ele>1705.283081</ele><time>2025-08-20T07:01:09Z</time><name>178</name><sym>Flag, Blue</sym></wpt><wpt lat="30.173298" lon="67.003581"><ele>1703.517944</ele><time>2025-08-20T07:03:17Z</time><name>179</name><sym>Flag, Blue</sym></wpt><wpt lat="30.173352" lon="67.003384"><ele>1703.127930</ele><time>2025-08-20T07:03:42Z</time><name>180</name><sym>Flag, Blue</sym></wpt><wpt lat="30.173388" lon="67.003337"><ele>1702.779907</ele><time>2025-08-20T07:03:50Z</time><name>181</name><sym>Flag, Blue</sym></wpt><wpt lat="30.173275" lon="67.004146"><ele>1702.750854</ele><time>2025-08-20T07:10:53Z</time><name>182</name><sym>Flag, Blue</sym></wpt><wpt lat="30.173283" lon="67.004133"><ele>1702.559692</ele><time>2025-08-20T07:11:08Z</time><name>183</name><sym>Flag, Blue</sym></wpt><wpt lat="30.173253" lon="67.004199"><ele>1703.338867</ele><time>2025-08-20T07:13:57Z</time><name>184</name><sym>Flag, Blue</sym></wpt><wpt lat="30.173230" lon="67.004227"><ele>1703.536255</ele><time>2025-08-20T07:14:04Z</time><name>185</name><sym>Flag, Blue</sym></wpt><wpt lat="30.173000" lon="67.004407"><ele>1704.137329</ele><time>2025-08-20T07:15:40Z</time><name>186</name><sym>Flag, Blue</sym></wpt><wpt lat="30.172844" lon="67.004484"><ele>1704.409668</ele><time>2025-08-20T07:16:35Z</time><name>187</name><sym>Flag, Blue</sym></wpt><wpt lat="30.172859" lon="67.004482"><ele>1704.087891</ele><time>2025-08-20T07:16:42Z</time><name>188</name><sym>Flag, Blue</sym></wpt><wpt lat="30.172712" lon="67.004657"><ele>1704.194702</ele><time>2025-08-20T07:18:52Z</time><name>189</name><sym>Flag, Blue</sym></wpt><wpt lat="30.172707" lon="67.004663"><ele>1704.291504</ele><time>2025-08-20T07:19:00Z</time><name>190</name><sym>Flag, Blue</sym></wpt><wpt lat="30.172344" lon="67.004947"><ele>1705.687500</ele><time>2025-08-20T07:20:49Z</time><name>191</name><sym>Flag, Blue</sym></wpt><wpt lat="30.172354" lon="67.004935"><ele>1705.552856</ele><time>2025-08-20T07:20:55Z</time><name>192</name><sym>Flag, Blue</sym></wpt><wpt lat="30.172049" lon="67.005301"><ele>1706.543945</ele><time>2025-08-20T07:22:15Z</time><name>193</name><sym>Flag, Blue</sym></wpt><wpt lat="30.172045" lon="67.005324"><ele>1706.390625</ele><time>2025-08-20T07:22:24Z</time><name>194</name><sym>Flag, Blue</sym></wpt><wpt lat="30.171872" lon="67.005662"><ele>1707.345459</ele><time>2025-08-20T07:26:24Z</time><name>195</name><sym>Flag, Blue</sym></wpt><wpt lat="30.171866" lon="67.005683"><ele>1707.528076</ele><time>2025-08-20T07:26:32Z</time><name>196</name><sym>Flag, Blue</sym></wpt><wpt lat="30.171747" lon="67.005745"><ele>1707.573486</ele><time>2025-08-20T07:28:04Z</time><name>197</name><sym>Flag, Blue</sym></wpt><wpt lat="30.171768" lon="67.005720"><ele>1707.683350</ele><time>2025-08-20T07:28:13Z</time><name>198</name><sym>Flag, Blue</sym></wpt><wpt lat="30.171718" lon="67.005753"><ele>1707.327759</ele><time>2025-08-20T07:28:23Z</time><name>199</name><sym>Flag, Blue</sym></wpt><wpt lat="30.171576" lon="67.005938"><ele>1707.400635</ele><time>2025-08-20T07:33:54Z</time><name>200</name><sym>Flag, Blue</sym></wpt><wpt lat="30.171568" lon="67.005937"><ele>1707.618896</ele><time>2025-08-20T07:34:00Z</time><name>201</name><sym>Flag, Blue</sym></wpt><wpt lat="30.171569" lon="67.005963"><ele>1707.605469</ele><time>2025-08-20T07:34:07Z</time><name>202</name><sym>Flag, Blue</sym></wpt><wpt lat="30.171407" lon="67.006158"><ele>1708.227905</ele><time>2025-08-20T07:34:38Z</time><name>203</name><sym>Flag, Blue</sym></wpt><wpt lat="30.171431" lon="67.006169"><ele>1708.546875</ele><time>2025-08-20T07:34:45Z</time><name>204</name><sym>Flag, Blue</sym></wpt><wpt lat="30.171412" lon="67.006209"><ele>1708.134033</ele><time>2025-08-20T07:34:55Z</time><name>205</name><sym>Flag, Blue</sym></wpt><wpt lat="30.171423" lon="67.006203"><ele>1708.003418</ele><time>2025-08-20T07:37:33Z</time><name>206</name><sym>Flag, Blue</sym></wpt><wpt lat="30.171409" lon="67.006201"><ele>1708.056519</ele><time>2025-08-20T07:37:39Z</time><name>207</name><sym>Flag, Blue</sym></wpt><wpt lat="30.171225" lon="67.006410"><ele>1708.820923</ele><time>2025-08-20T07:39:05Z</time><name>208</name><sym>Flag, Blue</sym></wpt><wpt lat="30.171215" lon="67.006434"><ele>1708.365479</ele><time>2025-08-20T07:39:12Z</time><name>209</name><sym>Flag, Blue</sym></wpt><wpt lat="30.171061" lon="67.006255"><ele>1707.544067</ele><time>2025-08-20T07:43:11Z</time><name>210</name><sym>Flag, Blue</sym></wpt><wpt lat="30.170876" lon="67.006100"><ele>1707.416260</ele><time>2025-08-20T07:43:26Z</time><name>211</name><sym>Flag, Blue</sym></wpt><wpt lat="30.170873" lon="67.006109"><ele>1707.937988</ele><time>2025-08-20T07:43:32Z</time><name>212</name><sym>Flag, Blue</sym></wpt><wpt lat="30.170699" lon="67.005894"><ele>1707.519409</ele><time>2025-08-20T07:45:19Z</time><name>213</name><sym>Flag, Blue</sym></wpt><wpt lat="30.170490" lon="67.005708"><ele>1707.064575</ele><time>2025-08-20T07:45:32Z</time><name>214</name><sym>Flag, Blue</sym></wpt><wpt lat="30.170265" lon="67.005514"><ele>1707.101196</ele><time>2025-08-20T07:45:48Z</time><name>215</name><sym>Flag, Blue</sym></wpt><wpt lat="30.170038" lon="67.005314"><ele>1707.242065</ele><time>2025-08-20T07:46:01Z</time><name>216</name><sym>Flag, Blue</sym></wpt><wpt lat="30.169799" lon="67.005118"><ele>1707.546875</ele><time>2025-08-20T07:46:52Z</time><name>217</name><sym>Flag, Blue</sym></wpt><wpt lat="30.169805" lon="67.005132"><ele>1707.440063</ele><time>2025-08-20T07:46:59Z</time><name>218</name><sym>Flag, Blue</sym></wpt><wpt lat="30.169735" lon="67.005151"><ele>1707.477417</ele><time>2025-08-20T07:48:21Z</time><name>219</name><sym>Flag, Blue</sym></wpt><wpt lat="30.169660" lon="67.005294"><ele>1707.417358</ele><time>2025-08-20T07:48:47Z</time><name>220</name><sym>Flag, Blue</sym></wpt><wpt lat="30.169626" lon="67.005285"><ele>1708.012695</ele><time>2025-08-20T07:48:55Z</time><name>221</name><sym>Flag, Blue</sym></wpt><wpt lat="30.171043" lon="67.006569"><ele>1711.255859</ele><time>2025-08-20T07:56:59Z</time><name>222</name><sym>Flag, Blue</sym></wpt><wpt lat="30.170905" lon="67.006747"><ele>1711.092651</ele><time>2025-08-20T07:57:20Z</time><name>223</name><sym>Flag, Blue</sym></wpt><wpt lat="30.170753" lon="67.006952"><ele>1712.076660</ele><time>2025-08-20T07:57:35Z</time><name>224</name><sym>Flag, Blue</sym></wpt><wpt lat="30.170588" lon="67.007253"><ele>1712.084595</ele><time>2025-08-20T07:58:35Z</time><name>225</name><sym>Flag, Blue</sym></wpt><wpt lat="30.170427" lon="67.007160"><ele>1711.590576</ele><time>2025-08-20T08:02:08Z</time><name>226</name><sym>Flag, Blue</sym></wpt><wpt lat="30.170409" lon="67.007170"><ele>1711.650879</ele><time>2025-08-20T08:02:15Z</time><name>227</name><sym>Flag, Blue</sym></wpt><wpt lat="30.170383" lon="67.007105"><ele>1711.881714</ele><time>2025-08-20T08:02:54Z</time><name>228</name><sym>Flag, Blue</sym></wpt><wpt lat="30.170235" lon="67.006961"><ele>1711.361206</ele><time>2025-08-20T08:03:51Z</time><name>229</name><sym>Flag, Blue</sym></wpt><wpt lat="30.170210" lon="67.006939"><ele>1711.738159</ele><time>2025-08-20T08:04:00Z</time><name>230</name><sym>Flag, Blue</sym></wpt><wpt lat="30.170020" lon="67.006761"><ele>1711.937012</ele><time>2025-08-20T08:04:14Z</time><name>231</name><sym>Flag, Blue</sym></wpt><wpt lat="30.169801" lon="67.006570"><ele>1711.872681</ele><time>2025-08-20T08:04:35Z</time><name>232</name><sym>Flag, Blue</sym></wpt><wpt lat="30.169613" lon="67.006388"><ele>1712.566650</ele><time>2025-08-20T08:05:04Z</time><name>233</name><sym>Flag, Blue</sym></wpt><wpt lat="30.169393" lon="67.006149"><ele>1713.634521</ele><time>2025-08-20T08:07:56Z</time><name>234</name><sym>Flag, Blue</sym></wpt><wpt lat="30.169394" lon="67.006155"><ele>1714.024658</ele><time>2025-08-20T08:08:03Z</time><name>235</name><sym>Flag, Blue</sym></wpt><wpt lat="30.170394" lon="67.007500"><ele>1717.315308</ele><time>2025-08-20T08:12:02Z</time><name>236</name><sym>Flag, Blue</sym></wpt><wpt lat="30.170383" lon="67.007519"><ele>1717.448486</ele><time>2025-08-20T08:12:10Z</time><name>237</name><sym>Flag, Blue</sym></wpt><wpt lat="30.170265" lon="67.007682"><ele>1717.880249</ele><time>2025-08-20T08:16:18Z</time><name>238</name><sym>Flag, Blue</sym></wpt><wpt lat="30.170255" lon="67.007703"><ele>1717.871582</ele><time>2025-08-20T08:16:24Z</time><name>239</name><sym>Flag, Blue</sym></wpt><wpt lat="30.170024" lon="67.008016"><ele>1718.670044</ele><time>2025-08-20T08:16:44Z</time><name>240</name><sym>Flag, Blue</sym></wpt><wpt lat="30.169867" lon="67.008213"><ele>1719.135742</ele><time>2025-08-20T08:16:56Z</time><name>241</name><sym>Flag, Blue</sym></wpt><wpt lat="30.169553" lon="67.008388"><ele>1720.115967</ele><time>2025-08-20T08:17:28Z</time><name>242</name><sym>Flag, Blue</sym></wpt><wpt lat="30.169257" lon="67.008618"><ele>1720.809692</ele><time>2025-08-20T08:19:59Z</time><name>243</name><sym>Flag, Blue</sym></wpt><wpt lat="30.169249" lon="67.008604"><ele>1720.567017</ele><time>2025-08-20T08:20:11Z</time><name>244</name><sym>Flag, Blue</sym></wpt><wpt lat="30.168976" lon="67.008281"><ele>1721.261353</ele><time>2025-08-20T08:22:40Z</time><name>245</name><sym>Flag, Blue</sym></wpt><wpt lat="30.168688" lon="67.007917"><ele>1721.285400</ele><time>2025-08-20T08:23:03Z</time><name>246</name><sym>Flag, Blue</sym></wpt><wpt lat="30.169470" lon="67.008850"><ele>1722.112427</ele><time>2025-08-20T08:25:26Z</time><name>247</name><sym>Flag, Blue</sym></wpt><wpt lat="30.169706" lon="67.009244"><ele>1722.176392</ele><time>2025-08-20T08:26:10Z</time><name>248</name><sym>Flag, Blue</sym></wpt><wpt lat="30.169979" lon="67.009483"><ele>1722.583618</ele><time>2025-08-20T08:30:52Z</time><name>249</name><sym>Flag, Blue</sym></wpt><wpt lat="30.169975" lon="67.009504"><ele>1722.608521</ele><time>2025-08-20T08:30:59Z</time><name>250</name><sym>Flag, Blue</sym></wpt><wpt lat="30.169994" lon="67.009533"><ele>1723.135010</ele><time>2025-08-20T08:31:43Z</time><name>251</name><sym>Flag, Blue</sym></wpt><wpt lat="30.169781" lon="67.009234"><ele>1724.177490</ele><time>2025-08-20T08:37:32Z</time><name>252</name><sym>Flag, Blue</sym></wpt><wpt lat="30.169541" lon="67.009028"><ele>1724.784058</ele><time>2025-08-20T08:37:52Z</time><name>253</name><sym>Flag, Blue</sym></wpt><wpt lat="30.169225" lon="67.008579"><ele>1724.512329</ele><time>2025-08-20T08:38:29Z</time><name>254</name><sym>Flag, Blue</sym></wpt><wpt lat="30.169082" lon="67.008693"><ele>1725.716797</ele><time>2025-08-20T08:40:23Z</time><name>255</name><sym>Flag, Blue</sym></wpt><wpt lat="30.169068" lon="67.008704"><ele>1725.648438</ele><time>2025-08-20T08:40:30Z</time><name>256</name><sym>Flag, Blue</sym></wpt><wpt lat="30.168949" lon="67.008796"><ele>1725.252808</ele><time>2025-08-20T08:41:40Z</time><name>257</name><sym>Flag, Blue</sym></wpt><wpt lat="30.168957" lon="67.008788"><ele>1725.473022</ele><time>2025-08-20T08:41:46Z</time><name>258</name><sym>Flag, Blue</sym></wpt><wpt lat="30.168630" lon="67.009085"><ele>1725.749146</ele><time>2025-08-20T08:46:33Z</time><name>259</name><sym>Flag, Blue</sym></wpt><wpt lat="30.168208" lon="67.009430"><ele>1726.987793</ele><time>2025-08-20T08:47:00Z</time><name>260</name><sym>Flag, Blue</sym></wpt><wpt lat="30.168108" lon="67.009818"><ele>1727.330322</ele><time>2025-08-20T08:49:11Z</time><name>261</name><sym>Flag, Blue</sym></wpt><wpt lat="30.168030" lon="67.009926"><ele>1728.444458</ele><time>2025-08-20T08:49:25Z</time><name>262</name><sym>Flag, Blue</sym></wpt><wpt lat="30.168010" lon="67.009956"><ele>1727.908813</ele><time>2025-08-20T08:49:33Z</time><name>263</name><sym>Flag, Blue</sym></wpt><wpt lat="30.167816" lon="67.010201"><ele>1729.126221</ele><time>2025-08-20T08:50:05Z</time><name>264</name><sym>Flag, Blue</sym></wpt><wpt lat="30.167803" lon="67.010216"><ele>1729.245239</ele><time>2025-08-20T08:50:13Z</time><name>265</name><sym>Flag, Blue</sym></wpt><wpt lat="30.170237" lon="67.009719"><ele>1724.996338</ele><time>2025-08-20T10:14:19Z</time><name>266</name><sym>Flag, Blue</sym></wpt><wpt lat="30.170241" lon="67.009682"><ele>1724.288574</ele><time>2025-08-20T10:15:31Z</time><name>267</name><sym>Flag, Blue</sym></wpt><wpt lat="30.170483" lon="67.010041"><ele>1724.664551</ele><time>2025-08-20T10:16:50Z</time><name>268</name><sym>Flag, Blue</sym></wpt><wpt lat="30.170582" lon="67.010227"><ele>1724.396851</ele><time>2025-08-20T10:16:59Z</time><name>269</name><sym>Flag, Blue</sym></wpt><wpt lat="30.170758" lon="67.010575"><ele>1724.707031</ele><time>2025-08-20T10:17:24Z</time><name>270</name><sym>Flag, Blue</sym></wpt><wpt lat="30.170758" lon="67.010612"><ele>1724.756470</ele><time>2025-08-20T10:17:32Z</time><name>271</name><sym>Flag, Blue</sym></wpt><wpt lat="30.170749" lon="67.010600"><ele>1725.195801</ele><time>2025-08-20T10:17:38Z</time><name>272</name><sym>Flag, Blue</sym></wpt><wpt lat="30.170902" lon="67.010747"><ele>1724.811035</ele><time>2025-08-20T10:18:35Z</time><name>273</name><sym>Flag, Blue</sym></wpt><wpt lat="30.171036" lon="67.010990"><ele>1725.060303</ele><time>2025-08-20T10:18:55Z</time><name>274</name><sym>Flag, Blue</sym></wpt><wpt lat="30.171041" lon="67.010981"><ele>1725.096558</ele><time>2025-08-20T10:19:10Z</time><name>275</name><sym>Flag, Blue</sym></wpt><wpt lat="30.170867" lon="67.011214"><ele>1725.177246</ele><time>2025-08-20T10:20:21Z</time><name>276</name><sym>Flag, Blue</sym></wpt><wpt lat="30.170679" lon="67.011559"><ele>1725.519531</ele><time>2025-08-20T10:20:40Z</time><name>277</name><sym>Flag, Blue</sym></wpt><wpt lat="30.170675" lon="67.011527"><ele>1725.553955</ele><time>2025-08-20T10:20:45Z</time><name>278</name><sym>Flag, Blue</sym></wpt><wpt lat="30.171148" lon="67.011297"><ele>1724.028564</ele><time>2025-08-20T10:24:32Z</time><name>279</name><sym>Flag, Blue</sym></wpt><wpt lat="30.171237" lon="67.011234"><ele>1723.500244</ele><time>2025-08-20T10:24:49Z</time><name>280</name><sym>Flag, Blue</sym></wpt><wpt lat="30.171228" lon="67.011231"><ele>1723.778687</ele><time>2025-08-20T10:24:57Z</time><name>281</name><sym>Flag, Blue</sym></wpt><wpt lat="30.171465" lon="67.010969"><ele>1722.161743</ele><time>2025-08-20T10:25:26Z</time><name>282</name><sym>Flag, Blue</sym></wpt><wpt lat="30.171475" lon="67.010964"><ele>1722.378540</ele><time>2025-08-20T10:25:32Z</time><name>283</name><sym>Flag, Blue</sym></wpt><wpt lat="30.170865" lon="67.011700"><ele>1722.994507</ele><time>2025-08-20T10:32:06Z</time><name>284</name><sym>Flag, Blue</sym></wpt><wpt lat="30.170877" lon="67.011697"><ele>1722.881958</ele><time>2025-08-20T10:32:14Z</time><name>285</name><sym>Flag, Blue</sym></wpt><wpt lat="30.170673" lon="67.012193"><ele>1723.683594</ele><time>2025-08-20T10:32:42Z</time><name>286</name><sym>Flag, Blue</sym></wpt><wpt lat="30.170702" lon="67.012169"><ele>1723.814087</ele><time>2025-08-20T10:32:50Z</time><name>287</name><sym>Flag, Blue</sym></wpt><wpt lat="30.170408" lon="67.012660"><ele>1725.087891</ele><time>2025-08-20T10:35:12Z</time><name>288</name><sym>Flag, Blue</sym></wpt><wpt lat="30.170397" lon="67.012642"><ele>1724.943848</ele><time>2025-08-20T10:35:21Z</time><name>289</name><sym>Flag, Blue</sym></wpt><wpt lat="30.169959" lon="67.012820"><ele>1725.466187</ele><time>2025-08-20T10:36:42Z</time><name>290</name><sym>Flag, Blue</sym></wpt><wpt lat="30.169843" lon="67.012714"><ele>1725.756958</ele><time>2025-08-20T10:36:59Z</time><name>291</name><sym>Flag, Blue</sym></wpt><wpt lat="30.169881" lon="67.012688"><ele>1724.847412</ele><time>2025-08-20T10:38:05Z</time><name>292</name><sym>Flag, Blue</sym></wpt><wpt lat="30.169841" lon="67.012785"><ele>1724.621338</ele><time>2025-08-20T10:38:20Z</time><name>293</name><sym>Flag, Blue</sym></wpt><wpt lat="30.169441" lon="67.013020"><ele>1725.463745</ele><time>2025-08-20T10:38:37Z</time><name>294</name><sym>Flag, Blue</sym></wpt><wpt lat="30.169251" lon="67.013223"><ele>1725.918701</ele><time>2025-08-20T10:38:48Z</time><name>295</name><sym>Flag, Blue</sym></wpt><wpt lat="30.169025" lon="67.013488"><ele>1726.969116</ele><time>2025-08-20T10:39:00Z</time><name>296</name><sym>Flag, Blue</sym></wpt><wpt lat="30.168815" lon="67.013271"><ele>1726.640747</ele><time>2025-08-20T10:39:27Z</time><name>297</name><sym>Flag, Blue</sym></wpt><wpt lat="30.168809" lon="67.013259"><ele>1727.355103</ele><time>2025-08-20T10:39:33Z</time><name>298</name><sym>Flag, Blue</sym></wpt><wpt lat="30.168612" lon="67.013013"><ele>1726.786499</ele><time>2025-08-20T10:39:58Z</time><name>299</name><sym>Flag, Blue</sym></wpt><wpt lat="30.168476" lon="67.012886"><ele>1726.433594</ele><time>2025-08-20T10:40:14Z</time><name>300</name><sym>Flag, Blue</sym></wpt><wpt lat="30.168475" lon="67.012879"><ele>1726.613770</ele><time>2025-08-20T10:40:21Z</time><name>301</name><sym>Flag, Blue</sym></wpt></gpx>