<?xml version="1.0" encoding="UTF-8" standalone="no" ?><gpx xmlns="http://www.topografix.com/GPX/1/1" xmlns:gpxx="http://www.garmin.com/xmlschemas/GpxExtensions/v3" xmlns:wptx1="http://www.garmin.com/xmlschemas/WaypointExtension/v1" xmlns:gpxtpx="http://www.garmin.com/xmlschemas/TrackPointExtension/v1" creator="GPSMAP 78s" version="1.1" xmlns:xsi="http://www.w3.org/2001/XMLSchema-instance" xsi:schemaLocation="http://www.topografix.com/GPX/1/1 http://www.topografix.com/GPX/1/1/gpx.xsd http://www.garmin.com/xmlschemas/GpxExtensions/v3 http://www8.garmin.com/xmlschemas/GpxExtensionsv3.xsd http://www.garmin.com/xmlschemas/WaypointExtension/v1 http://www8.garmin.com/xmlschemas/WaypointExtensionv1.xsd http://www.garmin.com/xmlschemas/TrackPointExtension/v1 http://www.garmin.com/xmlschemas/TrackPointExtensionv1.xsd"><metadata><link href="http://www.garmin.com"><text>Garmin International</text></link><time>2020-09-17T05:20:02Z</time></metadata><wpt lat="33.978981" lon="71.496923"><ele>391.620789</ele><time>2020-09-17T05:20:02Z</time><name>132</name><sym>Flag, Blue</sym></wpt><wpt lat="33.978983" lon="71.496916"><ele>391.586151</ele><time>2020-09-17T05:20:05Z</time><name>133</name><sym>Flag, Blue</sym></wpt><wpt lat="33.978973" lon="71.496925"><ele>391.560486</ele><time>2020-09-17T05:20:09Z</time><name>134</name><sym>Flag, Blue</sym></wpt><wpt lat="33.978562" lon="71.497444"><ele>387.753876</ele><time>2020-09-17T05:24:55Z</time><name>135</name><sym>Flag, Blue</sym></wpt><wpt lat="33.978012" lon="71.498277"><ele>386.962128</ele><time>2020-09-17T05:26:39Z</time><name>136</name><sym>Flag, Blue</sym></wpt><wpt lat="33.977989" lon="71.498732"><ele>385.621490</ele><time>2020-09-17T05:29:32Z</time><name>137</name><sym>Flag, Blue</sym></wpt><wpt lat="33.977482" lon="71.498329"><ele>384.955963</ele><time>2020-09-17T05:30:40Z</time><name>138</name><sym>Flag, Blue</sym></wpt><wpt lat="33.977011" lon="71.498084"><ele>385.752655</ele><time>2020-09-17T05:31:07Z</time><name>139</name><sym>Flag, Blue</sym></wpt><wpt lat="33.976539" lon="71.497849"><ele>384.649261</ele><time>2020-09-17T05:31:45Z</time><name>140</name><sym>Flag, Blue</sym></wpt><wpt lat="33.976557" lon="71.497850"><ele>384.660767</ele><time>2020-09-17T05:31:48Z</time><name>141</name><sym>Flag, Blue</sym></wpt><wpt lat="33.976565" lon="71.497855"><ele>384.640045</ele><time>2020-09-17T05:31:51Z</time><name>142</name><sym>Flag, Blue</sym></wpt><wpt lat="33.976269" lon="71.497733"><ele>381.098755</ele><time>2020-09-17T05:34:32Z</time><name>143</name><sym>Flag, Blue</sym></wpt><wpt lat="33.975793" lon="71.497248"><ele>382.760712</ele><time>2020-09-17T05:35:04Z</time><name>144</name><sym>Flag, Blue</sym></wpt><wpt lat="33.975320" lon="71.497089"><ele>383.580139</ele><time>2020-09-17T05:36:20Z</time><name>145</name><sym>Flag, Blue</sym></wpt><wpt lat="33.974805" lon="71.496964"><ele>382.173431</ele><time>2020-09-17T05:36:48Z</time><name>146</name><sym>Flag, Blue</sym></wpt><wpt lat="33.974263" lon="71.496751"><ele>385.325226</ele><time>2020-09-17T05:37:27Z</time><name>147</name><sym>Flag, Blue</sym></wpt><wpt lat="33.974276" lon="71.496759"><ele>385.312592</ele><time>2020-09-17T05:37:30Z</time><name>148</name><sym>Flag, Blue</sym></wpt><wpt lat="33.974257" lon="71.496756"><ele>385.299896</ele><time>2020-09-17T05:37:33Z</time><name>149</name><sym>Flag, Blue</sym></wpt><wpt lat="33.973793" lon="71.496516"><ele>382.314484</ele><time>2020-09-17T05:41:05Z</time><name>150</name><sym>Flag, Blue</sym></wpt><wpt lat="33.973371" lon="71.497102"><ele>383.503937</ele><time>2020-09-17T05:42:50Z</time><name>151</name><sym>Flag, Blue</sym></wpt><wpt lat="33.972963" lon="71.497546"><ele>386.085602</ele><time>2020-09-17T05:44:08Z</time><name>152</name><sym>Flag, Blue</sym></wpt><wpt lat="33.972475" lon="71.498145"><ele>386.323853</ele><time>2020-09-17T05:46:08Z</time><name>153</name><sym>Flag, Blue</sym></wpt><wpt lat="33.972476" lon="71.498144"><ele>386.308319</ele><time>2020-09-17T05:46:12Z</time><name>154</name><sym>Flag, Blue</sym></wpt><wpt lat="33.972489" lon="71.498139"><ele>386.295013</ele><time>2020-09-17T05:46:15Z</time><name>155</name><sym>Flag, Blue</sym></wpt><wpt lat="33.971975" lon="71.498137"><ele>384.953674</ele><time>2020-09-17T05:51:52Z</time><name>156</name><sym>Flag, Blue</sym></wpt><wpt lat="33.971695" lon="71.498243"><ele>384.513000</ele><time>2020-09-17T05:52:16Z</time><name>157</name><sym>Flag, Blue</sym></wpt><wpt lat="33.971349" lon="71.498309"><ele>385.676483</ele><time>2020-09-17T05:52:46Z</time><name>158</name><sym>Flag, Blue</sym></wpt><wpt lat="33.970978" lon="71.498519"><ele>386.846191</ele><time>2020-09-17T05:53:09Z</time><name>159</name><sym>Flag, Blue</sym></wpt><wpt lat="33.970523" lon="71.498695"><ele>386.854218</ele><time>2020-09-17T05:53:37Z</time><name>160</name><sym>Flag, Blue</sym></wpt><wpt lat="33.970242" lon="71.499325"><ele>388.748260</ele><time>2020-09-17T05:54:11Z</time><name>161</name><sym>Flag, Blue</sym></wpt><wpt lat="33.969820" lon="71.499884"><ele>387.189819</ele><time>2020-09-17T05:55:30Z</time><name>162</name><sym>Flag, Blue</sym></wpt><wpt lat="33.969452" lon="71.500485"><ele>388.234497</ele><time>2020-09-17T05:55:58Z</time><name>163</name><sym>Flag, Blue</sym></wpt><wpt lat="33.969165" lon="71.501016"><ele>388.542206</ele><time>2020-09-17T05:56:23Z</time><name>164</name><sym>Flag, Blue</sym></wpt><wpt lat="33.968690" lon="71.501402"><ele>389.048523</ele><time>2020-09-17T05:56:57Z</time><name>165</name><sym>Flag, Blue</sym></wpt><wpt lat="33.968702" lon="71.501407"><ele>389.516144</ele><time>2020-09-17T05:57:05Z</time><name>166</name><sym>Flag, Blue</sym></wpt><wpt lat="33.968711" lon="71.501429"><ele>389.508667</ele><time>2020-09-17T05:57:10Z</time><name>167</name><sym>Flag, Blue</sym></wpt><wpt lat="33.968310" lon="71.501661"><ele>389.365906</ele><time>2020-09-17T06:08:40Z</time><name>168</name><sym>Flag, Blue</sym></wpt><wpt lat="33.968036" lon="71.501841"><ele>389.192749</ele><time>2020-09-17T06:09:05Z</time><name>169</name><sym>Flag, Blue</sym></wpt><wpt lat="33.967735" lon="71.501892"><ele>388.298645</ele><time>2020-09-17T06:09:37Z</time><name>170</name><sym>Flag, Blue</sym></wpt><wpt lat="33.967736" lon="71.501902"><ele>388.285767</ele><time>2020-09-17T06:09:41Z</time><name>171</name><sym>Flag, Blue</sym></wpt><wpt lat="33.967742" lon="71.501912"><ele>388.294037</ele><time>2020-09-17T06:09:44Z</time><name>172</name><sym>Flag, Blue</sym></wpt><wpt lat="33.977918" lon="71.499202"><ele>377.601410</ele><time>2020-09-17T06:42:30Z</time><name>173</name><sym>Flag, Blue</sym></wpt><wpt lat="33.977571" lon="71.499024"><ele>367.636475</ele><time>2020-09-17T06:43:18Z</time><name>174</name><sym>Flag, Blue</sym></wpt><wpt lat="33.976819" lon="71.500036"><ele>367.315643</ele><time>2020-09-17T06:45:44Z</time><name>175</name><sym>Flag, Blue</sym></wpt><wpt lat="33.976136" lon="71.501053"><ele>368.746735</ele><time>2020-09-17T06:47:45Z</time><name>176</name><sym>Flag, Blue</sym></wpt><wpt lat="33.975491" lon="71.502025"><ele>368.541473</ele><time>2020-09-17T06:51:56Z</time><name>177</name><sym>Flag, Blue</sym></wpt><wpt lat="33.975493" lon="71.502002"><ele>368.548492</ele><time>2020-09-17T06:52:01Z</time><name>178</name><sym>Flag, Blue</sym></wpt><wpt lat="33.975472" lon="71.502009"><ele>368.553223</ele><time>2020-09-17T06:52:07Z</time><name>179</name><sym>Flag, Blue</sym></wpt><wpt lat="33.974988" lon="71.502784"><ele>369.755524</ele><time>2020-09-17T06:56:45Z</time><name>180</name><sym>Flag, Blue</sym></wpt><wpt lat="33.974997" lon="71.502762"><ele>369.757202</ele><time>2020-09-17T06:56:51Z</time><name>181</name><sym>Flag, Blue</sym></wpt><wpt lat="33.974988" lon="71.502766"><ele>369.764618</ele><time>2020-09-17T06:56:56Z</time><name>182</name><sym>Flag, Blue</sym></wpt><wpt lat="33.975377" lon="71.503217"><ele>370.379639</ele><time>2020-09-17T07:00:29Z</time><name>183</name><sym>Flag, Blue</sym></wpt><wpt lat="33.975651" lon="71.503542"><ele>371.505463</ele><time>2020-09-17T07:00:43Z</time><name>184</name><sym>Flag, Blue</sym></wpt><wpt lat="33.975965" lon="71.503945"><ele>370.323242</ele><time>2020-09-17T07:00:58Z</time><name>185</name><sym>Flag, Blue</sym></wpt><wpt lat="33.976295" lon="71.504314"><ele>369.763092</ele><time>2020-09-17T07:01:23Z</time><name>186</name><sym>Flag, Blue</sym></wpt><wpt lat="33.976303" lon="71.504318"><ele>369.557068</ele><time>2020-09-17T07:01:49Z</time><name>187</name><sym>Flag, Blue</sym></wpt><wpt lat="33.976302" lon="71.504296"><ele>369.550842</ele><time>2020-09-17T07:01:54Z</time><name>188</name><sym>Flag, Blue</sym></wpt><wpt lat="33.976454" lon="71.504658"><ele>368.732422</ele><time>2020-09-17T07:03:56Z</time><name>189</name><sym>Flag, Blue</sym></wpt><wpt lat="33.976468" lon="71.504666"><ele>369.991302</ele><time>2020-09-17T07:04:26Z</time><name>190</name><sym>Flag, Blue</sym></wpt><wpt lat="33.976469" lon="71.504649"><ele>369.989410</ele><time>2020-09-17T07:04:33Z</time><name>191</name><sym>Flag, Blue</sym></wpt></gpx>