<?xml version="1.0" encoding="UTF-8" standalone="no" ?><gpx xmlns="http://www.topografix.com/GPX/1/1" xmlns:gpxx="http://www.garmin.com/xmlschemas/GpxExtensions/v3" xmlns:wptx1="http://www.garmin.com/xmlschemas/WaypointExtension/v1" xmlns:gpxtpx="http://www.garmin.com/xmlschemas/TrackPointExtension/v1" creator="GPSMAP 78s" version="1.1" xmlns:xsi="http://www.w3.org/2001/XMLSchema-instance" xsi:schemaLocation="http://www.topografix.com/GPX/1/1 http://www.topografix.com/GPX/1/1/gpx.xsd http://www.garmin.com/xmlschemas/GpxExtensions/v3 http://www8.garmin.com/xmlschemas/GpxExtensionsv3.xsd http://www.garmin.com/xmlschemas/WaypointExtension/v1 http://www8.garmin.com/xmlschemas/WaypointExtensionv1.xsd http://www.garmin.com/xmlschemas/TrackPointExtension/v1 http://www.garmin.com/xmlschemas/TrackPointExtensionv1.xsd"><metadata><link href="http://www.garmin.com"><text>Garmin International</text></link><time>2020-02-18T05:00:40Z</time></metadata><wpt lat="33.975476" lon="71.502019"><ele>359.447754</ele><time>2020-02-18T05:00:40Z</time><name>064</name><sym>Flag, Blue</sym></wpt><wpt lat="33.974988" lon="71.502779"><ele>371.783295</ele><time>2020-02-18T05:10:12Z</time><name>065</name><sym>Flag, Blue</sym></wpt><wpt lat="33.974680" lon="71.502423"><ele>372.858002</ele><time>2020-02-18T05:17:44Z</time><name>066</name><sym>Flag, Blue</sym></wpt><wpt lat="33.974432" lon="71.502079"><ele>374.407043</ele><time>2020-02-18T05:19:38Z</time><name>067</name><sym>Flag, Blue</sym></wpt><wpt lat="33.974165" lon="71.501717"><ele>373.099976</ele><time>2020-02-18T05:20:55Z</time><name>068</name><sym>Flag, Blue</sym></wpt><wpt lat="33.974025" lon="71.501324"><ele>374.996826</ele><time>2020-02-18T05:22:28Z</time><name>069</name><sym>Flag, Blue</sym></wpt><wpt lat="33.974182" lon="71.501741"><ele>375.802917</ele><time>2020-02-18T05:32:55Z</time><name>070</name><sym>Flag, Blue</sym></wpt><wpt lat="33.973454" lon="71.500483"><ele>376.124329</ele><time>2020-02-18T06:15:31Z</time><name>071</name><sym>Flag, Blue</sym></wpt><wpt lat="33.973765" lon="71.500938"><ele>376.827637</ele><time>2020-02-18T06:22:27Z</time><name>072</name><sym>Flag, Blue</sym></wpt><wpt lat="33.973454" lon="71.500477"><ele>373.601379</ele><time>2020-02-18T06:23:59Z</time><name>073</name><sym>Flag, Blue</sym></wpt><wpt lat="33.973261" lon="71.499915"><ele>378.672760</ele><time>2020-02-18T06:25:37Z</time><name>074</name><sym>Flag, Blue</sym></wpt><wpt lat="33.976420" lon="71.504673"><ele>372.122681</ele><time>2020-02-18T06:31:17Z</time><name>075</name><sym>Flag, Blue</sym></wpt><wpt lat="33.976047" lon="71.504962"><ele>374.298920</ele><time>2020-02-18T06:33:31Z</time><name>076</name><sym>Flag, Blue</sym></wpt><wpt lat="33.975943" lon="71.504679"><ele>372.336975</ele><time>2020-02-18T06:34:58Z</time><name>077</name><sym>Flag, Blue</sym></wpt><wpt lat="33.976276" lon="71.504353"><ele>374.692657</ele><time>2020-02-18T06:46:59Z</time><name>078</name><sym>Flag, Blue</sym></wpt><wpt lat="33.975985" lon="71.503946"><ele>375.196320</ele><time>2020-02-18T06:50:22Z</time><name>079</name><sym>Flag, Blue</sym></wpt><wpt lat="33.975656" lon="71.503532"><ele>375.012329</ele><time>2020-02-18T06:51:49Z</time><name>080</name><sym>Flag, Blue</sym></wpt><wpt lat="33.975375" lon="71.503196"><ele>376.940857</ele><time>2020-02-18T06:53:27Z</time><name>081</name><sym>Flag, Blue</sym></wpt><wpt lat="33.973661" lon="71.505800"><ele>377.790009</ele><time>2020-02-18T06:57:24Z</time><name>082</name><sym>Flag, Blue</sym></wpt><wpt lat="33.973828" lon="71.505552"><ele>378.161194</ele><time>2020-02-18T06:58:19Z</time><name>083</name><sym>Flag, Blue</sym></wpt><wpt lat="33.973415" lon="71.506102"><ele>368.844025</ele><time>2020-02-18T07:09:27Z</time><name>084</name><sym>Flag, Blue</sym></wpt><wpt lat="33.973083" lon="71.506364"><ele>372.525665</ele><time>2020-02-18T07:10:56Z</time><name>085</name><sym>Flag, Blue</sym></wpt><wpt lat="33.972669" lon="71.506843"><ele>373.647797</ele><time>2020-02-18T07:14:06Z</time><name>086</name><sym>Flag, Blue</sym></wpt><wpt lat="33.972402" lon="71.506583"><ele>375.047119</ele><time>2020-02-18T07:15:53Z</time><name>087</name><sym>Flag, Blue</sym></wpt><wpt lat="33.971201" lon="71.508342"><ele>377.462463</ele><time>2020-02-18T07:20:09Z</time><name>088</name><sym>Flag, Blue</sym></wpt><wpt lat="33.970838" lon="71.508232"><ele>378.362152</ele><time>2020-02-18T07:26:35Z</time><name>089</name><sym>Flag, Blue</sym></wpt><wpt lat="33.971125" lon="71.507650"><ele>377.877472</ele><time>2020-02-18T07:30:02Z</time><name>090</name><sym>Flag, Blue</sym></wpt><wpt lat="33.970680" lon="71.507282"><ele>377.639191</ele><time>2020-02-18T07:31:41Z</time><name>091</name><sym>Flag, Blue</sym></wpt><wpt lat="33.970209" lon="71.506775"><ele>380.651367</ele><time>2020-02-18T07:32:59Z</time><name>092</name><sym>Flag, Blue</sym></wpt><wpt lat="33.970830" lon="71.508208"><ele>379.007019</ele><time>2020-02-18T07:37:29Z</time><name>093</name><sym>Flag, Blue</sym></wpt><wpt lat="33.971522" lon="71.508357"><ele>378.947479</ele><time>2020-02-18T07:39:25Z</time><name>094</name><sym>Flag, Blue</sym></wpt><wpt lat="33.971502" lon="71.508341"><ele>380.088196</ele><time>2020-02-18T07:39:42Z</time><name>095</name><sym>Flag, Blue</sym></wpt><wpt lat="33.971506" lon="71.508348"><ele>379.846649</ele><time>2020-02-18T07:47:07Z</time><name>096</name><sym>Flag, Blue</sym></wpt><wpt lat="33.972291" lon="71.508366"><ele>379.574432</ele><time>2020-02-18T07:50:36Z</time><name>097</name><sym>Flag, Blue</sym></wpt><wpt lat="33.970525" lon="71.507989"><ele>382.585968</ele><time>2020-02-18T07:54:53Z</time><name>098</name><sym>Flag, Blue</sym></wpt><wpt lat="33.970350" lon="71.508511"><ele>383.226410</ele><time>2020-02-18T07:57:11Z</time><name>099</name><sym>Flag, Blue</sym></wpt><wpt lat="33.970004" lon="71.509099"><ele>384.065796</ele><time>2020-02-18T07:58:56Z</time><name>100</name><sym>Flag, Blue</sym></wpt><wpt lat="33.969832" lon="71.506987"><ele>387.474731</ele><time>2020-02-18T08:20:37Z</time><name>101</name><sym>Flag, Blue</sym></wpt><wpt lat="33.970051" lon="71.507422"><ele>386.260895</ele><time>2020-02-18T08:23:53Z</time><name>102</name><sym>Flag, Blue</sym></wpt><wpt lat="33.969624" lon="71.506598"><ele>388.529602</ele><time>2020-02-18T08:26:53Z</time><name>103</name><sym>Flag, Blue</sym></wpt><wpt lat="33.969334" lon="71.506511"><ele>388.900726</ele><time>2020-02-18T08:29:47Z</time><name>104</name><sym>Flag, Blue</sym></wpt><wpt lat="33.969128" lon="71.506396"><ele>389.358612</ele><time>2020-02-18T08:33:01Z</time><name>105</name><sym>Flag, Blue</sym></wpt><wpt lat="33.969059" lon="71.506365"><ele>389.196014</ele><time>2020-02-18T08:33:41Z</time><name>106</name><sym>Flag, Blue</sym></wpt><wpt lat="33.968831" lon="71.506581"><ele>389.512848</ele><time>2020-02-18T08:34:50Z</time><name>107</name><sym>Flag, Blue</sym></wpt><wpt lat="33.969123" lon="71.506418"><ele>389.103424</ele><time>2020-02-18T08:36:03Z</time><name>108</name><sym>Flag, Blue</sym></wpt><wpt lat="33.969803" lon="71.506031"><ele>388.646240</ele><time>2020-02-18T08:39:41Z</time><name>109</name><sym>Flag, Blue</sym></wpt><wpt lat="33.970132" lon="71.505882"><ele>386.942139</ele><time>2020-02-18T08:40:52Z</time><name>110</name><sym>Flag, Blue</sym></wpt><wpt lat="33.970382" lon="71.505607"><ele>386.573547</ele><time>2020-02-18T08:42:05Z</time><name>111</name><sym>Flag, Blue</sym></wpt><wpt lat="33.968126" lon="71.506094"><ele>389.388947</ele><time>2020-02-18T08:45:50Z</time><name>112</name><sym>Flag, Blue</sym></wpt><wpt lat="33.967673" lon="71.505881"><ele>391.270142</ele><time>2020-02-18T08:47:14Z</time><name>113</name><sym>Flag, Blue</sym></wpt><wpt lat="33.970613" lon="71.509367"><ele>383.367401</ele><time>2020-02-18T08:52:42Z</time><name>114</name><sym>Flag, Blue</sym></wpt><wpt lat="33.970363" lon="71.509594"><ele>379.185181</ele><time>2020-02-18T08:55:28Z</time><name>115</name><sym>Flag, Blue</sym></wpt></gpx>