<?xml version="1.0" encoding="UTF-8" standalone="no" ?><gpx xmlns="http://www.topografix.com/GPX/1/1" xmlns:gpxx="http://www.garmin.com/xmlschemas/GpxExtensions/v3" xmlns:wptx1="http://www.garmin.com/xmlschemas/WaypointExtension/v1" xmlns:gpxtpx="http://www.garmin.com/xmlschemas/TrackPointExtension/v1" creator="GPSMAP 78s" version="1.1" xmlns:xsi="http://www.w3.org/2001/XMLSchema-instance" xsi:schemaLocation="http://www.topografix.com/GPX/1/1 http://www.topografix.com/GPX/1/1/gpx.xsd http://www.garmin.com/xmlschemas/GpxExtensions/v3 http://www8.garmin.com/xmlschemas/GpxExtensionsv3.xsd http://www.garmin.com/xmlschemas/WaypointExtension/v1 http://www8.garmin.com/xmlschemas/WaypointExtensionv1.xsd http://www.garmin.com/xmlschemas/TrackPointExtension/v1 http://www.garmin.com/xmlschemas/TrackPointExtensionv1.xsd"><metadata><link href="http://www.garmin.com"><text>Garmin International</text></link><time>2020-02-25T04:45:52Z</time></metadata><wpt lat="33.975041" lon="71.507191"><ele>365.398285</ele><time>2020-02-25T04:45:52Z</time><name>162</name><sym>Flag, Blue</sym></wpt><wpt lat="33.975058" lon="71.507579"><ele>367.075012</ele><time>2020-02-25T04:47:28Z</time><name>163</name><sym>Flag, Blue</sym></wpt><wpt lat="33.975394" lon="71.507623"><ele>367.839752</ele><time>2020-02-25T04:48:49Z</time><name>164</name><sym>Flag, Blue</sym></wpt><wpt lat="33.975733" lon="71.507651"><ele>368.742554</ele><time>2020-02-25T04:49:43Z</time><name>165</name><sym>Flag, Blue</sym></wpt><wpt lat="33.974763" lon="71.507602"><ele>373.647736</ele><time>2020-02-25T04:56:11Z</time><name>166</name><sym>Flag, Blue</sym></wpt><wpt lat="33.975003" lon="71.506810"><ele>375.941010</ele><time>2020-02-25T05:02:24Z</time><name>167</name><sym>Flag, Blue</sym></wpt><wpt lat="33.974882" lon="71.506420"><ele>375.239288</ele><time>2020-02-25T05:03:41Z</time><name>168</name><sym>Flag, Blue</sym></wpt><wpt lat="33.974781" lon="71.506012"><ele>373.869873</ele><time>2020-02-25T05:04:41Z</time><name>169</name><sym>Flag, Blue</sym></wpt><wpt lat="33.974814" lon="71.506750"><ele>373.686249</ele><time>2020-02-25T05:06:20Z</time><name>170</name><sym>Flag, Blue</sym></wpt><wpt lat="33.975339" lon="71.506528"><ele>373.042847</ele><time>2020-02-25T05:08:31Z</time><name>171</name><sym>Flag, Blue</sym></wpt><wpt lat="33.975353" lon="71.506250"><ele>372.984802</ele><time>2020-02-25T05:10:14Z</time><name>172</name><sym>Flag, Blue</sym></wpt><wpt lat="33.975524" lon="71.506506"><ele>372.979919</ele><time>2020-02-25T05:12:16Z</time><name>173</name><sym>Flag, Blue</sym></wpt><wpt lat="33.974366" lon="71.507562"><ele>373.557404</ele><time>2020-02-25T05:17:58Z</time><name>174</name><sym>Flag, Blue</sym></wpt><wpt lat="33.974171" lon="71.507531"><ele>372.322357</ele><time>2020-02-25T05:19:15Z</time><name>175</name><sym>Flag, Blue</sym></wpt><wpt lat="33.973836" lon="71.507498"><ele>375.288177</ele><time>2020-02-25T05:20:08Z</time><name>176</name><sym>Flag, Blue</sym></wpt><wpt lat="33.974749" lon="71.508038"><ele>376.027466</ele><time>2020-02-25T05:27:08Z</time><name>177</name><sym>Flag, Blue</sym></wpt><wpt lat="33.975096" lon="71.508020"><ele>375.680634</ele><time>2020-02-25T05:29:09Z</time><name>178</name><sym>Flag, Blue</sym></wpt><wpt lat="33.975653" lon="71.508066"><ele>374.648163</ele><time>2020-02-25T05:31:37Z</time><name>179</name><sym>Flag, Blue</sym></wpt><wpt lat="33.974405" lon="71.507989"><ele>374.609833</ele><time>2020-02-25T05:37:35Z</time><name>180</name><sym>Flag, Blue</sym></wpt><wpt lat="33.974412" lon="71.508543"><ele>376.317505</ele><time>2020-02-25T05:39:41Z</time><name>181</name><sym>Flag, Blue</sym></wpt><wpt lat="33.974144" lon="71.508577"><ele>376.026001</ele><time>2020-02-25T05:41:25Z</time><name>182</name><sym>Flag, Blue</sym></wpt><wpt lat="33.978691" lon="71.507679"><ele>372.023438</ele><time>2020-02-25T05:46:43Z</time><name>183</name><sym>Flag, Blue</sym></wpt><wpt lat="33.978710" lon="71.507440"><ele>372.087036</ele><time>2020-02-25T05:48:54Z</time><name>184</name><sym>Flag, Blue</sym></wpt><wpt lat="33.978164" lon="71.507697"><ele>369.534943</ele><time>2020-02-25T05:53:17Z</time><name>185</name><sym>Flag, Blue</sym></wpt><wpt lat="33.977804" lon="71.507782"><ele>368.846161</ele><time>2020-02-25T05:54:39Z</time><name>186</name><sym>Flag, Blue</sym></wpt><wpt lat="33.978577" lon="71.508620"><ele>369.197723</ele><time>2020-02-25T05:59:09Z</time><name>187</name><sym>Flag, Blue</sym></wpt><wpt lat="33.978235" lon="71.508579"><ele>369.019714</ele><time>2020-02-25T06:01:01Z</time><name>188</name><sym>Flag, Blue</sym></wpt><wpt lat="33.978058" lon="71.509119"><ele>369.551300</ele><time>2020-02-25T06:03:55Z</time><name>189</name><sym>Flag, Blue</sym></wpt><wpt lat="33.977476" lon="71.509944"><ele>371.924042</ele><time>2020-02-25T06:12:08Z</time><name>190</name><sym>Flag, Blue</sym></wpt><wpt lat="33.977202" lon="71.508811"><ele>372.222351</ele><time>2020-02-25T06:17:10Z</time><name>191</name><sym>Flag, Blue</sym></wpt><wpt lat="33.976822" lon="71.508906"><ele>371.708710</ele><time>2020-02-25T06:19:58Z</time><name>192</name><sym>Flag, Blue</sym></wpt><wpt lat="33.977515" lon="71.508754"><ele>372.717621</ele><time>2020-02-25T06:22:23Z</time><name>193</name><sym>Flag, Blue</sym></wpt><wpt lat="33.977645" lon="71.508672"><ele>373.047943</ele><time>2020-02-25T06:23:37Z</time><name>194</name><sym>Flag, Blue</sym></wpt><wpt lat="33.977806" lon="71.508696"><ele>373.011871</ele><time>2020-02-25T06:26:11Z</time><name>195</name><sym>Flag, Blue</sym></wpt><wpt lat="33.978216" lon="71.508577"><ele>373.374023</ele><time>2020-02-25T06:28:01Z</time><name>196</name><sym>Flag, Blue</sym></wpt><wpt lat="33.977582" lon="71.509298"><ele>373.839752</ele><time>2020-02-25T06:31:51Z</time><name>197</name><sym>Flag, Blue</sym></wpt><wpt lat="33.978621" lon="71.509069"><ele>374.662323</ele><time>2020-02-25T06:36:38Z</time><name>198</name><sym>Flag, Blue</sym></wpt><wpt lat="33.983393" lon="71.499779"><ele>373.961456</ele><time>2020-02-25T06:42:19Z</time><name>199</name><sym>Flag, Blue</sym></wpt><wpt lat="33.983433" lon="71.499795"><ele>374.256805</ele><time>2020-02-25T06:43:12Z</time><name>200</name><sym>Flag, Blue</sym></wpt><wpt lat="33.983386" lon="71.500258"><ele>373.085754</ele><time>2020-02-25T06:45:33Z</time><name>201</name><sym>Flag, Blue</sym></wpt><wpt lat="33.983312" lon="71.500470"><ele>374.234833</ele><time>2020-02-25T06:47:13Z</time><name>202</name><sym>Flag, Blue</sym></wpt><wpt lat="33.983382" lon="71.500614"><ele>373.651184</ele><time>2020-02-25T06:49:04Z</time><name>203</name><sym>Flag, Blue</sym></wpt><wpt lat="33.984506" lon="71.500674"><ele>373.725128</ele><time>2020-02-25T06:59:17Z</time><name>204</name><sym>Flag, Blue</sym></wpt><wpt lat="33.984502" lon="71.500618"><ele>375.543457</ele><time>2020-02-25T07:03:07Z</time><name>205</name><sym>Flag, Blue</sym></wpt><wpt lat="33.984114" lon="71.500364"><ele>373.641235</ele><time>2020-02-25T07:05:03Z</time><name>206</name><sym>Flag, Blue</sym></wpt><wpt lat="33.983874" lon="71.499950"><ele>375.856354</ele><time>2020-02-25T07:06:44Z</time><name>207</name><sym>Flag, Blue</sym></wpt><wpt lat="33.985133" lon="71.499700"><ele>374.558563</ele><time>2020-02-25T07:10:52Z</time><name>208</name><sym>Flag, Blue</sym></wpt><wpt lat="33.985379" lon="71.499437"><ele>373.783142</ele><time>2020-02-25T07:12:48Z</time><name>209</name><sym>Flag, Blue</sym></wpt><wpt lat="33.984827" lon="71.500173"><ele>371.904480</ele><time>2020-02-25T07:17:28Z</time><name>210</name><sym>Flag, Blue</sym></wpt><wpt lat="33.984497" lon="71.500806"><ele>372.776337</ele><time>2020-02-25T07:21:00Z</time><name>211</name><sym>Flag, Blue</sym></wpt><wpt lat="33.984761" lon="71.501043"><ele>372.398071</ele><time>2020-02-25T07:22:03Z</time><name>212</name><sym>Flag, Blue</sym></wpt><wpt lat="33.985004" lon="71.501200"><ele>373.751068</ele><time>2020-02-25T07:24:20Z</time><name>213</name><sym>Flag, Blue</sym></wpt><wpt lat="33.985183" lon="71.500853"><ele>374.712433</ele><time>2020-02-25T07:24:55Z</time><name>214</name><sym>Flag, Blue</sym></wpt><wpt lat="33.985246" lon="71.501440"><ele>372.803406</ele><time>2020-02-25T07:26:43Z</time><name>215</name><sym>Flag, Blue</sym></wpt><wpt lat="33.985585" lon="71.501408"><ele>373.501282</ele><time>2020-02-25T07:29:43Z</time><name>216</name><sym>Flag, Blue</sym></wpt><wpt lat="33.985574" lon="71.501239"><ele>374.507904</ele><time>2020-02-25T07:32:04Z</time><name>217</name><sym>Flag, Blue</sym></wpt><wpt lat="33.985608" lon="71.500692"><ele>375.054047</ele><time>2020-02-25T07:32:56Z</time><name>218</name><sym>Flag, Blue</sym></wpt><wpt lat="33.985652" lon="71.500523"><ele>374.453766</ele><time>2020-02-25T07:34:25Z</time><name>219</name><sym>Flag, Blue</sym></wpt><wpt lat="33.985930" lon="71.500781"><ele>373.410065</ele><time>2020-02-25T07:36:39Z</time><name>220</name><sym>Flag, Blue</sym></wpt><wpt lat="33.986670" lon="71.502024"><ele>372.503967</ele><time>2020-02-25T07:40:13Z</time><name>221</name><sym>Flag, Blue</sym></wpt><wpt lat="33.986187" lon="71.501881"><ele>371.877686</ele><time>2020-02-25T07:43:16Z</time><name>222</name><sym>Flag, Blue</sym></wpt><wpt lat="33.985694" lon="71.501731"><ele>370.529236</ele><time>2020-02-25T07:47:40Z</time><name>223</name><sym>Flag, Blue</sym></wpt><wpt lat="33.985639" lon="71.501637"><ele>369.953491</ele><time>2020-02-25T07:48:18Z</time><name>224</name><sym>Flag, Blue</sym></wpt><wpt lat="33.986904" lon="71.501511"><ele>370.999969</ele><time>2020-02-25T07:53:14Z</time><name>225</name><sym>Flag, Blue</sym></wpt><wpt lat="33.987259" lon="71.501102"><ele>370.892517</ele><time>2020-02-25T07:56:22Z</time><name>226</name><sym>Flag, Blue</sym></wpt><wpt lat="33.986952" lon="71.501502"><ele>370.960785</ele><time>2020-02-25T07:58:20Z</time><name>227</name><sym>Flag, Blue</sym></wpt><wpt lat="33.986750" lon="71.501740"><ele>370.915405</ele><time>2020-02-25T08:01:11Z</time><name>228</name><sym>Flag, Blue</sym></wpt><wpt lat="33.987477" lon="71.500843"><ele>371.114960</ele><time>2020-02-25T08:04:54Z</time><name>229</name><sym>Flag, Blue</sym></wpt><wpt lat="33.987663" lon="71.500559"><ele>370.813873</ele><time>2020-02-25T08:06:02Z</time><name>230</name><sym>Flag, Blue</sym></wpt><wpt lat="33.987838" lon="71.500338"><ele>371.689728</ele><time>2020-02-25T08:07:25Z</time><name>231</name><sym>Flag, Blue</sym></wpt><wpt lat="33.988048" lon="71.500047"><ele>370.682465</ele><time>2020-02-25T08:09:25Z</time><name>232</name><sym>Flag, Blue</sym></wpt></gpx>