<?xml version="1.0" encoding="UTF-8" standalone="no" ?><gpx xmlns="http://www.topografix.com/GPX/1/1" xmlns:gpxx="http://www.garmin.com/xmlschemas/GpxExtensions/v3" xmlns:wptx1="http://www.garmin.com/xmlschemas/WaypointExtension/v1" xmlns:gpxtpx="http://www.garmin.com/xmlschemas/TrackPointExtension/v1" creator="GPSMAP 78s" version="1.1" xmlns:xsi="http://www.w3.org/2001/XMLSchema-instance" xsi:schemaLocation="http://www.topografix.com/GPX/1/1 http://www.topografix.com/GPX/1/1/gpx.xsd http://www.garmin.com/xmlschemas/GpxExtensions/v3 http://www8.garmin.com/xmlschemas/GpxExtensionsv3.xsd http://www.garmin.com/xmlschemas/WaypointExtension/v1 http://www8.garmin.com/xmlschemas/WaypointExtensionv1.xsd http://www.garmin.com/xmlschemas/TrackPointExtension/v1 http://www.garmin.com/xmlschemas/TrackPointExtensionv1.xsd"><metadata><link href="http://www.garmin.com"><text>Garmin International</text></link><time>2022-09-15T04:49:37Z</time></metadata><wpt lat="33.988632" lon="71.456194"><ele>405.006470</ele><time>2022-09-15T04:49:37Z</time><name>185</name><sym>Flag, Blue</sym></wpt><wpt lat="33.988619" lon="71.456199"><ele>404.837677</ele><time>2022-09-15T04:50:05Z</time><name>186</name><sym>Flag, Blue</sym></wpt><wpt lat="33.988605" lon="71.456185"><ele>404.805908</ele><time>2022-09-15T04:50:09Z</time><name>187</name><sym>Flag, Blue</sym></wpt><wpt lat="33.988786" lon="71.455781"><ele>399.727600</ele><time>2022-09-15T04:54:28Z</time><name>188</name><sym>Flag, Blue</sym></wpt><wpt lat="33.988974" lon="71.455438"><ele>400.406555</ele><time>2022-09-15T04:55:42Z</time><name>189</name><sym>Flag, Blue</sym></wpt><wpt lat="33.989248" lon="71.455007"><ele>398.498566</ele><time>2022-09-15T04:56:56Z</time><name>190</name><sym>Flag, Blue</sym></wpt><wpt lat="33.989569" lon="71.454512"><ele>398.122650</ele><time>2022-09-15T04:58:22Z</time><name>191</name><sym>Flag, Blue</sym></wpt><wpt lat="33.988339" lon="71.456061"><ele>399.932190</ele><time>2022-09-15T05:02:31Z</time><name>192</name><sym>Flag, Blue</sym></wpt><wpt lat="33.988323" lon="71.456064"><ele>402.520844</ele><time>2022-09-15T05:03:40Z</time><name>193</name><sym>Flag, Blue</sym></wpt><wpt lat="33.988314" lon="71.456039"><ele>402.504761</ele><time>2022-09-15T05:03:44Z</time><name>194</name><sym>Flag, Blue</sym></wpt><wpt lat="33.988180" lon="71.455945"><ele>401.543091</ele><time>2022-09-15T05:05:24Z</time><name>195</name><sym>Flag, Blue</sym></wpt><wpt lat="33.988007" lon="71.456401"><ele>398.610901</ele><time>2022-09-15T05:07:35Z</time><name>196</name><sym>Flag, Blue</sym></wpt><wpt lat="33.987825" lon="71.456825"><ele>396.900940</ele><time>2022-09-15T05:08:51Z</time><name>197</name><sym>Flag, Blue</sym></wpt><wpt lat="33.987740" lon="71.455693"><ele>397.982697</ele><time>2022-09-15T05:12:44Z</time><name>198</name><sym>Flag, Blue</sym></wpt><wpt lat="33.987841" lon="71.455619"><ele>395.878815</ele><time>2022-09-15T05:15:19Z</time><name>199</name><sym>Flag, Blue</sym></wpt><wpt lat="33.987837" lon="71.455610"><ele>395.896545</ele><time>2022-09-15T05:15:23Z</time><name>200</name><sym>Flag, Blue</sym></wpt><wpt lat="33.988353" lon="71.455532"><ele>396.686340</ele><time>2022-09-15T05:19:16Z</time><name>201</name><sym>Flag, Blue</sym></wpt><wpt lat="33.988557" lon="71.455123"><ele>396.243744</ele><time>2022-09-15T05:20:26Z</time><name>202</name><sym>Flag, Blue</sym></wpt><wpt lat="33.988806" lon="71.454670"><ele>399.254822</ele><time>2022-09-15T05:23:10Z</time><name>203</name><sym>Flag, Blue</sym></wpt><wpt lat="33.987600" lon="71.456146"><ele>394.619110</ele><time>2022-09-15T05:26:56Z</time><name>204</name><sym>Flag, Blue</sym></wpt><wpt lat="33.987429" lon="71.456593"><ele>396.272766</ele><time>2022-09-15T05:28:16Z</time><name>205</name><sym>Flag, Blue</sym></wpt><wpt lat="33.987229" lon="71.457065"><ele>394.732422</ele><time>2022-09-15T05:29:19Z</time><name>206</name><sym>Flag, Blue</sym></wpt><wpt lat="33.987946" lon="71.455254"><ele>392.361145</ele><time>2022-09-15T05:32:32Z</time><name>207</name><sym>Flag, Blue</sym></wpt><wpt lat="33.988155" lon="71.454745"><ele>395.598785</ele><time>2022-09-15T05:33:58Z</time><name>208</name><sym>Flag, Blue</sym></wpt><wpt lat="33.988549" lon="71.454260"><ele>395.670135</ele><time>2022-09-15T05:35:59Z</time><name>209</name><sym>Flag, Blue</sym></wpt><wpt lat="33.988729" lon="71.454019"><ele>395.921356</ele><time>2022-09-15T05:37:02Z</time><name>210</name><sym>Flag, Blue</sym></wpt><wpt lat="33.988900" lon="71.453849"><ele>395.014099</ele><time>2022-09-15T05:38:15Z</time><name>211</name><sym>Flag, Blue</sym></wpt><wpt lat="33.989105" lon="71.454364"><ele>391.626617</ele><time>2022-09-15T05:41:11Z</time><name>212</name><sym>Flag, Blue</sym></wpt><wpt lat="33.988904" lon="71.454643"><ele>392.874084</ele><time>2022-09-15T05:44:19Z</time><name>213</name><sym>Flag, Blue</sym></wpt><wpt lat="33.988925" lon="71.454650"><ele>394.224945</ele><time>2022-09-15T05:44:27Z</time><name>214</name><sym>Flag, Blue</sym></wpt><wpt lat="33.987325" lon="71.455464"><ele>398.081299</ele><time>2022-09-15T05:53:58Z</time><name>215</name><sym>Flag, Blue</sym></wpt><wpt lat="33.987283" lon="71.455444"><ele>399.548370</ele><time>2022-09-15T05:54:15Z</time><name>216</name><sym>Flag, Blue</sym></wpt><wpt lat="33.987284" lon="71.455430"><ele>399.529541</ele><time>2022-09-15T05:54:21Z</time><name>217</name><sym>Flag, Blue</sym></wpt><wpt lat="33.987142" lon="71.455910"><ele>396.570953</ele><time>2022-09-15T06:02:27Z</time><name>218</name><sym>Flag, Blue</sym></wpt><wpt lat="33.987056" lon="71.456349"><ele>398.592926</ele><time>2022-09-15T06:03:44Z</time><name>219</name><sym>Flag, Blue</sym></wpt><wpt lat="33.986815" lon="71.456791"><ele>400.147858</ele><time>2022-09-15T06:05:05Z</time><name>220</name><sym>Flag, Blue</sym></wpt><wpt lat="33.986851" lon="71.455184"><ele>398.269012</ele><time>2022-09-15T06:08:50Z</time><name>221</name><sym>Flag, Blue</sym></wpt><wpt lat="33.986841" lon="71.455151"><ele>399.543121</ele><time>2022-09-15T06:09:45Z</time><name>222</name><sym>Flag, Blue</sym></wpt><wpt lat="33.986833" lon="71.455145"><ele>399.533081</ele><time>2022-09-15T06:09:48Z</time><name>223</name><sym>Flag, Blue</sym></wpt><wpt lat="33.986688" lon="71.455601"><ele>395.351318</ele><time>2022-09-15T06:14:22Z</time><name>224</name><sym>Flag, Blue</sym></wpt><wpt lat="33.986540" lon="71.456049"><ele>397.383179</ele><time>2022-09-15T06:16:01Z</time><name>225</name><sym>Flag, Blue</sym></wpt><wpt lat="33.986338" lon="71.456483"><ele>397.345306</ele><time>2022-09-15T06:17:45Z</time><name>226</name><sym>Flag, Blue</sym></wpt><wpt lat="33.987043" lon="71.454786"><ele>397.893250</ele><time>2022-09-15T06:21:52Z</time><name>227</name><sym>Flag, Blue</sym></wpt><wpt lat="33.987058" lon="71.454755"><ele>398.465179</ele><time>2022-09-15T06:22:42Z</time><name>228</name><sym>Flag, Blue</sym></wpt><wpt lat="33.987047" lon="71.454774"><ele>398.446808</ele><time>2022-09-15T06:22:44Z</time><name>229</name><sym>Flag, Blue</sym></wpt><wpt lat="33.987286" lon="71.454238"><ele>397.066467</ele><time>2022-09-15T06:28:23Z</time><name>230</name><sym>Flag, Blue</sym></wpt><wpt lat="33.987500" lon="71.453858"><ele>398.111328</ele><time>2022-09-15T06:30:05Z</time><name>231</name><sym>Flag, Blue</sym></wpt><wpt lat="33.987792" lon="71.453424"><ele>397.039978</ele><time>2022-09-15T06:31:23Z</time><name>232</name><sym>Flag, Blue</sym></wpt><wpt lat="33.986514" lon="71.454902"><ele>396.829163</ele><time>2022-09-15T06:38:02Z</time><name>233</name><sym>Flag, Blue</sym></wpt><wpt lat="33.986369" lon="71.454873"><ele>397.267639</ele><time>2022-09-15T06:40:29Z</time><name>234</name><sym>Flag, Blue</sym></wpt><wpt lat="33.986520" lon="71.454468"><ele>399.193054</ele><time>2022-09-15T06:42:51Z</time><name>235</name><sym>Flag, Blue</sym></wpt><wpt lat="33.986530" lon="71.454466"><ele>399.183563</ele><time>2022-09-15T06:42:54Z</time><name>236</name><sym>Flag, Blue</sym></wpt><wpt lat="33.986533" lon="71.454454"><ele>399.172852</ele><time>2022-09-15T06:42:57Z</time><name>237</name><sym>Flag, Blue</sym></wpt><wpt lat="33.986706" lon="71.453985"><ele>404.256409</ele><time>2022-09-15T07:08:13Z</time><name>238</name><sym>Flag, Blue</sym></wpt><wpt lat="33.986153" lon="71.455364"><ele>387.239044</ele><time>2022-09-15T07:13:03Z</time><name>239</name><sym>Flag, Blue</sym></wpt><wpt lat="33.986989" lon="71.453441"><ele>388.728149</ele><time>2022-09-15T07:19:06Z</time><name>240</name><sym>Flag, Blue</sym></wpt><wpt lat="33.986990" lon="71.453436"><ele>388.752228</ele><time>2022-09-15T07:19:08Z</time><name>241</name><sym>Flag, Blue</sym></wpt><wpt lat="33.987000" lon="71.453427"><ele>388.760010</ele><time>2022-09-15T07:19:11Z</time><name>242</name><sym>Flag, Blue</sym></wpt><wpt lat="33.987091" lon="71.453079"><ele>389.871307</ele><time>2022-09-15T07:25:02Z</time><name>243</name><sym>Flag, Blue</sym></wpt><wpt lat="33.987240" lon="71.452745"><ele>389.343109</ele><time>2022-09-15T07:27:31Z</time><name>244</name><sym>Flag, Blue</sym></wpt><wpt lat="33.987373" lon="71.452411"><ele>390.178284</ele><time>2022-09-15T07:28:24Z</time><name>245</name><sym>Flag, Blue</sym></wpt><wpt lat="33.987223" lon="71.452188"><ele>390.089020</ele><time>2022-09-15T07:28:52Z</time><name>246</name><sym>Flag, Blue</sym></wpt></gpx>