<?xml version="1.0" encoding="UTF-8" standalone="no" ?><gpx xmlns="http://www.topografix.com/GPX/1/1" xmlns:gpxx="http://www.garmin.com/xmlschemas/GpxExtensions/v3" xmlns:wptx1="http://www.garmin.com/xmlschemas/WaypointExtension/v1" xmlns:gpxtpx="http://www.garmin.com/xmlschemas/TrackPointExtension/v1" creator="GPSMAP 78s" version="1.1" xmlns:xsi="http://www.w3.org/2001/XMLSchema-instance" xsi:schemaLocation="http://www.topografix.com/GPX/1/1 http://www.topografix.com/GPX/1/1/gpx.xsd http://www.garmin.com/xmlschemas/GpxExtensions/v3 http://www8.garmin.com/xmlschemas/GpxExtensionsv3.xsd http://www.garmin.com/xmlschemas/WaypointExtension/v1 http://www8.garmin.com/xmlschemas/WaypointExtensionv1.xsd http://www.garmin.com/xmlschemas/TrackPointExtension/v1 http://www.garmin.com/xmlschemas/TrackPointExtensionv1.xsd"><metadata><link href="http://www.garmin.com"><text>Garmin International</text></link><time>2022-09-14T04:31:41Z</time></metadata><wpt lat="33.991428" lon="71.456128"><ele>390.808044</ele><time>2022-09-14T04:31:41Z</time><name>117</name><sym>Flag, Blue</sym></wpt><wpt lat="33.991730" lon="71.456393"><ele>391.710785</ele><time>2022-09-14T04:32:57Z</time><name>118</name><sym>Flag, Blue</sym></wpt><wpt lat="33.991784" lon="71.456439"><ele>391.904480</ele><time>2022-09-14T04:33:42Z</time><name>119</name><sym>Flag, Blue</sym></wpt><wpt lat="33.991782" lon="71.456455"><ele>391.907318</ele><time>2022-09-14T04:33:45Z</time><name>120</name><sym>Flag, Blue</sym></wpt><wpt lat="33.991970" lon="71.456675"><ele>393.797455</ele><time>2022-09-14T04:37:09Z</time><name>121</name><sym>Flag, Blue</sym></wpt><wpt lat="33.991980" lon="71.456810"><ele>392.800476</ele><time>2022-09-14T04:38:51Z</time><name>122</name><sym>Flag, Blue</sym></wpt><wpt lat="33.992002" lon="71.456850"><ele>392.327332</ele><time>2022-09-14T04:39:22Z</time><name>123</name><sym>Flag, Blue</sym></wpt><wpt lat="33.991996" lon="71.456846"><ele>392.315247</ele><time>2022-09-14T04:39:27Z</time><name>124</name><sym>Flag, Blue</sym></wpt><wpt lat="33.992019" lon="71.456859"><ele>392.447510</ele><time>2022-09-14T04:41:30Z</time><name>125</name><sym>Flag, Blue</sym></wpt><wpt lat="33.992003" lon="71.456868"><ele>392.433868</ele><time>2022-09-14T04:41:35Z</time><name>126</name><sym>Flag, Blue</sym></wpt><wpt lat="33.991884" lon="71.457191"><ele>388.509857</ele><time>2022-09-14T04:44:17Z</time><name>127</name><sym>Flag, Blue</sym></wpt><wpt lat="33.991670" lon="71.457723"><ele>389.856201</ele><time>2022-09-14T04:45:42Z</time><name>128</name><sym>Flag, Blue</sym></wpt><wpt lat="33.991489" lon="71.458049"><ele>390.435455</ele><time>2022-09-14T04:46:28Z</time><name>129</name><sym>Flag, Blue</sym></wpt><wpt lat="33.991343" lon="71.458355"><ele>390.930908</ele><time>2022-09-14T04:47:24Z</time><name>130</name><sym>Flag, Blue</sym></wpt><wpt lat="33.991189" lon="71.458716"><ele>389.305511</ele><time>2022-09-14T04:48:16Z</time><name>131</name><sym>Flag, Blue</sym></wpt><wpt lat="33.991190" lon="71.458723"><ele>389.297882</ele><time>2022-09-14T04:48:19Z</time><name>132</name><sym>Flag, Blue</sym></wpt><wpt lat="33.991176" lon="71.458734"><ele>389.288300</ele><time>2022-09-14T04:48:22Z</time><name>133</name><sym>Flag, Blue</sym></wpt><wpt lat="33.991056" lon="71.459155"><ele>389.995789</ele><time>2022-09-14T04:51:57Z</time><name>134</name><sym>Flag, Blue</sym></wpt><wpt lat="33.990893" lon="71.459587"><ele>391.644440</ele><time>2022-09-14T04:53:42Z</time><name>135</name><sym>Flag, Blue</sym></wpt><wpt lat="33.990753" lon="71.459065"><ele>391.570007</ele><time>2022-09-14T04:55:37Z</time><name>136</name><sym>Flag, Blue</sym></wpt><wpt lat="33.990798" lon="71.459024"><ele>390.201141</ele><time>2022-09-14T04:57:17Z</time><name>137</name><sym>Flag, Blue</sym></wpt><wpt lat="33.990806" lon="71.459030"><ele>390.196838</ele><time>2022-09-14T04:57:20Z</time><name>138</name><sym>Flag, Blue</sym></wpt><wpt lat="33.990703" lon="71.460089"><ele>388.788696</ele><time>2022-09-14T05:09:35Z</time><name>139</name><sym>Flag, Blue</sym></wpt><wpt lat="33.990637" lon="71.458980"><ele>388.570770</ele><time>2022-09-14T05:13:00Z</time><name>140</name><sym>Flag, Blue</sym></wpt><wpt lat="33.990480" lon="71.459318"><ele>387.800262</ele><time>2022-09-14T05:14:02Z</time><name>141</name><sym>Flag, Blue</sym></wpt><wpt lat="33.990387" lon="71.459589"><ele>387.365906</ele><time>2022-09-14T05:14:57Z</time><name>142</name><sym>Flag, Blue</sym></wpt><wpt lat="33.990245" lon="71.459882"><ele>388.152283</ele><time>2022-09-14T05:15:59Z</time><name>143</name><sym>Flag, Blue</sym></wpt><wpt lat="33.990481" lon="71.458893"><ele>386.736145</ele><time>2022-09-14T05:18:24Z</time><name>144</name><sym>Flag, Blue</sym></wpt><wpt lat="33.990446" lon="71.458892"><ele>386.529205</ele><time>2022-09-14T05:19:13Z</time><name>145</name><sym>Flag, Blue</sym></wpt><wpt lat="33.990440" lon="71.458890"><ele>386.506714</ele><time>2022-09-14T05:19:17Z</time><name>146</name><sym>Flag, Blue</sym></wpt><wpt lat="33.990155" lon="71.458726"><ele>387.522919</ele><time>2022-09-14T05:27:25Z</time><name>147</name><sym>Flag, Blue</sym></wpt><wpt lat="33.989946" lon="71.458568"><ele>386.220703</ele><time>2022-09-14T05:29:58Z</time><name>148</name><sym>Flag, Blue</sym></wpt><wpt lat="33.989758" lon="71.459064"><ele>387.167938</ele><time>2022-09-14T05:32:00Z</time><name>149</name><sym>Flag, Blue</sym></wpt><wpt lat="33.989695" lon="71.459237"><ele>386.868439</ele><time>2022-09-14T05:35:15Z</time><name>150</name><sym>Flag, Blue</sym></wpt><wpt lat="33.990990" lon="71.456118"><ele>385.212860</ele><time>2022-09-14T05:44:58Z</time><name>151</name><sym>Flag, Blue</sym></wpt><wpt lat="33.990859" lon="71.456354"><ele>385.463074</ele><time>2022-09-14T05:46:25Z</time><name>152</name><sym>Flag, Blue</sym></wpt><wpt lat="33.990728" lon="71.456858"><ele>386.123840</ele><time>2022-09-14T05:47:44Z</time><name>153</name><sym>Flag, Blue</sym></wpt><wpt lat="33.990470" lon="71.457266"><ele>386.835205</ele><time>2022-09-14T05:51:05Z</time><name>154</name><sym>Flag, Blue</sym></wpt><wpt lat="33.990501" lon="71.457297"><ele>387.445343</ele><time>2022-09-14T05:52:01Z</time><name>155</name><sym>Flag, Blue</sym></wpt><wpt lat="33.990499" lon="71.457306"><ele>387.459320</ele><time>2022-09-14T05:52:05Z</time><name>156</name><sym>Flag, Blue</sym></wpt><wpt lat="33.990643" lon="71.457238"><ele>389.610504</ele><time>2022-09-14T06:01:50Z</time><name>157</name><sym>Flag, Blue</sym></wpt><wpt lat="33.990908" lon="71.457362"><ele>387.840302</ele><time>2022-09-14T06:03:38Z</time><name>158</name><sym>Flag, Blue</sym></wpt><wpt lat="33.991067" lon="71.457097"><ele>387.793549</ele><time>2022-09-14T06:05:32Z</time><name>159</name><sym>Flag, Blue</sym></wpt><wpt lat="33.991129" lon="71.456849"><ele>387.530243</ele><time>2022-09-14T06:06:42Z</time><name>160</name><sym>Flag, Blue</sym></wpt><wpt lat="33.991028" lon="71.457476"><ele>386.176636</ele><time>2022-09-14T06:08:30Z</time><name>161</name><sym>Flag, Blue</sym></wpt><wpt lat="33.991354" lon="71.457605"><ele>387.537903</ele><time>2022-09-14T06:09:15Z</time><name>162</name><sym>Flag, Blue</sym></wpt><wpt lat="33.990264" lon="71.457121"><ele>390.224945</ele><time>2022-09-14T06:13:14Z</time><name>163</name><sym>Flag, Blue</sym></wpt><wpt lat="33.990083" lon="71.457082"><ele>391.633606</ele><time>2022-09-14T06:16:21Z</time><name>164</name><sym>Flag, Blue</sym></wpt><wpt lat="33.989797" lon="71.456891"><ele>389.427032</ele><time>2022-09-14T06:19:56Z</time><name>165</name><sym>Flag, Blue</sym></wpt><wpt lat="33.989796" lon="71.456886"><ele>389.432526</ele><time>2022-09-14T06:19:59Z</time><name>166</name><sym>Flag, Blue</sym></wpt><wpt lat="33.989792" lon="71.456882"><ele>389.428406</ele><time>2022-09-14T06:20:01Z</time><name>167</name><sym>Flag, Blue</sym></wpt><wpt lat="33.989999" lon="71.456510"><ele>392.100555</ele><time>2022-09-14T06:31:07Z</time><name>168</name><sym>Flag, Blue</sym></wpt><wpt lat="33.990172" lon="71.456062"><ele>391.368744</ele><time>2022-09-14T06:32:50Z</time><name>169</name><sym>Flag, Blue</sym></wpt><wpt lat="33.990351" lon="71.455684"><ele>391.581085</ele><time>2022-09-14T06:34:08Z</time><name>170</name><sym>Flag, Blue</sym></wpt><wpt lat="33.989393" lon="71.456697"><ele>391.513519</ele><time>2022-09-14T06:37:03Z</time><name>171</name><sym>Flag, Blue</sym></wpt><wpt lat="33.989047" lon="71.456494"><ele>393.875946</ele><time>2022-09-14T06:39:01Z</time><name>172</name><sym>Flag, Blue</sym></wpt><wpt lat="33.989033" lon="71.456437"><ele>393.590485</ele><time>2022-09-14T06:40:19Z</time><name>173</name><sym>Flag, Blue</sym></wpt><wpt lat="33.989045" lon="71.456449"><ele>393.587067</ele><time>2022-09-14T06:40:22Z</time><name>174</name><sym>Flag, Blue</sym></wpt><wpt lat="33.989270" lon="71.456008"><ele>391.545502</ele><time>2022-09-14T06:46:34Z</time><name>175</name><sym>Flag, Blue</sym></wpt><wpt lat="33.989462" lon="71.455622"><ele>392.195679</ele><time>2022-09-14T06:47:40Z</time><name>176</name><sym>Flag, Blue</sym></wpt><wpt lat="33.989693" lon="71.455316"><ele>392.706970</ele><time>2022-09-14T06:48:32Z</time><name>177</name><sym>Flag, Blue</sym></wpt><wpt lat="33.989642" lon="71.456281"><ele>389.278625</ele><time>2022-09-14T06:51:00Z</time><name>178</name><sym>Flag, Blue</sym></wpt><wpt lat="33.989024" lon="71.456591"><ele>378.520233</ele><time>2022-09-14T07:30:18Z</time><name>179</name><sym>Flag, Blue</sym></wpt><wpt lat="33.989045" lon="71.456593"><ele>379.638000</ele><time>2022-09-14T07:30:31Z</time><name>180</name><sym>Flag, Blue</sym></wpt><wpt lat="33.989045" lon="71.456596"><ele>379.634552</ele><time>2022-09-14T07:30:34Z</time><name>181</name><sym>Flag, Blue</sym></wpt><wpt lat="33.988842" lon="71.457060"><ele>380.370148</ele><time>2022-09-14T07:35:42Z</time><name>182</name><sym>Flag, Blue</sym></wpt><wpt lat="33.988844" lon="71.457078"><ele>381.611847</ele><time>2022-09-14T07:35:51Z</time><name>183</name><sym>Flag, Blue</sym></wpt><wpt lat="33.988849" lon="71.457063"><ele>381.605286</ele><time>2022-09-14T07:35:54Z</time><name>184</name><sym>Flag, Blue</sym></wpt></gpx>