<?xml version="1.0" encoding="UTF-8" standalone="no" ?><gpx xmlns="http://www.topografix.com/GPX/1/1" xmlns:gpxx="http://www.garmin.com/xmlschemas/GpxExtensions/v3" xmlns:wptx1="http://www.garmin.com/xmlschemas/WaypointExtension/v1" xmlns:gpxtpx="http://www.garmin.com/xmlschemas/TrackPointExtension/v1" creator="GPSMAP 78s" version="1.1" xmlns:xsi="http://www.w3.org/2001/XMLSchema-instance" xsi:schemaLocation="http://www.topografix.com/GPX/1/1 http://www.topografix.com/GPX/1/1/gpx.xsd http://www.garmin.com/xmlschemas/GpxExtensions/v3 http://www8.garmin.com/xmlschemas/GpxExtensionsv3.xsd http://www.garmin.com/xmlschemas/WaypointExtension/v1 http://www8.garmin.com/xmlschemas/WaypointExtensionv1.xsd http://www.garmin.com/xmlschemas/TrackPointExtension/v1 http://www.garmin.com/xmlschemas/TrackPointExtensionv1.xsd"><metadata><link href="http://www.garmin.com"><text>Garmin International</text></link><time>2023-12-19T04:24:37Z</time></metadata><wpt lat="32.326041" lon="70.710835"><ele>302.878113</ele><time>2023-12-19T04:24:37Z</time><name>178</name><sym>Flag, Blue</sym></wpt><wpt lat="32.326031" lon="70.710833"><ele>302.898560</ele><time>2023-12-19T04:24:42Z</time><name>179</name><sym>Flag, Blue</sym></wpt><wpt lat="32.326035" lon="70.710810"><ele>302.915924</ele><time>2023-12-19T04:24:46Z</time><name>180</name><sym>Flag, Blue</sym></wpt><wpt lat="32.325524" lon="70.710946"><ele>310.453369</ele><time>2023-12-19T04:29:52Z</time><name>181</name><sym>Flag, Blue</sym></wpt><wpt lat="32.325011" lon="70.711076"><ele>305.663940</ele><time>2023-12-19T04:31:20Z</time><name>182</name><sym>Flag, Blue</sym></wpt><wpt lat="32.254424" lon="70.699827"><ele>250.200302</ele><time>2023-12-19T05:22:18Z</time><name>183</name><sym>Flag, Blue</sym></wpt><wpt lat="32.254795" lon="70.699982"><ele>253.872299</ele><time>2023-12-19T05:25:57Z</time><name>184</name><sym>Flag, Blue</sym></wpt><wpt lat="32.254799" lon="70.700023"><ele>253.825592</ele><time>2023-12-19T05:26:01Z</time><name>185</name><sym>Flag, Blue</sym></wpt><wpt lat="32.254795" lon="70.699999"><ele>253.842773</ele><time>2023-12-19T05:26:05Z</time><name>186</name><sym>Flag, Blue</sym></wpt><wpt lat="32.255276" lon="70.700328"><ele>256.152374</ele><time>2023-12-19T05:30:31Z</time><name>187</name><sym>Flag, Blue</sym></wpt><wpt lat="32.255074" lon="70.699553"><ele>255.142715</ele><time>2023-12-19T05:32:35Z</time><name>188</name><sym>Flag, Blue</sym></wpt><wpt lat="32.256275" lon="70.728858"><ele>262.394073</ele><time>2023-12-19T06:06:54Z</time><name>189</name><sym>Flag, Blue</sym></wpt><wpt lat="32.256867" lon="70.728809"><ele>264.104980</ele><time>2023-12-19T06:08:27Z</time><name>190</name><sym>Flag, Blue</sym></wpt><wpt lat="32.257536" lon="70.728579"><ele>266.108887</ele><time>2023-12-19T06:09:49Z</time><name>191</name><sym>Flag, Blue</sym></wpt><wpt lat="32.258199" lon="70.728541"><ele>265.698914</ele><time>2023-12-19T06:11:18Z</time><name>192</name><sym>Flag, Blue</sym></wpt><wpt lat="32.258221" lon="70.728547"><ele>265.701843</ele><time>2023-12-19T06:11:25Z</time><name>193</name><sym>Flag, Blue</sym></wpt><wpt lat="32.258217" lon="70.728520"><ele>265.696198</ele><time>2023-12-19T06:11:30Z</time><name>194</name><sym>Flag, Blue</sym></wpt><wpt lat="32.258918" lon="70.728201"><ele>267.817322</ele><time>2023-12-19T06:20:12Z</time><name>195</name><sym>Flag, Blue</sym></wpt><wpt lat="32.258177" lon="70.728512"><ele>265.926514</ele><time>2023-12-19T06:22:38Z</time><name>196</name><sym>Flag, Blue</sym></wpt><wpt lat="32.258567" lon="70.729107"><ele>265.972656</ele><time>2023-12-19T06:27:48Z</time><name>197</name><sym>Flag, Blue</sym></wpt><wpt lat="32.258119" lon="70.729416"><ele>268.055481</ele><time>2023-12-19T06:29:42Z</time><name>198</name><sym>Flag, Blue</sym></wpt><wpt lat="32.258949" lon="70.729565"><ele>268.212799</ele><time>2023-12-19T06:36:05Z</time><name>199</name><sym>Flag, Blue</sym></wpt><wpt lat="32.259130" lon="70.728823"><ele>266.177094</ele><time>2023-12-19T06:39:14Z</time><name>200</name><sym>Flag, Blue</sym></wpt><wpt lat="32.259211" lon="70.728693"><ele>270.015930</ele><time>2023-12-19T06:43:16Z</time><name>201</name><sym>Flag, Blue</sym></wpt><wpt lat="32.259658" lon="70.728465"><ele>269.379913</ele><time>2023-12-19T06:44:09Z</time><name>202</name><sym>Flag, Blue</sym></wpt><wpt lat="32.260440" lon="70.728404"><ele>268.279694</ele><time>2023-12-19T06:46:00Z</time><name>203</name><sym>Flag, Blue</sym></wpt><wpt lat="32.261171" lon="70.728289"><ele>267.779724</ele><time>2023-12-19T06:47:59Z</time><name>204</name><sym>Flag, Blue</sym></wpt><wpt lat="32.261942" lon="70.728108"><ele>273.280609</ele><time>2023-12-19T06:49:40Z</time><name>205</name><sym>Flag, Blue</sym></wpt><wpt lat="32.257884" lon="70.727809"><ele>267.293457</ele><time>2023-12-19T06:59:19Z</time><name>206</name><sym>Flag, Blue</sym></wpt><wpt lat="32.258020" lon="70.727029"><ele>269.003937</ele><time>2023-12-19T07:02:29Z</time><name>207</name><sym>Flag, Blue</sym></wpt><wpt lat="32.257548" lon="70.728624"><ele>268.942413</ele><time>2023-12-19T07:05:32Z</time><name>208</name><sym>Flag, Blue</sym></wpt><wpt lat="32.257014" lon="70.729572"><ele>269.240845</ele><time>2023-12-19T07:10:28Z</time><name>209</name><sym>Flag, Blue</sym></wpt><wpt lat="32.256972" lon="70.730451"><ele>270.350403</ele><time>2023-12-19T07:13:03Z</time><name>210</name><sym>Flag, Blue</sym></wpt><wpt lat="32.256260" lon="70.730108"><ele>272.223663</ele><time>2023-12-19T07:17:45Z</time><name>211</name><sym>Flag, Blue</sym></wpt><wpt lat="32.254545" lon="70.729147"><ele>272.337433</ele><time>2023-12-19T07:36:45Z</time><name>212</name><sym>Flag, Blue</sym></wpt><wpt lat="32.253964" lon="70.729219"><ele>264.859528</ele><time>2023-12-19T07:37:49Z</time><name>213</name><sym>Flag, Blue</sym></wpt><wpt lat="32.253413" lon="70.729204"><ele>262.914978</ele><time>2023-12-19T07:38:59Z</time><name>214</name><sym>Flag, Blue</sym></wpt><wpt lat="32.254661" lon="70.729110"><ele>262.796661</ele><time>2023-12-19T07:40:58Z</time><name>215</name><sym>Flag, Blue</sym></wpt><wpt lat="32.254689" lon="70.729707"><ele>262.315796</ele><time>2023-12-19T07:42:09Z</time><name>216</name><sym>Flag, Blue</sym></wpt><wpt lat="32.254400" lon="70.730339"><ele>261.153320</ele><time>2023-12-19T07:43:34Z</time><name>217</name><sym>Flag, Blue</sym></wpt><wpt lat="32.253787" lon="70.730501"><ele>260.163269</ele><time>2023-12-19T07:45:08Z</time><name>218</name><sym>Flag, Blue</sym></wpt><wpt lat="32.253182" lon="70.730701"><ele>258.642487</ele><time>2023-12-19T07:46:44Z</time><name>219</name><sym>Flag, Blue</sym></wpt><wpt lat="32.253134" lon="70.731612"><ele>259.306519</ele><time>2023-12-19T07:48:32Z</time><name>220</name><sym>Flag, Blue</sym></wpt><wpt lat="32.253728" lon="70.731681"><ele>262.101044</ele><time>2023-12-19T07:50:16Z</time><name>221</name><sym>Flag, Blue</sym></wpt><wpt lat="32.254948" lon="70.730692"><ele>262.845428</ele><time>2023-12-19T07:53:28Z</time><name>222</name><sym>Flag, Blue</sym></wpt><wpt lat="32.255018" lon="70.731410"><ele>262.440948</ele><time>2023-12-19T07:55:25Z</time><name>223</name><sym>Flag, Blue</sym></wpt><wpt lat="32.254944" lon="70.732113"><ele>261.149384</ele><time>2023-12-19T07:56:55Z</time><name>224</name><sym>Flag, Blue</sym></wpt><wpt lat="32.255497" lon="70.730787"><ele>264.640686</ele><time>2023-12-19T08:00:01Z</time><name>225</name><sym>Flag, Blue</sym></wpt><wpt lat="32.255754" lon="70.730947"><ele>260.540955</ele><time>2023-12-19T08:01:35Z</time><name>226</name><sym>Flag, Blue</sym></wpt><wpt lat="32.256357" lon="70.730622"><ele>262.817596</ele><time>2023-12-19T08:03:23Z</time><name>227</name><sym>Flag, Blue</sym></wpt><wpt lat="32.253625" lon="70.739653"><ele>262.903259</ele><time>2023-12-19T08:29:50Z</time><name>228</name><sym>Flag, Blue</sym></wpt><wpt lat="32.253215" lon="70.740013"><ele>264.367493</ele><time>2023-12-19T08:30:49Z</time><name>229</name><sym>Flag, Blue</sym></wpt><wpt lat="32.253457" lon="70.740405"><ele>264.000366</ele><time>2023-12-19T08:31:42Z</time><name>230</name><sym>Flag, Blue</sym></wpt><wpt lat="32.253755" lon="70.740720"><ele>265.341919</ele><time>2023-12-19T08:32:28Z</time><name>231</name><sym>Flag, Blue</sym></wpt><wpt lat="32.254129" lon="70.741023"><ele>265.096161</ele><time>2023-12-19T08:33:17Z</time><name>232</name><sym>Flag, Blue</sym></wpt><wpt lat="32.254320" lon="70.741500"><ele>265.820801</ele><time>2023-12-19T08:34:13Z</time><name>233</name><sym>Flag, Blue</sym></wpt><wpt lat="32.254481" lon="70.741714"><ele>267.684113</ele><time>2023-12-19T08:34:48Z</time><name>234</name><sym>Flag, Blue</sym></wpt><wpt lat="32.254546" lon="70.741932"><ele>267.789215</ele><time>2023-12-19T08:35:22Z</time><name>235</name><sym>Flag, Blue</sym></wpt><wpt lat="32.254664" lon="70.742293"><ele>266.301971</ele><time>2023-12-19T08:36:09Z</time><name>236</name><sym>Flag, Blue</sym></wpt><wpt lat="32.254778" lon="70.742583"><ele>267.231628</ele><time>2023-12-19T08:36:54Z</time><name>237</name><sym>Flag, Blue</sym></wpt><wpt lat="32.254771" lon="70.742956"><ele>267.073242</ele><time>2023-12-19T08:37:44Z</time><name>238</name><sym>Flag, Blue</sym></wpt><wpt lat="32.254764" lon="70.742953"><ele>267.069153</ele><time>2023-12-19T08:37:48Z</time><name>239</name><sym>Flag, Blue</sym></wpt><wpt lat="32.254769" lon="70.742926"><ele>267.780792</ele><time>2023-12-19T08:37:59Z</time><name>240</name><sym>Flag, Blue</sym></wpt></gpx>