<?xml version="1.0" encoding="UTF-8" standalone="no" ?><gpx xmlns="http://www.topografix.com/GPX/1/1" xmlns:gpxx="http://www.garmin.com/xmlschemas/GpxExtensions/v3" xmlns:wptx1="http://www.garmin.com/xmlschemas/WaypointExtension/v1" xmlns:gpxtpx="http://www.garmin.com/xmlschemas/TrackPointExtension/v1" creator="GPSMAP 78s" version="1.1" xmlns:xsi="http://www.w3.org/2001/XMLSchema-instance" xsi:schemaLocation="http://www.topografix.com/GPX/1/1 http://www.topografix.com/GPX/1/1/gpx.xsd http://www.garmin.com/xmlschemas/GpxExtensions/v3 http://www8.garmin.com/xmlschemas/GpxExtensionsv3.xsd http://www.garmin.com/xmlschemas/WaypointExtension/v1 http://www8.garmin.com/xmlschemas/WaypointExtensionv1.xsd http://www.garmin.com/xmlschemas/TrackPointExtension/v1 http://www.garmin.com/xmlschemas/TrackPointExtensionv1.xsd"><metadata><link href="http://www.garmin.com"><text>Garmin International</text></link><time>2023-12-21T05:02:04Z</time></metadata><wpt lat="32.249330" lon="70.650248"><ele>242.003006</ele><time>2023-12-21T05:02:04Z</time><name>281</name><sym>Flag, Blue</sym></wpt><wpt lat="32.249727" lon="70.650643"><ele>240.204956</ele><time>2023-12-21T05:03:24Z</time><name>282</name><sym>Flag, Blue</sym></wpt><wpt lat="32.250082" lon="70.650924"><ele>244.545227</ele><time>2023-12-21T05:04:52Z</time><name>283</name><sym>Flag, Blue</sym></wpt><wpt lat="32.250063" lon="70.650943"><ele>244.531052</ele><time>2023-12-21T05:04:58Z</time><name>284</name><sym>Flag, Blue</sym></wpt><wpt lat="32.250068" lon="70.650922"><ele>244.519684</ele><time>2023-12-21T05:05:03Z</time><name>285</name><sym>Flag, Blue</sym></wpt><wpt lat="32.250342" lon="70.650332"><ele>246.147049</ele><time>2023-12-21T05:13:27Z</time><name>286</name><sym>Flag, Blue</sym></wpt><wpt lat="32.250563" lon="70.649793"><ele>246.558578</ele><time>2023-12-21T05:16:23Z</time><name>287</name><sym>Flag, Blue</sym></wpt><wpt lat="32.250725" lon="70.649510"><ele>245.005188</ele><time>2023-12-21T05:17:37Z</time><name>288</name><sym>Flag, Blue</sym></wpt><wpt lat="32.250887" lon="70.649954"><ele>242.949448</ele><time>2023-12-21T05:18:52Z</time><name>289</name><sym>Flag, Blue</sym></wpt><wpt lat="32.251219" lon="70.650160"><ele>242.082413</ele><time>2023-12-21T05:22:43Z</time><name>290</name><sym>Flag, Blue</sym></wpt><wpt lat="32.251373" lon="70.649853"><ele>246.035416</ele><time>2023-12-21T05:25:52Z</time><name>291</name><sym>Flag, Blue</sym></wpt><wpt lat="32.251593" lon="70.649405"><ele>242.358932</ele><time>2023-12-21T05:26:42Z</time><name>292</name><sym>Flag, Blue</sym></wpt><wpt lat="32.252051" lon="70.649006"><ele>242.621216</ele><time>2023-12-21T05:30:37Z</time><name>293</name><sym>Flag, Blue</sym></wpt><wpt lat="32.252423" lon="70.649454"><ele>239.814056</ele><time>2023-12-21T05:32:13Z</time><name>294</name><sym>Flag, Blue</sym></wpt><wpt lat="32.252555" lon="70.649007"><ele>242.504395</ele><time>2023-12-21T05:33:23Z</time><name>295</name><sym>Flag, Blue</sym></wpt><wpt lat="32.252846" lon="70.648328"><ele>240.699463</ele><time>2023-12-21T05:34:56Z</time><name>296</name><sym>Flag, Blue</sym></wpt><wpt lat="32.252979" lon="70.648052"><ele>240.374802</ele><time>2023-12-21T05:35:55Z</time><name>297</name><sym>Flag, Blue</sym></wpt><wpt lat="32.253227" lon="70.647578"><ele>242.745880</ele><time>2023-12-21T05:37:08Z</time><name>298</name><sym>Flag, Blue</sym></wpt><wpt lat="32.252883" lon="70.649729"><ele>242.724472</ele><time>2023-12-21T05:40:44Z</time><name>299</name><sym>Flag, Blue</sym></wpt><wpt lat="32.253270" lon="70.650002"><ele>242.629501</ele><time>2023-12-21T05:42:27Z</time><name>300</name><sym>Flag, Blue</sym></wpt><wpt lat="32.253713" lon="70.650287"><ele>243.942749</ele><time>2023-12-21T05:43:45Z</time><name>301</name><sym>Flag, Blue</sym></wpt><wpt lat="32.253951" lon="70.649905"><ele>243.502701</ele><time>2023-12-21T05:44:57Z</time><name>302</name><sym>Flag, Blue</sym></wpt><wpt lat="32.254328" lon="70.649498"><ele>244.262817</ele><time>2023-12-21T05:46:03Z</time><name>303</name><sym>Flag, Blue</sym></wpt><wpt lat="32.253836" lon="70.650906"><ele>242.244095</ele><time>2023-12-21T05:48:27Z</time><name>304</name><sym>Flag, Blue</sym></wpt><wpt lat="32.253980" lon="70.651558"><ele>242.458450</ele><time>2023-12-21T05:49:41Z</time><name>305</name><sym>Flag, Blue</sym></wpt><wpt lat="32.254143" lon="70.652200"><ele>243.446060</ele><time>2023-12-21T05:51:13Z</time><name>306</name><sym>Flag, Blue</sym></wpt><wpt lat="32.254419" lon="70.652662"><ele>242.793365</ele><time>2023-12-21T05:52:29Z</time><name>307</name><sym>Flag, Blue</sym></wpt><wpt lat="32.251095" lon="70.650427"><ele>237.661331</ele><time>2023-12-21T06:03:19Z</time><name>308</name><sym>Flag, Blue</sym></wpt><wpt lat="32.251401" lon="70.650610"><ele>238.265305</ele><time>2023-12-21T06:04:30Z</time><name>309</name><sym>Flag, Blue</sym></wpt><wpt lat="32.250457" lon="70.649396"><ele>237.544968</ele><time>2023-12-21T06:08:33Z</time><name>310</name><sym>Flag, Blue</sym></wpt><wpt lat="32.249592" lon="70.648716"><ele>237.406082</ele><time>2023-12-21T06:15:37Z</time><name>311</name><sym>Flag, Blue</sym></wpt><wpt lat="32.249598" lon="70.648544"><ele>239.009903</ele><time>2023-12-21T06:16:06Z</time><name>312</name><sym>Flag, Blue</sym></wpt><wpt lat="32.249949" lon="70.648738"><ele>238.348450</ele><time>2023-12-21T06:17:47Z</time><name>313</name><sym>Flag, Blue</sym></wpt><wpt lat="32.250276" lon="70.648916"><ele>239.235123</ele><time>2023-12-21T06:18:50Z</time><name>314</name><sym>Flag, Blue</sym></wpt><wpt lat="32.250622" lon="70.648717"><ele>239.468567</ele><time>2023-12-21T06:19:56Z</time><name>315</name><sym>Flag, Blue</sym></wpt><wpt lat="32.250928" lon="70.648594"><ele>239.615463</ele><time>2023-12-21T06:21:03Z</time><name>316</name><sym>Flag, Blue</sym></wpt><wpt lat="32.251314" lon="70.648888"><ele>240.809082</ele><time>2023-12-21T06:23:31Z</time><name>317</name><sym>Flag, Blue</sym></wpt><wpt lat="32.250788" lon="70.648279"><ele>240.986847</ele><time>2023-12-21T06:25:01Z</time><name>318</name><sym>Flag, Blue</sym></wpt><wpt lat="32.250498" lon="70.648139"><ele>243.299561</ele><time>2023-12-21T06:36:17Z</time><name>319</name><sym>Flag, Blue</sym></wpt><wpt lat="32.250628" lon="70.647667"><ele>243.426086</ele><time>2023-12-21T06:36:59Z</time><name>320</name><sym>Flag, Blue</sym></wpt><wpt lat="32.251069" lon="70.648503"><ele>241.931396</ele><time>2023-12-21T06:38:38Z</time><name>321</name><sym>Flag, Blue</sym></wpt><wpt lat="32.251566" lon="70.648595"><ele>242.310760</ele><time>2023-12-21T06:39:44Z</time><name>322</name><sym>Flag, Blue</sym></wpt><wpt lat="32.251219" lon="70.648396"><ele>241.419083</ele><time>2023-12-21T06:40:46Z</time><name>323</name><sym>Flag, Blue</sym></wpt><wpt lat="32.251439" lon="70.648014"><ele>242.012634</ele><time>2023-12-21T06:41:52Z</time><name>324</name><sym>Flag, Blue</sym></wpt><wpt lat="32.251884" lon="70.648044"><ele>243.978134</ele><time>2023-12-21T06:43:00Z</time><name>325</name><sym>Flag, Blue</sym></wpt><wpt lat="32.252437" lon="70.648068"><ele>243.841049</ele><time>2023-12-21T06:44:23Z</time><name>326</name><sym>Flag, Blue</sym></wpt><wpt lat="32.252766" lon="70.647814"><ele>245.039429</ele><time>2023-12-21T06:47:47Z</time><name>327</name><sym>Flag, Blue</sym></wpt><wpt lat="32.250028" lon="70.648048"><ele>246.209854</ele><time>2023-12-21T07:04:26Z</time><name>328</name><sym>Flag, Blue</sym></wpt><wpt lat="32.249262" lon="70.649007"><ele>243.742966</ele><time>2023-12-21T07:08:05Z</time><name>329</name><sym>Flag, Blue</sym></wpt><wpt lat="32.248851" lon="70.649447"><ele>242.462250</ele><time>2023-12-21T07:10:21Z</time><name>330</name><sym>Flag, Blue</sym></wpt><wpt lat="32.248422" lon="70.649900"><ele>241.366440</ele><time>2023-12-21T07:11:35Z</time><name>331</name><sym>Flag, Blue</sym></wpt><wpt lat="32.248049" lon="70.650299"><ele>241.923447</ele><time>2023-12-21T07:12:41Z</time><name>332</name><sym>Flag, Blue</sym></wpt><wpt lat="32.201820" lon="70.696840"><ele>218.811279</ele><time>2023-12-21T08:51:25Z</time><name>333</name><sym>Flag, Blue</sym></wpt><wpt lat="32.201443" lon="70.696420"><ele>218.125732</ele><time>2023-12-21T08:52:40Z</time><name>334</name><sym>Flag, Blue</sym></wpt><wpt lat="32.201449" lon="70.696416"><ele>218.123734</ele><time>2023-12-21T08:52:44Z</time><name>335</name><sym>Flag, Blue</sym></wpt><wpt lat="32.201450" lon="70.696430"><ele>218.124939</ele><time>2023-12-21T08:52:48Z</time><name>336</name><sym>Flag, Blue</sym></wpt><wpt lat="32.200917" lon="70.696284"><ele>221.739212</ele><time>2023-12-21T09:02:39Z</time><name>337</name><sym>Flag, Blue</sym></wpt><wpt lat="32.202339" lon="70.698781"><ele>223.923599</ele><time>2023-12-21T09:06:38Z</time><name>338</name><sym>Flag, Blue</sym></wpt><wpt lat="32.202347" lon="70.699933"><ele>229.048050</ele><time>2023-12-21T09:13:24Z</time><name>339</name><sym>Flag, Blue</sym></wpt><wpt lat="32.202313" lon="70.701160"><ele>223.195862</ele><time>2023-12-21T09:17:50Z</time><name>340</name><sym>Flag, Blue</sym></wpt><wpt lat="32.202299" lon="70.701157"><ele>223.211075</ele><time>2023-12-21T09:17:54Z</time><name>341</name><sym>Flag, Blue</sym></wpt><wpt lat="32.202309" lon="70.701151"><ele>223.233109</ele><time>2023-12-21T09:17:58Z</time><name>342</name><sym>Flag, Blue</sym></wpt></gpx>