<?xml version="1.0" encoding="UTF-8" standalone="no" ?><gpx xmlns="http://www.topografix.com/GPX/1/1" xmlns:gpxx="http://www.garmin.com/xmlschemas/GpxExtensions/v3" xmlns:wptx1="http://www.garmin.com/xmlschemas/WaypointExtension/v1" xmlns:gpxtpx="http://www.garmin.com/xmlschemas/TrackPointExtension/v1" creator="GPSMAP 78s" version="1.1" xmlns:xsi="http://www.w3.org/2001/XMLSchema-instance" xsi:schemaLocation="http://www.topografix.com/GPX/1/1 http://www.topografix.com/GPX/1/1/gpx.xsd http://www.garmin.com/xmlschemas/GpxExtensions/v3 http://www8.garmin.com/xmlschemas/GpxExtensionsv3.xsd http://www.garmin.com/xmlschemas/WaypointExtension/v1 http://www8.garmin.com/xmlschemas/WaypointExtensionv1.xsd http://www.garmin.com/xmlschemas/TrackPointExtension/v1 http://www.garmin.com/xmlschemas/TrackPointExtensionv1.xsd"><metadata><link href="http://www.garmin.com"><text>Garmin International</text></link><time>2023-12-20T04:39:20Z</time></metadata><wpt lat="32.248916" lon="70.744809"><ele>258.031006</ele><time>2023-12-20T04:39:20Z</time><name>241</name><sym>Flag, Blue</sym></wpt><wpt lat="32.248466" lon="70.745732"><ele>256.755859</ele><time>2023-12-20T04:41:09Z</time><name>242</name><sym>Flag, Blue</sym></wpt><wpt lat="32.248040" lon="70.746655"><ele>257.847900</ele><time>2023-12-20T04:42:29Z</time><name>243</name><sym>Flag, Blue</sym></wpt><wpt lat="32.247544" lon="70.747515"><ele>259.227753</ele><time>2023-12-20T04:44:26Z</time><name>244</name><sym>Flag, Blue</sym></wpt><wpt lat="32.247073" lon="70.748417"><ele>257.517120</ele><time>2023-12-20T04:45:39Z</time><name>245</name><sym>Flag, Blue</sym></wpt><wpt lat="32.246603" lon="70.749292"><ele>257.513367</ele><time>2023-12-20T04:49:40Z</time><name>246</name><sym>Flag, Blue</sym></wpt><wpt lat="32.246138" lon="70.750151"><ele>260.264069</ele><time>2023-12-20T04:50:58Z</time><name>247</name><sym>Flag, Blue</sym></wpt><wpt lat="32.245690" lon="70.750984"><ele>256.801758</ele><time>2023-12-20T04:52:26Z</time><name>248</name><sym>Flag, Blue</sym></wpt><wpt lat="32.245213" lon="70.751866"><ele>258.027710</ele><time>2023-12-20T04:53:54Z</time><name>249</name><sym>Flag, Blue</sym></wpt><wpt lat="32.244820" lon="70.752868"><ele>256.224823</ele><time>2023-12-20T04:55:31Z</time><name>250</name><sym>Flag, Blue</sym></wpt><wpt lat="32.244499" lon="70.753785"><ele>256.727234</ele><time>2023-12-20T04:57:02Z</time><name>251</name><sym>Flag, Blue</sym></wpt><wpt lat="32.244111" lon="70.754782"><ele>256.366028</ele><time>2023-12-20T04:58:31Z</time><name>252</name><sym>Flag, Blue</sym></wpt><wpt lat="32.243753" lon="70.755674"><ele>256.887817</ele><time>2023-12-20T05:00:01Z</time><name>253</name><sym>Flag, Blue</sym></wpt><wpt lat="32.243374" lon="70.756690"><ele>257.675659</ele><time>2023-12-20T05:01:43Z</time><name>254</name><sym>Flag, Blue</sym></wpt><wpt lat="32.242973" lon="70.757708"><ele>257.832062</ele><time>2023-12-20T05:05:26Z</time><name>255</name><sym>Flag, Blue</sym></wpt><wpt lat="32.242580" lon="70.758732"><ele>257.605835</ele><time>2023-12-20T05:07:08Z</time><name>256</name><sym>Flag, Blue</sym></wpt><wpt lat="32.242054" lon="70.758498"><ele>258.997101</ele><time>2023-12-20T05:08:53Z</time><name>257</name><sym>Flag, Blue</sym></wpt><wpt lat="32.242045" lon="70.758481"><ele>259.007294</ele><time>2023-12-20T05:08:58Z</time><name>258</name><sym>Flag, Blue</sym></wpt><wpt lat="32.242062" lon="70.758487"><ele>259.012573</ele><time>2023-12-20T05:09:03Z</time><name>259</name><sym>Flag, Blue</sym></wpt><wpt lat="32.262293" lon="70.731603"><ele>259.200531</ele><time>2023-12-20T05:48:37Z</time><name>260</name><sym>Flag, Blue</sym></wpt><wpt lat="32.262298" lon="70.731621"><ele>259.226318</ele><time>2023-12-20T05:48:42Z</time><name>261</name><sym>Flag, Blue</sym></wpt><wpt lat="32.262301" lon="70.731608"><ele>259.244110</ele><time>2023-12-20T05:48:45Z</time><name>262</name><sym>Flag, Blue</sym></wpt><wpt lat="32.262289" lon="70.731583"><ele>259.762695</ele><time>2023-12-20T05:49:05Z</time><name>263</name><sym>Flag, Blue</sym></wpt><wpt lat="32.262296" lon="70.731585"><ele>259.845367</ele><time>2023-12-20T05:49:24Z</time><name>264</name><sym>Flag, Blue</sym></wpt><wpt lat="32.266959" lon="70.726215"><ele>277.309021</ele><time>2023-12-20T06:13:38Z</time><name>265</name><sym>Flag, Blue</sym></wpt><wpt lat="32.267454" lon="70.726940"><ele>277.716675</ele><time>2023-12-20T06:15:10Z</time><name>266</name><sym>Flag, Blue</sym></wpt><wpt lat="32.267863" lon="70.727703"><ele>277.138977</ele><time>2023-12-20T06:16:30Z</time><name>267</name><sym>Flag, Blue</sym></wpt><wpt lat="32.267874" lon="70.727715"><ele>277.137024</ele><time>2023-12-20T06:16:34Z</time><name>268</name><sym>Flag, Blue</sym></wpt><wpt lat="32.267865" lon="70.727727"><ele>277.134766</ele><time>2023-12-20T06:16:39Z</time><name>269</name><sym>Flag, Blue</sym></wpt><wpt lat="32.271636" lon="70.721626"><ele>277.371002</ele><time>2023-12-20T06:31:04Z</time><name>270</name><sym>Flag, Blue</sym></wpt><wpt lat="32.272792" lon="70.720857"><ele>275.430084</ele><time>2023-12-20T06:34:05Z</time><name>271</name><sym>Flag, Blue</sym></wpt><wpt lat="32.273700" lon="70.720147"><ele>276.552673</ele><time>2023-12-20T06:36:09Z</time><name>272</name><sym>Flag, Blue</sym></wpt><wpt lat="32.273720" lon="70.720143"><ele>276.547302</ele><time>2023-12-20T06:36:15Z</time><name>273</name><sym>Flag, Blue</sym></wpt><wpt lat="32.273709" lon="70.720126"><ele>276.542633</ele><time>2023-12-20T06:36:20Z</time><name>274</name><sym>Flag, Blue</sym></wpt><wpt lat="32.274451" lon="70.719899"><ele>277.845764</ele><time>2023-12-20T06:45:40Z</time><name>275</name><sym>Flag, Blue</sym></wpt><wpt lat="32.275386" lon="70.719730"><ele>278.212585</ele><time>2023-12-20T06:47:46Z</time><name>276</name><sym>Flag, Blue</sym></wpt><wpt lat="32.275356" lon="70.718932"><ele>279.043915</ele><time>2023-12-20T06:49:19Z</time><name>277</name><sym>Flag, Blue</sym></wpt><wpt lat="32.275543" lon="70.720330"><ele>280.858521</ele><time>2023-12-20T06:51:47Z</time><name>278</name><sym>Flag, Blue</sym></wpt><wpt lat="32.276026" lon="70.719446"><ele>279.490448</ele><time>2023-12-20T06:54:13Z</time><name>279</name><sym>Flag, Blue</sym></wpt><wpt lat="32.276310" lon="70.719642"><ele>280.218109</ele><time>2023-12-20T06:55:56Z</time><name>280</name><sym>Flag, Blue</sym></wpt></gpx>